<?xml version="1.0" encoding="UTF-8"?>
<gpx creator="Garmin Connect" version="1.1"
  xsi:schemaLocation="http://www.topografix.com/GPX/1/1 http://www.topografix.com/GPX/11.xsd"
  xmlns:ns3="http://www.garmin.com/xmlschemas/TrackPointExtension/v1"
  xmlns="http://www.topografix.com/GPX/1/1"
  xmlns:xsi="http://www.w3.org/2001/XMLSchema-instance" xmlns:ns2="http://www.garmin.com/xmlschemas/GpxExtensions/v3">
  <metadata>
    <name>Gravel-Laxou-26</name>
    <link href="connect.garmin.com">
      <text>Garmin Connect</text>
    </link>
    <time>2023-12-25T10:37:41.000Z</time>
  </metadata>
  <trk>
    <name>Gravel-Laxou-26</name>
    <trkseg>
      <trkpt lat="48.68899209424853" lon="6.12981989979744">
        <ele>347.63</ele>
      </trkpt>
      <trkpt lat="48.6894428730011" lon="6.129716634750366">
        <ele>348.43</ele>
      </trkpt>
      <trkpt lat="48.68947505950928" lon="6.129695177078247">
        <ele>349.02</ele>
      </trkpt>
      <trkpt lat="48.689507246017456" lon="6.129577159881592">
        <ele>349.61</ele>
      </trkpt>
      <trkpt lat="48.68944295682013" lon="6.1288368701934814">
        <ele>350.41</ele>
      </trkpt>
      <trkpt lat="48.689807653427124" lon="6.1287617683410645">
        <ele>351.12</ele>
      </trkpt>
      <trkpt lat="48.68995794095099" lon="6.1287617683410645">
        <ele>351.33</ele>
      </trkpt>
      <trkpt lat="48.69002231396735" lon="6.128783226013184">
        <ele>351.24</ele>
      </trkpt>
      <trkpt lat="48.690054416656494" lon="6.128954887390137">
        <ele>350.95</ele>
      </trkpt>
      <trkpt lat="48.69010806083679" lon="6.129051446914673">
        <ele>350.38</ele>
      </trkpt>
      <trkpt lat="48.690086686983705" lon="6.129190921783447">
        <ele>349.53</ele>
      </trkpt>
      <trkpt lat="48.690086686983705" lon="6.129223108291626">
        <ele>348.48</ele>
      </trkpt>
      <trkpt lat="48.68986129760742" lon="6.129802465438843">
        <ele>346.81</ele>
      </trkpt>
      <trkpt lat="48.689818382263184" lon="6.1299848556518555">
        <ele>345.11</ele>
      </trkpt>
      <trkpt lat="48.68971109390259" lon="6.130306720733643">
        <ele>343.42</ele>
      </trkpt>
      <trkpt lat="48.68967890739441" lon="6.130467653274536">
        <ele>341.76</ele>
      </trkpt>
      <trkpt lat="48.68939995765686" lon="6.131776571273804">
        <ele>339.52</ele>
      </trkpt>
      <trkpt lat="48.689335668459535" lon="6.132012605667114">
        <ele>337.82</ele>
      </trkpt>
      <trkpt lat="48.6893355846405" lon="6.132012605667114">
        <ele>336.34</ele>
      </trkpt>
      <trkpt lat="48.68921765126288" lon="6.132591962814331">
        <ele>334.73</ele>
      </trkpt>
      <trkpt lat="48.68928202427924" lon="6.13261342048645">
        <ele>333.53</ele>
      </trkpt>
      <trkpt lat="48.689281940460205" lon="6.13261342048645">
        <ele>332.51</ele>
      </trkpt>
      <trkpt lat="48.68935704231262" lon="6.132645606994629">
        <ele>331.66</ele>
      </trkpt>
      <trkpt lat="48.689335668459535" lon="6.132742166519165">
        <ele>330.86</ele>
      </trkpt>
      <trkpt lat="48.68932485580444" lon="6.132817268371582">
        <ele>330.24</ele>
      </trkpt>
      <trkpt lat="48.689292669296265" lon="6.1328065395355225">
        <ele>329.85</ele>
      </trkpt>
      <trkpt lat="48.689281940460205" lon="6.132838726043701">
        <ele>329.58</ele>
      </trkpt>
      <trkpt lat="48.68922838009894" lon="6.133085489273071">
        <ele>329.32</ele>
      </trkpt>
      <trkpt lat="48.68922829627991" lon="6.133085489273071">
        <ele>329.36</ele>
      </trkpt>
      <trkpt lat="48.68921765126288" lon="6.133149862289429">
        <ele>329.52</ele>
      </trkpt>
      <trkpt lat="48.68915319442749" lon="6.133450269699097">
        <ele>329.83</ele>
      </trkpt>
      <trkpt lat="48.689260482788086" lon="6.1335039138793945">
        <ele>330.34</ele>
      </trkpt>
      <trkpt lat="48.689314126968384" lon="6.1335039138793945">
        <ele>331.0</ele>
      </trkpt>
      <trkpt lat="48.689314210787416" lon="6.1335039138793945">
        <ele>331.83</ele>
      </trkpt>
      <trkpt lat="48.68957161903381" lon="6.133514642715454">
        <ele>332.8</ele>
      </trkpt>
      <trkpt lat="48.69014024734497" lon="6.133342981338501">
        <ele>334.35</ele>
      </trkpt>
      <trkpt lat="48.69049429893494" lon="6.133171319961548">
        <ele>335.65</ele>
      </trkpt>
      <trkpt lat="48.69074106216431" lon="6.133021116256714">
        <ele>336.99</ele>
      </trkpt>
      <trkpt lat="48.690998554229736" lon="6.132785081863403">
        <ele>338.39</ele>
      </trkpt>
      <trkpt lat="48.691245317459106" lon="6.132495403289795">
        <ele>339.85</ele>
      </trkpt>
      <trkpt lat="48.69148135185242" lon="6.132194995880127">
        <ele>341.25</ele>
      </trkpt>
      <trkpt lat="48.69148143567145" lon="6.132194995880127">
        <ele>342.41</ele>
      </trkpt>
      <trkpt lat="48.69210362434387" lon="6.131422519683838">
        <ele>343.67</ele>
      </trkpt>
      <trkpt lat="48.69222164154053" lon="6.131347417831421">
        <ele>344.62</ele>
      </trkpt>
      <trkpt lat="48.69223245419562" lon="6.131272315979004">
        <ele>345.45</ele>
      </trkpt>
      <trkpt lat="48.69222164154053" lon="6.131250858306885">
        <ele>346.14</ele>
      </trkpt>
      <trkpt lat="48.692275285720825" lon="6.1311328411102295">
        <ele>346.7</ele>
      </trkpt>
      <trkpt lat="48.69233965873718" lon="6.1310577392578125">
        <ele>347.1</ele>
      </trkpt>
      <trkpt lat="48.69261860847473" lon="6.130853891372681">
        <ele>347.37</ele>
      </trkpt>
      <trkpt lat="48.69265087880194" lon="6.130853891372681">
        <ele>347.48</ele>
      </trkpt>
      <trkpt lat="48.69271516799927" lon="6.130853891372681">
        <ele>347.43</ele>
      </trkpt>
      <trkpt lat="48.69272589683533" lon="6.130703687667847">
        <ele>347.32</ele>
      </trkpt>
      <trkpt lat="48.692779541015625" lon="6.130585670471191">
        <ele>347.06</ele>
      </trkpt>
      <trkpt lat="48.69284391403198" lon="6.130467653274536">
        <ele>346.67</ele>
      </trkpt>
      <trkpt lat="48.69307994842529" lon="6.130274534225464">
        <ele>346.19</ele>
      </trkpt>
      <trkpt lat="48.69333744049072" lon="6.13012433052063">
        <ele>345.58</ele>
      </trkpt>
      <trkpt lat="48.693562746047974" lon="6.130038499832153">
        <ele>344.86</ele>
      </trkpt>
      <trkpt lat="48.69394898414612" lon="6.1299848556518555">
        <ele>343.94</ele>
      </trkpt>
      <trkpt lat="48.694281578063965" lon="6.130006313323975">
        <ele>343.08</ele>
      </trkpt>
      <trkpt lat="48.694496154785156" lon="6.1300599575042725">
        <ele>342.32</ele>
      </trkpt>
      <trkpt lat="48.69463562965393" lon="6.13012433052063">
        <ele>341.48</ele>
      </trkpt>
      <trkpt lat="48.69489312171936" lon="6.130295991897583">
        <ele>340.54</ele>
      </trkpt>
      <trkpt lat="48.695043325424194" lon="6.130424737930298">
        <ele>339.59</ele>
      </trkpt>
      <trkpt lat="48.69515061378479" lon="6.130596399307251">
        <ele>338.7</ele>
      </trkpt>
      <trkpt lat="48.695268630981445" lon="6.130810976028442">
        <ele>337.88</ele>
      </trkpt>
      <trkpt lat="48.695300817489624" lon="6.1308324337005615">
        <ele>337.21</ele>
      </trkpt>
      <trkpt lat="48.6953330039978" lon="6.130800247192383">
        <ele>336.63</ele>
      </trkpt>
      <trkpt lat="48.695333087816834" lon="6.130800247192383">
        <ele>336.2</ele>
      </trkpt>
      <trkpt lat="48.6953330039978" lon="6.130800247192383">
        <ele>336.63</ele>
      </trkpt>
      <trkpt lat="48.69566568173468" lon="6.1315083503723145">
        <ele>335.53</ele>
      </trkpt>
      <trkpt lat="48.69575151242316" lon="6.131733655929565">
        <ele>335.46</ele>
      </trkpt>
      <trkpt lat="48.695826614275575" lon="6.131680011749268">
        <ele>335.54</ele>
      </trkpt>
      <trkpt lat="48.69582653045654" lon="6.131680011749268">
        <ele>335.78</ele>
      </trkpt>
      <trkpt lat="48.6961913947016" lon="6.131293773651123">
        <ele>336.3</ele>
      </trkpt>
      <trkpt lat="48.69620212353766" lon="6.131272315979004">
        <ele>336.8</ele>
      </trkpt>
      <trkpt lat="48.69664192199707" lon="6.130778789520264">
        <ele>337.72</ele>
      </trkpt>
      <trkpt lat="48.69693160057068" lon="6.131229400634766">
        <ele>338.33</ele>
      </trkpt>
      <trkpt lat="48.69723200798035" lon="6.1315834522247314">
        <ele>339.2</ele>
      </trkpt>
      <trkpt lat="48.697510957717896" lon="6.131916046142578">
        <ele>340.02</ele>
      </trkpt>
      <trkpt lat="48.69777926243842" lon="6.1321306228637695">
        <ele>340.82</ele>
      </trkpt>
      <trkpt lat="48.698015213012695" lon="6.132248640060425">
        <ele>341.76</ele>
      </trkpt>
      <trkpt lat="48.69820833206177" lon="6.132291555404663">
        <ele>342.62</ele>
      </trkpt>
      <trkpt lat="48.69840145111084" lon="6.132313013076782">
        <ele>343.38</ele>
      </trkpt>
      <trkpt lat="48.69862675666809" lon="6.132302284240723">
        <ele>344.01</ele>
      </trkpt>
      <trkpt lat="48.69881987571716" lon="6.132237911224365">
        <ele>344.62</ele>
      </trkpt>
      <trkpt lat="48.699034452438354" lon="6.1321306228637695">
        <ele>345.31</ele>
      </trkpt>
      <trkpt lat="48.69917392730713" lon="6.132023334503174">
        <ele>346.0</ele>
      </trkpt>
      <trkpt lat="48.6993134021759" lon="6.131883859634399">
        <ele>346.67</ele>
      </trkpt>
      <trkpt lat="48.699485063552856" lon="6.131690740585327">
        <ele>347.27</ele>
      </trkpt>
      <trkpt lat="48.69959235191345" lon="6.131519079208374">
        <ele>347.94</ele>
      </trkpt>
      <trkpt lat="48.69973182678223" lon="6.131272315979004">
        <ele>348.61</ele>
      </trkpt>
      <trkpt lat="48.69982838630676" lon="6.131014823913574">
        <ele>349.3</ele>
      </trkpt>
      <trkpt lat="48.69991421699524" lon="6.1307573318481445">
        <ele>349.98</ele>
      </trkpt>
      <trkpt lat="48.700289810076356" lon="6.130843162536621">
        <ele>350.9</ele>
      </trkpt>
      <trkpt lat="48.70045065879822" lon="6.1308753490448">
        <ele>351.58</ele>
      </trkpt>
      <trkpt lat="48.70076187886298" lon="6.130950450897217">
        <ele>352.28</ele>
      </trkpt>
      <trkpt lat="48.700761795043945" lon="6.130950450897217">
        <ele>352.87</ele>
      </trkpt>
      <trkpt lat="48.7009334564209" lon="6.130993366241455">
        <ele>353.46</ele>
      </trkpt>
      <trkpt lat="48.701030099764466" lon="6.130971908569336">
        <ele>354.03</ele>
      </trkpt>
      <trkpt lat="48.701276779174805" lon="6.130886077880859">
        <ele>354.6</ele>
      </trkpt>
      <trkpt lat="48.701276779174805" lon="6.130918264389038">
        <ele>355.07</ele>
      </trkpt>
      <trkpt lat="48.70185622014105" lon="6.130714416503906">
        <ele>355.72</ele>
      </trkpt>
      <trkpt lat="48.70217800140381" lon="6.1306071281433105">
        <ele>356.18</ele>
      </trkpt>
      <trkpt lat="48.702231645584106" lon="6.1306071281433105">
        <ele>356.55</ele>
      </trkpt>
      <trkpt lat="48.702253103256226" lon="6.130414009094238">
        <ele>356.84</ele>
      </trkpt>
      <trkpt lat="48.70226391591132" lon="6.130349636077881">
        <ele>357.16</ele>
      </trkpt>
      <trkpt lat="48.702296018600464" lon="6.130306720733643">
        <ele>357.45</ele>
      </trkpt>
      <trkpt lat="48.70242484845221" lon="6.130199432373047">
        <ele>357.7</ele>
      </trkpt>
      <trkpt lat="48.70245695114136" lon="6.130188703536987">
        <ele>357.98</ele>
      </trkpt>
      <trkpt lat="48.702499866485596" lon="6.130274534225464">
        <ele>358.26</ele>
      </trkpt>
      <trkpt lat="48.702521324157715" lon="6.130349636077881">
        <ele>358.55</ele>
      </trkpt>
      <trkpt lat="48.70257496833801" lon="6.130392551422119">
        <ele>358.85</ele>
      </trkpt>
      <trkpt lat="48.70266079902649" lon="6.130542755126953">
        <ele>359.18</ele>
      </trkpt>
      <trkpt lat="48.70268234051764" lon="6.1305320262908936">
        <ele>359.5</ele>
      </trkpt>
      <trkpt lat="48.70270371437073" lon="6.130510568618774">
        <ele>359.83</ele>
      </trkpt>
      <trkpt lat="48.70307922363281" lon="6.130231618881226">
        <ele>360.19</ele>
      </trkpt>
      <trkpt lat="48.70311141014099" lon="6.13012433052063">
        <ele>360.51</ele>
      </trkpt>
      <trkpt lat="48.702982664108276" lon="6.129716634750366">
        <ele>360.76</ele>
      </trkpt>
      <trkpt lat="48.70298274792731" lon="6.12963080406189">
        <ele>360.92</ele>
      </trkpt>
      <trkpt lat="48.703047037124634" lon="6.129587888717651">
        <ele>361.0</ele>
      </trkpt>
      <trkpt lat="48.70307922363281" lon="6.129566431045532">
        <ele>360.94</ele>
      </trkpt>
      <trkpt lat="48.702993392944336" lon="6.1293089389801025">
        <ele>360.7</ele>
      </trkpt>
      <trkpt lat="48.70286464691162" lon="6.128944158554077">
        <ele>360.36</ele>
      </trkpt>
      <trkpt lat="48.70281100273132" lon="6.128911972045898">
        <ele>359.8</ele>
      </trkpt>
      <trkpt lat="48.70281100273132" lon="6.128847599029541">
        <ele>359.02</ele>
      </trkpt>
      <trkpt lat="48.702242374420166" lon="6.127324104309082">
        <ele>357.94</ele>
      </trkpt>
      <trkpt lat="48.70169520378113" lon="6.125972270965576">
        <ele>356.43</ele>
      </trkpt>
      <trkpt lat="48.70144844055176" lon="6.125510931015015">
        <ele>354.93</ele>
      </trkpt>
      <trkpt lat="48.7013840675354" lon="6.125360727310181">
        <ele>353.14</ele>
      </trkpt>
      <trkpt lat="48.70067596435547" lon="6.1238157749176025">
        <ele>350.84</ele>
      </trkpt>
      <trkpt lat="48.69967818260193" lon="6.121830940246582">
        <ele>348.32</ele>
      </trkpt>
      <trkpt lat="48.69932413101196" lon="6.121176481246948">
        <ele>345.73</ele>
      </trkpt>
      <trkpt lat="48.698991537094116" lon="6.120586395263672">
        <ele>343.04</ele>
      </trkpt>
      <trkpt lat="48.69831562042236" lon="6.119438409805298">
        <ele>339.98</ele>
      </trkpt>
      <trkpt lat="48.69786500930786" lon="6.118569374084473">
        <ele>336.63</ele>
      </trkpt>
      <trkpt lat="48.697543144226074" lon="6.117914915084839">
        <ele>333.33</ele>
      </trkpt>
      <trkpt lat="48.69717836380005" lon="6.1170995235443115">
        <ele>330.06</ele>
      </trkpt>
      <trkpt lat="48.69685649871826" lon="6.116262674331665">
        <ele>326.57</ele>
      </trkpt>
      <trkpt lat="48.69564414024353" lon="6.1127543449401855">
        <ele>322.48</ele>
      </trkpt>
      <trkpt lat="48.69539737701416" lon="6.111917495727539">
        <ele>319.27</ele>
      </trkpt>
      <trkpt lat="48.69522571563721" lon="6.111220121383667">
        <ele>316.43</ele>
      </trkpt>
      <trkpt lat="48.695032596588135" lon="6.11014723777771">
        <ele>313.43</ele>
      </trkpt>
      <trkpt lat="48.69491457939148" lon="6.1093103885650635">
        <ele>310.53</ele>
      </trkpt>
      <trkpt lat="48.69481801986694" lon="6.108269691467285">
        <ele>307.83</ele>
      </trkpt>
      <trkpt lat="48.69471073150635" lon="6.106166839599609">
        <ele>304.85</ele>
      </trkpt>
      <trkpt lat="48.69468927383423" lon="6.105469465255737">
        <ele>303.17</ele>
      </trkpt>
      <trkpt lat="48.69470000267029" lon="6.104922294616699">
        <ele>301.79</ele>
      </trkpt>
      <trkpt lat="48.694764375686646" lon="6.104536056518555">
        <ele>300.76</ele>
      </trkpt>
      <trkpt lat="48.694807291030884" lon="6.10439658164978">
        <ele>299.83</ele>
      </trkpt>
      <trkpt lat="48.69492530822754" lon="6.104235649108887">
        <ele>299.27</ele>
      </trkpt>
      <trkpt lat="48.69509696960449" lon="6.104106903076172">
        <ele>298.91</ele>
      </trkpt>
      <trkpt lat="48.69516134262085" lon="6.104096174240112">
        <ele>298.61</ele>
      </trkpt>
      <trkpt lat="48.69521498680115" lon="6.104053258895874">
        <ele>298.47</ele>
      </trkpt>
      <trkpt lat="48.695257902145386" lon="6.1039674282073975">
        <ele>298.42</ele>
      </trkpt>
      <trkpt lat="48.695268630981445" lon="6.103870868682861">
        <ele>298.42</ele>
      </trkpt>
      <trkpt lat="48.695268630981445" lon="6.1038172245025635">
        <ele>298.48</ele>
      </trkpt>
      <trkpt lat="48.695268630981445" lon="6.103677749633789">
        <ele>298.56</ele>
      </trkpt>
      <trkpt lat="48.6953330039978" lon="6.1033666133880615">
        <ele>298.65</ele>
      </trkpt>
      <trkpt lat="48.69539737701416" lon="6.103023290634155">
        <ele>298.7</ele>
      </trkpt>
      <trkpt lat="48.69540810585022" lon="6.102637052536011">
        <ele>298.75</ele>
      </trkpt>
      <trkpt lat="48.69539737701416" lon="6.102465391159058">
        <ele>298.91</ele>
      </trkpt>
      <trkpt lat="48.69537591934204" lon="6.102304458618164">
        <ele>299.15</ele>
      </trkpt>
      <trkpt lat="48.69517207145691" lon="6.101467609405518">
        <ele>299.43</ele>
      </trkpt>
      <trkpt lat="48.69507551193237" lon="6.100877523422241">
        <ele>299.59</ele>
      </trkpt>
      <trkpt lat="48.695054054260254" lon="6.100437641143799">
        <ele>299.86</ele>
      </trkpt>
      <trkpt lat="48.695054054260254" lon="6.0995471477508545">
        <ele>300.23</ele>
      </trkpt>
      <trkpt lat="48.695032596588135" lon="6.098796129226685">
        <ele>300.65</ele>
      </trkpt>
      <trkpt lat="48.69497895240784" lon="6.098302602767944">
        <ele>301.33</ele>
      </trkpt>
      <trkpt lat="48.69492539204657" lon="6.0979163646698">
        <ele>302.18</ele>
      </trkpt>
      <trkpt lat="48.69492530822754" lon="6.0979163646698">
        <ele>303.02</ele>
      </trkpt>
      <trkpt lat="48.694796562194824" lon="6.097294092178345">
        <ele>304.26</ele>
      </trkpt>
      <trkpt lat="48.69447469711304" lon="6.096049547195435">
        <ele>305.76</ele>
      </trkpt>
      <trkpt lat="48.69439959526062" lon="6.0956525802612305">
        <ele>307.18</ele>
      </trkpt>
      <trkpt lat="48.69435667991638" lon="6.095287799835205">
        <ele>308.54</ele>
      </trkpt>
      <trkpt lat="48.69423866271973" lon="6.092004776000977">
        <ele>309.53</ele>
      </trkpt>
      <trkpt lat="48.69414210319519" lon="6.088442802429199">
        <ele>310.33</ele>
      </trkpt>
      <trkpt lat="48.69407773017883" lon="6.0868871212005615">
        <ele>312.38</ele>
      </trkpt>
      <trkpt lat="48.694045543670654" lon="6.085073947906494">
        <ele>315.58</ele>
      </trkpt>
      <trkpt lat="48.694013357162476" lon="6.0833680629730225">
        <ele>318.72</ele>
      </trkpt>
      <trkpt lat="48.69393825531006" lon="6.08167290687561">
        <ele>321.47</ele>
      </trkpt>
      <trkpt lat="48.69365930557251" lon="6.076619625091553">
        <ele>324.79</ele>
      </trkpt>
      <trkpt lat="48.6934769153595" lon="6.074323654174805">
        <ele>327.59</ele>
      </trkpt>
      <trkpt lat="48.69347699917853" lon="6.074066162109375">
        <ele>329.85</ele>
      </trkpt>
      <trkpt lat="48.6934769153595" lon="6.074066162109375">
        <ele>331.84</ele>
      </trkpt>
      <trkpt lat="48.69348764419556" lon="6.073776483535767">
        <ele>333.72</ele>
      </trkpt>
      <trkpt lat="48.693509101867676" lon="6.073465347290039">
        <ele>335.25</ele>
      </trkpt>
      <trkpt lat="48.69371294975281" lon="6.073518991470337">
        <ele>336.52</ele>
      </trkpt>
      <trkpt lat="48.69371303357184" lon="6.073518991470337">
        <ele>337.45</ele>
      </trkpt>
      <trkpt lat="48.694292306900024" lon="6.073422431945801">
        <ele>338.14</ele>
      </trkpt>
      <trkpt lat="48.69521507062018" lon="6.073218584060669">
        <ele>338.77</ele>
      </trkpt>
      <trkpt lat="48.696041107177734" lon="6.073036193847656">
        <ele>338.38</ele>
      </trkpt>
      <trkpt lat="48.696041190996766" lon="6.073036193847656">
        <ele>338.4</ele>
      </trkpt>
      <trkpt lat="48.696556175127625" lon="6.072907447814941">
        <ele>337.96</ele>
      </trkpt>
      <trkpt lat="48.69685658253729" lon="6.072843074798584">
        <ele>337.78</ele>
      </trkpt>
      <trkpt lat="48.697285652160645" lon="6.072746515274048">
        <ele>337.64</ele>
      </trkpt>
      <trkpt lat="48.69732856750488" lon="6.072810888290405">
        <ele>337.38</ele>
      </trkpt>
      <trkpt lat="48.69736075401306" lon="6.072810888290405">
        <ele>337.13</ele>
      </trkpt>
      <trkpt lat="48.69738221168518" lon="6.072800159454346">
        <ele>336.91</ele>
      </trkpt>
      <trkpt lat="48.69740375317633" lon="6.072714328765869">
        <ele>336.72</ele>
      </trkpt>
      <trkpt lat="48.69739294052124" lon="6.072660684585571">
        <ele>336.59</ele>
      </trkpt>
      <trkpt lat="48.69736075401306" lon="6.072628498077393">
        <ele>336.52</ele>
      </trkpt>
      <trkpt lat="48.69767189025879" lon="6.0704076290130615">
        <ele>336.86</ele>
      </trkpt>
      <trkpt lat="48.69806885719299" lon="6.067864894866943">
        <ele>337.12</ele>
      </trkpt>
      <trkpt lat="48.69811177253723" lon="6.067843437194824">
        <ele>337.13</ele>
      </trkpt>
      <trkpt lat="48.69815468788147" lon="6.067779064178467">
        <ele>337.2</ele>
      </trkpt>
      <trkpt lat="48.69814395904541" lon="6.067671775817871">
        <ele>337.31</ele>
      </trkpt>
      <trkpt lat="48.69809031486511" lon="6.067618131637573">
        <ele>337.46</ele>
      </trkpt>
      <trkpt lat="48.69856238365173" lon="6.064356565475464">
        <ele>337.26</ele>
      </trkpt>
      <trkpt lat="48.69857311248779" lon="6.064099073410034">
        <ele>337.51</ele>
      </trkpt>
      <trkpt lat="48.69856238365173" lon="6.063905954360962">
        <ele>337.84</ele>
      </trkpt>
      <trkpt lat="48.69839072227478" lon="6.062328815460205">
        <ele>338.15</ele>
      </trkpt>
      <trkpt lat="48.69842290878296" lon="6.062307357788086">
        <ele>338.48</ele>
      </trkpt>
      <trkpt lat="48.69844445027411" lon="6.062221527099609">
        <ele>338.87</ele>
      </trkpt>
      <trkpt lat="48.69843363761902" lon="6.0621678829193115">
        <ele>339.31</ele>
      </trkpt>
      <trkpt lat="48.69840145111084" lon="6.062135696411133">
        <ele>339.81</ele>
      </trkpt>
      <trkpt lat="48.69836934842169" lon="6.062135696411133">
        <ele>340.3</ele>
      </trkpt>
      <trkpt lat="48.69832634925842" lon="6.06220006942749">
        <ele>340.78</ele>
      </trkpt>
      <trkpt lat="48.69832634925842" lon="6.062253713607788">
        <ele>341.22</ele>
      </trkpt>
      <trkpt lat="48.696523904800415" lon="6.062672138214111">
        <ele>342.0</ele>
      </trkpt>
      <trkpt lat="48.696448802948" lon="6.06271505355835">
        <ele>342.4</ele>
      </trkpt>
      <trkpt lat="48.69625576771796" lon="6.062897443771362">
        <ele>342.76</ele>
      </trkpt>
      <trkpt lat="48.696255683898926" lon="6.062897443771362">
        <ele>342.79</ele>
      </trkpt>
      <trkpt lat="48.69611620903015" lon="6.063069105148315">
        <ele>342.67</ele>
      </trkpt>
      <trkpt lat="48.69596600532532" lon="6.063305139541626">
        <ele>342.29</ele>
      </trkpt>
      <trkpt lat="48.69596600532532" lon="6.062779426574707">
        <ele>341.71</ele>
      </trkpt>
      <trkpt lat="48.69594463147223" lon="6.061309576034546">
        <ele>340.84</ele>
      </trkpt>
      <trkpt lat="48.69592317380011" lon="6.059314012527466">
        <ele>339.78</ele>
      </trkpt>
      <trkpt lat="48.69590171612799" lon="6.057758331298828">
        <ele>338.8</ele>
      </trkpt>
      <trkpt lat="48.69588017463684" lon="6.0565245151519775">
        <ele>337.76</ele>
      </trkpt>
      <trkpt lat="48.69586944580078" lon="6.056299209594727">
        <ele>336.75</ele>
      </trkpt>
      <trkpt lat="48.69585871696472" lon="6.055623292922974">
        <ele>335.55</ele>
      </trkpt>
      <trkpt lat="48.6963951587677" lon="6.0554516315460205">
        <ele>334.15</ele>
      </trkpt>
      <trkpt lat="48.69665265083313" lon="6.055483818054199">
        <ele>332.95</ele>
      </trkpt>
      <trkpt lat="48.696802854537964" lon="6.05546236038208">
        <ele>331.7</ele>
      </trkpt>
      <trkpt lat="48.69709253311157" lon="6.055365800857544">
        <ele>330.31</ele>
      </trkpt>
      <trkpt lat="48.697296380996704" lon="6.055258512496948">
        <ele>328.83</ele>
      </trkpt>
      <trkpt lat="48.697500228881836" lon="6.05520486831665">
        <ele>327.38</ele>
      </trkpt>
      <trkpt lat="48.69759678840637" lon="6.055140495300293">
        <ele>325.85</ele>
      </trkpt>
      <trkpt lat="48.69761824607849" lon="6.055065393447876">
        <ele>324.22</ele>
      </trkpt>
      <trkpt lat="48.69761824607849" lon="6.05496883392334">
        <ele>322.46</ele>
      </trkpt>
      <trkpt lat="48.6974573135376" lon="6.053434610366821">
        <ele>320.25</ele>
      </trkpt>
      <trkpt lat="48.69746804237366" lon="6.052951812744141">
        <ele>318.31</ele>
      </trkpt>
      <trkpt lat="48.697532415390015" lon="6.052511930465698">
        <ele>316.34</ele>
      </trkpt>
      <trkpt lat="48.697768449783325" lon="6.051803827285767">
        <ele>314.05</ele>
      </trkpt>
      <trkpt lat="48.69895935058594" lon="6.048574447631836">
        <ele>311.08</ele>
      </trkpt>
      <trkpt lat="48.69922757148743" lon="6.0478127002716064">
        <ele>308.42</ele>
      </trkpt>
      <trkpt lat="48.70021462440491" lon="6.045033931732178">
        <ele>305.75</ele>
      </trkpt>
      <trkpt lat="48.70041847229004" lon="6.0447657108306885">
        <ele>303.33</ele>
      </trkpt>
      <trkpt lat="48.70068669319153" lon="6.0445404052734375">
        <ele>300.78</ele>
      </trkpt>
      <trkpt lat="48.70118021965027" lon="6.044003963470459">
        <ele>298.31</ele>
      </trkpt>
      <trkpt lat="48.70134115219116" lon="6.043896675109863">
        <ele>296.08</ele>
      </trkpt>
      <trkpt lat="48.70169520378113" lon="6.043789386749268">
        <ele>293.98</ele>
      </trkpt>
      <trkpt lat="48.70343327522278" lon="6.043446063995361">
        <ele>291.15</ele>
      </trkpt>
      <trkpt lat="48.70320796966553" lon="6.042534112930298">
        <ele>289.15</ele>
      </trkpt>
      <trkpt lat="48.70320805348456" lon="6.042534112930298">
        <ele>287.44</ele>
      </trkpt>
      <trkpt lat="48.703025579452515" lon="6.041761636734009">
        <ele>285.88</ele>
      </trkpt>
      <trkpt lat="48.70286464691162" lon="6.041257381439209">
        <ele>284.48</ele>
      </trkpt>
      <trkpt lat="48.70258569717407" lon="6.040635108947754">
        <ele>283.2</ele>
      </trkpt>
      <trkpt lat="48.70242476463318" lon="6.040313243865967">
        <ele>282.08</ele>
      </trkpt>
      <trkpt lat="48.70218873023987" lon="6.039916276931763">
        <ele>281.02</ele>
      </trkpt>
      <trkpt lat="48.702006340026855" lon="6.039648056030273">
        <ele>280.01</ele>
      </trkpt>
      <trkpt lat="48.70169520378113" lon="6.039261817932129">
        <ele>279.0</ele>
      </trkpt>
      <trkpt lat="48.700246810913086" lon="6.037652492523193">
        <ele>277.94</ele>
      </trkpt>
      <trkpt lat="48.69995713233948" lon="6.037319898605347">
        <ele>277.15</ele>
      </trkpt>
      <trkpt lat="48.699527978897095" lon="6.03674054145813">
        <ele>276.4</ele>
      </trkpt>
      <trkpt lat="48.69921684265137" lon="6.0362255573272705">
        <ele>275.6</ele>
      </trkpt>
      <trkpt lat="48.69890570640564" lon="6.035667657852173">
        <ele>274.88</ele>
      </trkpt>
      <trkpt lat="48.69869112968445" lon="6.0352277755737305">
        <ele>274.38</ele>
      </trkpt>
      <trkpt lat="48.69822978973389" lon="6.034144163131714">
        <ele>273.82</ele>
      </trkpt>
      <trkpt lat="48.69786500930786" lon="6.032953262329102">
        <ele>273.42</ele>
      </trkpt>
      <trkpt lat="48.69786509312689" lon="6.032953262329102">
        <ele>273.22</ele>
      </trkpt>
      <trkpt lat="48.69772561825812" lon="6.032449007034302">
        <ele>273.2</ele>
      </trkpt>
      <trkpt lat="48.69693160057068" lon="6.029369831085205">
        <ele>273.19</ele>
      </trkpt>
      <trkpt lat="48.69685658253729" lon="6.029412746429443">
        <ele>273.28</ele>
      </trkpt>
      <trkpt lat="48.696545362472534" lon="6.029605865478516">
        <ele>273.51</ele>
      </trkpt>
      <trkpt lat="48.69612702168524" lon="6.029788255691528">
        <ele>273.84</ele>
      </trkpt>
      <trkpt lat="48.69585871696472" lon="6.029895544052124">
        <ele>274.17</ele>
      </trkpt>
      <trkpt lat="48.695279359817505" lon="6.030153036117554">
        <ele>274.74</ele>
      </trkpt>
      <trkpt lat="48.69527944363654" lon="6.030153036117554">
        <ele>275.34</ele>
      </trkpt>
      <trkpt lat="48.69495749473572" lon="6.030324697494507">
        <ele>276.23</ele>
      </trkpt>
      <trkpt lat="48.69495757855475" lon="6.030324697494507">
        <ele>276.97</ele>
      </trkpt>
      <trkpt lat="48.69420647621155" lon="6.03074312210083">
        <ele>278.05</ele>
      </trkpt>
      <trkpt lat="48.693552017211914" lon="6.031086444854736">
        <ele>279.01</ele>
      </trkpt>
      <trkpt lat="48.6929726600647" lon="6.031461954116821">
        <ele>279.91</ele>
      </trkpt>
      <trkpt lat="48.69232892990112" lon="6.0319554805755615">
        <ele>280.96</ele>
      </trkpt>
      <trkpt lat="48.69187831878662" lon="6.032384634017944">
        <ele>281.79</ele>
      </trkpt>
      <trkpt lat="48.691803216934204" lon="6.032449007034302">
        <ele>282.62</ele>
      </trkpt>
      <trkpt lat="48.69166374206543" lon="6.03249192237854">
        <ele>283.45</ele>
      </trkpt>
      <trkpt lat="48.69169592857361" lon="6.032781600952148">
        <ele>284.38</ele>
      </trkpt>
      <trkpt lat="48.69115948677063" lon="6.032867431640625">
        <ele>286.15</ele>
      </trkpt>
      <trkpt lat="48.69085907936096" lon="6.032942533493042">
        <ele>287.19</ele>
      </trkpt>
      <trkpt lat="48.690505027770996" lon="6.033039093017578">
        <ele>288.55</ele>
      </trkpt>
      <trkpt lat="48.69040846824646" lon="6.033060550689697">
        <ele>289.86</ele>
      </trkpt>
      <trkpt lat="48.69033336639404" lon="6.033124923706055">
        <ele>291.31</ele>
      </trkpt>
      <trkpt lat="48.690258264541626" lon="6.033200025558472">
        <ele>292.89</ele>
      </trkpt>
      <trkpt lat="48.68999004364014" lon="6.033575534820557">
        <ele>294.75</ele>
      </trkpt>
      <trkpt lat="48.68961453437805" lon="6.033875942230225">
        <ele>296.87</ele>
      </trkpt>
      <trkpt lat="48.68934631347656" lon="6.034047603607178">
        <ele>299.07</ele>
      </trkpt>
      <trkpt lat="48.688541650772095" lon="6.034466028213501">
        <ele>301.32</ele>
      </trkpt>
      <trkpt lat="48.688026666641235" lon="6.034766435623169">
        <ele>304.07</ele>
      </trkpt>
      <trkpt lat="48.687855089083314" lon="6.034905910491943">
        <ele>306.78</ele>
      </trkpt>
      <trkpt lat="48.68770488537848" lon="6.035099029541016">
        <ele>309.69</ele>
      </trkpt>
      <trkpt lat="48.685280084609985" lon="6.038714647293091">
        <ele>313.16</ele>
      </trkpt>
      <trkpt lat="48.68465789593756" lon="6.039605140686035">
        <ele>316.13</ele>
      </trkpt>
      <trkpt lat="48.681117380037904" lon="6.044422388076782">
        <ele>320.57</ele>
      </trkpt>
      <trkpt lat="48.68102082051337" lon="6.044561862945557">
        <ele>323.7</ele>
      </trkpt>
      <trkpt lat="48.67822051048279" lon="6.0482847690582275">
        <ele>327.53</ele>
      </trkpt>
      <trkpt lat="48.67822059430182" lon="6.0482847690582275">
        <ele>330.19</ele>
      </trkpt>
      <trkpt lat="48.67738374508917" lon="6.052232980728149">
        <ele>332.58</ele>
      </trkpt>
      <trkpt lat="48.67665418423712" lon="6.055730581283569">
        <ele>335.08</ele>
      </trkpt>
      <trkpt lat="48.67590308189392" lon="6.059367656707764">
        <ele>337.37</ele>
      </trkpt>
      <trkpt lat="48.675806522369385" lon="6.059635877609253">
        <ele>338.75</ele>
      </trkpt>
      <trkpt lat="48.67564558982849" lon="6.059839725494385">
        <ele>339.72</ele>
      </trkpt>
      <trkpt lat="48.67536664009094" lon="6.060086488723755">
        <ele>340.32</ele>
      </trkpt>
      <trkpt lat="48.67501258850098" lon="6.060547828674316">
        <ele>340.23</ele>
      </trkpt>
      <trkpt lat="48.6748731136322" lon="6.060816049575806">
        <ele>340.12</ele>
      </trkpt>
      <trkpt lat="48.67464780807495" lon="6.061416864395142">
        <ele>339.8</ele>
      </trkpt>
      <trkpt lat="48.674561977386475" lon="6.061438322067261">
        <ele>339.68</ele>
      </trkpt>
      <trkpt lat="48.67441185750067" lon="6.061481237411499">
        <ele>339.53</ele>
      </trkpt>
      <trkpt lat="48.674293756484985" lon="6.061524152755737">
        <ele>339.41</ele>
      </trkpt>
      <trkpt lat="48.673853958025575" lon="6.061813831329346">
        <ele>339.44</ele>
      </trkpt>
      <trkpt lat="48.67385387420654" lon="6.061813831329346">
        <ele>339.49</ele>
      </trkpt>
      <trkpt lat="48.67375739850104" lon="6.061878204345703">
        <ele>339.71</ele>
      </trkpt>
      <trkpt lat="48.673553466796875" lon="6.0620176792144775">
        <ele>340.18</ele>
      </trkpt>
      <trkpt lat="48.67340326309204" lon="6.062071323394775">
        <ele>340.8</ele>
      </trkpt>
      <trkpt lat="48.67323160171509" lon="6.062082052230835">
        <ele>341.68</ele>
      </trkpt>
      <trkpt lat="48.67239483632147" lon="6.06196403503418">
        <ele>343.04</ele>
      </trkpt>
      <trkpt lat="48.671858394518495" lon="6.061878204345703">
        <ele>344.48</ele>
      </trkpt>
      <trkpt lat="48.67115020751953" lon="6.061781644821167">
        <ele>345.81</ele>
      </trkpt>
      <trkpt lat="48.670828342437744" lon="6.061749458312988">
        <ele>347.46</ele>
      </trkpt>
      <trkpt lat="48.67078551091254" lon="6.061770915985107">
        <ele>349.19</ele>
      </trkpt>
      <trkpt lat="48.67064595222473" lon="6.061813831329346">
        <ele>351.1</ele>
      </trkpt>
      <trkpt lat="48.670077407732606" lon="6.062135696411133">
        <ele>353.18</ele>
      </trkpt>
      <trkpt lat="48.669884288683534" lon="6.062253713607788">
        <ele>355.28</ele>
      </trkpt>
      <trkpt lat="48.668854320421815" lon="6.062833070755005">
        <ele>357.27</ele>
      </trkpt>
      <trkpt lat="48.668328607454896" lon="6.063133478164673">
        <ele>359.84</ele>
      </trkpt>
      <trkpt lat="48.66662263870239" lon="6.064056158065796">
        <ele>362.89</ele>
      </trkpt>
      <trkpt lat="48.66686940193176" lon="6.0694849491119385">
        <ele>365.41</ele>
      </trkpt>
      <trkpt lat="48.66689094342291" lon="6.07019305229187">
        <ele>367.18</ele>
      </trkpt>
      <trkpt lat="48.66695523262024" lon="6.071598529815674">
        <ele>368.55</ele>
      </trkpt>
      <trkpt lat="48.66695531643927" lon="6.071598529815674">
        <ele>369.76</ele>
      </trkpt>
      <trkpt lat="48.66714835166931" lon="6.075922250747681">
        <ele>370.98</ele>
      </trkpt>
      <trkpt lat="48.667341554537416" lon="6.080288887023926">
        <ele>371.56</ele>
      </trkpt>
      <trkpt lat="48.667298555374146" lon="6.0803210735321045">
        <ele>371.76</ele>
      </trkpt>
      <trkpt lat="48.667277097702026" lon="6.080374717712402">
        <ele>371.68</ele>
      </trkpt>
      <trkpt lat="48.667287826538086" lon="6.080460548400879">
        <ele>371.32</ele>
      </trkpt>
      <trkpt lat="48.667341470718384" lon="6.080524921417236">
        <ele>370.72</ele>
      </trkpt>
      <trkpt lat="48.667320096865296" lon="6.080728769302368">
        <ele>369.76</ele>
      </trkpt>
      <trkpt lat="48.667373741045594" lon="6.082788705825806">
        <ele>368.01</ele>
      </trkpt>
      <trkpt lat="48.66743811406195" lon="6.085481643676758">
        <ele>365.91</ele>
      </trkpt>
      <trkpt lat="48.66750248707831" lon="6.088346242904663">
        <ele>365.5</ele>
      </trkpt>
      <trkpt lat="48.66750240325928" lon="6.089075803756714">
        <ele>364.28</ele>
      </trkpt>
      <trkpt lat="48.66752394475043" lon="6.090534925460815">
        <ele>362.12</ele>
      </trkpt>
      <trkpt lat="48.66753467358649" lon="6.0912322998046875">
        <ele>361.24</ele>
      </trkpt>
      <trkpt lat="48.66754540242255" lon="6.092251539230347">
        <ele>361.25</ele>
      </trkpt>
      <trkpt lat="48.667556047439575" lon="6.092938184738159">
        <ele>360.49</ele>
      </trkpt>
      <trkpt lat="48.66755613125861" lon="6.0965752601623535">
        <ele>360.02</ele>
      </trkpt>
      <trkpt lat="48.66755613125861" lon="6.102089881896973">
        <ele>358.79</ele>
      </trkpt>
      <trkpt lat="48.66750248707831" lon="6.106681823730469">
        <ele>356.13</ele>
      </trkpt>
      <trkpt lat="48.66750240325928" lon="6.106681823730469">
        <ele>354.94</ele>
      </trkpt>
      <trkpt lat="48.66748102940619" lon="6.111348867416382">
        <ele>353.36</ele>
      </trkpt>
      <trkpt lat="48.66503485478461" lon="6.111949682235718">
        <ele>352.22</ele>
      </trkpt>
      <trkpt lat="48.664637887850404" lon="6.112046241760254">
        <ele>351.19</ele>
      </trkpt>
      <trkpt lat="48.663489818573" lon="6.112314462661743">
        <ele>350.42</ele>
      </trkpt>
      <trkpt lat="48.66327524185181" lon="6.112378835678101">
        <ele>349.62</ele>
      </trkpt>
      <trkpt lat="48.66327532567084" lon="6.112378835678101">
        <ele>348.94</ele>
      </trkpt>
      <trkpt lat="48.662556409835815" lon="6.112529039382935">
        <ele>348.06</ele>
      </trkpt>
      <trkpt lat="48.66241701878607" lon="6.112496852874756">
        <ele>347.58</ele>
      </trkpt>
      <trkpt lat="48.662309646606445" lon="6.112496852874756">
        <ele>347.22</ele>
      </trkpt>
      <trkpt lat="48.66225600242615" lon="6.112464666366577">
        <ele>346.96</ele>
      </trkpt>
      <trkpt lat="48.66185903549194" lon="6.111960411071777">
        <ele>346.85</ele>
      </trkpt>
      <trkpt lat="48.66176247596741" lon="6.111928224563599">
        <ele>346.79</ele>
      </trkpt>
      <trkpt lat="48.66170883178711" lon="6.111938953399658">
        <ele>346.74</ele>
      </trkpt>
      <trkpt lat="48.66165518760681" lon="6.112003326416016">
        <ele>346.73</ele>
      </trkpt>
      <trkpt lat="48.66151571273804" lon="6.112486124038696">
        <ele>346.63</ele>
      </trkpt>
      <trkpt lat="48.66137623786926" lon="6.112818717956543">
        <ele>346.54</ele>
      </trkpt>
      <trkpt lat="48.66126894950867" lon="6.112990379333496">
        <ele>346.46</ele>
      </trkpt>
      <trkpt lat="48.6612690333277" lon="6.112990379333496">
        <ele>346.33</ele>
      </trkpt>
      <trkpt lat="48.66115093231201" lon="6.113162040710449">
        <ele>346.16</ele>
      </trkpt>
      <trkpt lat="48.661032915115356" lon="6.113258600234985">
        <ele>345.93</ele>
      </trkpt>
      <trkpt lat="48.66038918495178" lon="6.113612651824951">
        <ele>345.75</ele>
      </trkpt>
      <trkpt lat="48.65975618362427" lon="6.113998889923096">
        <ele>345.35</ele>
      </trkpt>
      <trkpt lat="48.659595251083374" lon="6.114170551300049">
        <ele>344.85</ele>
      </trkpt>
      <trkpt lat="48.659595334902406" lon="6.114170551300049">
        <ele>344.41</ele>
      </trkpt>
      <trkpt lat="48.65924119949341" lon="6.11464262008667">
        <ele>343.59</ele>
      </trkpt>
      <trkpt lat="48.659037351608276" lon="6.114846467971802">
        <ele>343.11</ele>
      </trkpt>
      <trkpt lat="48.65866192616522" lon="6.114717721939087">
        <ele>342.87</ele>
      </trkpt>
      <trkpt lat="48.658586740493774" lon="6.11463189125061">
        <ele>342.52</ele>
      </trkpt>
      <trkpt lat="48.65847945213318" lon="6.114760637283325">
        <ele>342.16</ele>
      </trkpt>
      <trkpt lat="48.65852236747742" lon="6.114921569824219">
        <ele>341.89</ele>
      </trkpt>
      <trkpt lat="48.65852245129645" lon="6.114921569824219">
        <ele>341.78</ele>
      </trkpt>
      <trkpt lat="48.65865111351013" lon="6.115372180938721">
        <ele>341.63</ele>
      </trkpt>
      <trkpt lat="48.65876913070679" lon="6.115983724594116">
        <ele>341.45</ele>
      </trkpt>
      <trkpt lat="48.65888714790344" lon="6.1172497272491455">
        <ele>341.91</ele>
      </trkpt>
      <trkpt lat="48.658897960558534" lon="6.117560863494873">
        <ele>342.61</ele>
      </trkpt>
      <trkpt lat="48.65888714790344" lon="6.117786169052124">
        <ele>343.51</ele>
      </trkpt>
      <trkpt lat="48.658822774887085" lon="6.118268966674805">
        <ele>344.79</ele>
      </trkpt>
      <trkpt lat="48.658586740493774" lon="6.119213104248047">
        <ele>346.39</ele>
      </trkpt>
      <trkpt lat="48.658586824312806" lon="6.119213104248047">
        <ele>347.82</ele>
      </trkpt>
      <trkpt lat="48.65837216377258" lon="6.1200714111328125">
        <ele>349.66</ele>
      </trkpt>
      <trkpt lat="48.658350706100464" lon="6.1203718185424805">
        <ele>351.53</ele>
      </trkpt>
      <trkpt lat="48.65838289260864" lon="6.120790243148804">
        <ele>353.47</ele>
      </trkpt>
      <trkpt lat="48.65846872329712" lon="6.121315956115723">
        <ele>355.53</ele>
      </trkpt>
      <trkpt lat="48.65862965583801" lon="6.122077703475952">
        <ele>357.42</ele>
      </trkpt>
      <trkpt lat="48.65876913070679" lon="6.122549772262573">
        <ele>359.25</ele>
      </trkpt>
      <trkpt lat="48.65914463996887" lon="6.123697757720947">
        <ele>360.89</ele>
      </trkpt>
      <trkpt lat="48.659144723787904" lon="6.123697757720947">
        <ele>362.44</ele>
      </trkpt>
      <trkpt lat="48.65943431854248" lon="6.124781370162964">
        <ele>364.07</ele>
      </trkpt>
      <trkpt lat="48.659584606066346" lon="6.125178337097168">
        <ele>365.49</ele>
      </trkpt>
      <trkpt lat="48.6600136756897" lon="6.126036643981934">
        <ele>366.75</ele>
      </trkpt>
      <trkpt lat="48.66001375950873" lon="6.126036643981934">
        <ele>367.84</ele>
      </trkpt>
      <trkpt lat="48.66018533706665" lon="6.126444339752197">
        <ele>368.83</ele>
      </trkpt>
      <trkpt lat="48.660303354263306" lon="6.126798391342163">
        <ele>369.69</ele>
      </trkpt>
      <trkpt lat="48.66043210029602" lon="6.127259731292725">
        <ele>370.46</ele>
      </trkpt>
      <trkpt lat="48.660603761672974" lon="6.127989292144775">
        <ele>371.2</ele>
      </trkpt>
      <trkpt lat="48.660603845492005" lon="6.127989292144775">
        <ele>371.63</ele>
      </trkpt>
      <trkpt lat="48.66075404919684" lon="6.1287617683410645">
        <ele>371.91</ele>
      </trkpt>
      <trkpt lat="48.66077542304993" lon="6.128847599029541">
        <ele>372.06</ele>
      </trkpt>
      <trkpt lat="48.66077550686896" lon="6.128847599029541">
        <ele>372.09</ele>
      </trkpt>
      <trkpt lat="48.660786151885986" lon="6.128933429718018">
        <ele>372.0</ele>
      </trkpt>
      <trkpt lat="48.66075404919684" lon="6.129051446914673">
        <ele>371.79</ele>
      </trkpt>
      <trkpt lat="48.66072177886963" lon="6.129137277603149">
        <ele>371.47</ele>
      </trkpt>
      <trkpt lat="48.660786151885986" lon="6.1292338371276855">
        <ele>371.02</ele>
      </trkpt>
      <trkpt lat="48.66087198257446" lon="6.129437685012817">
        <ele>370.47</ele>
      </trkpt>
      <trkpt lat="48.660872066393495" lon="6.129437685012817">
        <ele>369.89</ele>
      </trkpt>
      <trkpt lat="48.66126894950867" lon="6.130478382110596">
        <ele>369.15</ele>
      </trkpt>
      <trkpt lat="48.6612690333277" lon="6.130478382110596">
        <ele>368.42</ele>
      </trkpt>
      <trkpt lat="48.661580085754395" lon="6.131229400634766">
        <ele>367.4</ele>
      </trkpt>
      <trkpt lat="48.66177320480347" lon="6.131604909896851">
        <ele>366.52</ele>
      </trkpt>
      <trkpt lat="48.66189122200012" lon="6.131808757781982">
        <ele>365.58</ele>
      </trkpt>
      <trkpt lat="48.662320375442505" lon="6.132388114929199">
        <ele>364.44</ele>
      </trkpt>
      <trkpt lat="48.662577867507935" lon="6.132795810699463">
        <ele>363.42</ele>
      </trkpt>
      <trkpt lat="48.66256722249091" lon="6.1328065395355225">
        <ele>362.39</ele>
      </trkpt>
      <trkpt lat="48.66270669735968" lon="6.133064031600952">
        <ele>361.18</ele>
      </trkpt>
      <trkpt lat="48.662824630737305" lon="6.133267879486084">
        <ele>359.91</ele>
      </trkpt>
      <trkpt lat="48.662846172228456" lon="6.133246421813965">
        <ele>358.71</ele>
      </trkpt>
      <trkpt lat="48.66291054524481" lon="6.133160591125488">
        <ele>357.45</ele>
      </trkpt>
      <trkpt lat="48.66291046142578" lon="6.133160591125488">
        <ele>356.11</ele>
      </trkpt>
      <trkpt lat="48.662792444229126" lon="6.1329567432403564">
        <ele>354.81</ele>
      </trkpt>
      <trkpt lat="48.66285681724548" lon="6.132913827896118">
        <ele>353.29</ele>
      </trkpt>
      <trkpt lat="48.66294264793396" lon="6.132924556732178">
        <ele>351.7</ele>
      </trkpt>
      <trkpt lat="48.6634361743927" lon="6.1333537101745605">
        <ele>349.88</ele>
      </trkpt>
      <trkpt lat="48.66361856460571" lon="6.133439540863037">
        <ele>348.14</ele>
      </trkpt>
      <trkpt lat="48.66377958096564" lon="6.133471727371216">
        <ele>346.41</ele>
      </trkpt>
      <trkpt lat="48.66456278599799" lon="6.13362193107605">
        <ele>344.25</ele>
      </trkpt>
      <trkpt lat="48.66472371853888" lon="6.133739948272705">
        <ele>342.62</ele>
      </trkpt>
      <trkpt lat="48.664884651079774" lon="6.13386869430542">
        <ele>341.18</ele>
      </trkpt>
      <trkpt lat="48.66505631245673" lon="6.134008169174194">
        <ele>339.95</ele>
      </trkpt>
      <trkpt lat="48.66545327939093" lon="6.1343300342559814">
        <ele>338.96</ele>
      </trkpt>
      <trkpt lat="48.66578587330878" lon="6.134598255157471">
        <ele>338.25</ele>
      </trkpt>
      <trkpt lat="48.6659038066864" lon="6.134684085845947">
        <ele>337.99</ele>
      </trkpt>
      <trkpt lat="48.66598972119391" lon="6.134458780288696">
        <ele>338.21</ele>
      </trkpt>
      <trkpt lat="48.66622567176819" lon="6.1341047286987305">
        <ele>338.87</ele>
      </trkpt>
      <trkpt lat="48.666536808013916" lon="6.133900880813599">
        <ele>339.73</ele>
      </trkpt>
      <trkpt lat="48.66671919822693" lon="6.133589744567871">
        <ele>341.05</ele>
      </trkpt>
      <trkpt lat="48.6669659614563" lon="6.132849454879761">
        <ele>342.76</ele>
      </trkpt>
      <trkpt lat="48.667116248980165" lon="6.1325061321258545">
        <ele>344.39</ele>
      </trkpt>
      <trkpt lat="48.66722353734076" lon="6.132270097732544">
        <ele>346.01</ele>
      </trkpt>
      <trkpt lat="48.6674165725708" lon="6.131690740585327">
        <ele>347.79</ele>
      </trkpt>
      <trkpt lat="48.66744875907898" lon="6.131422519683838">
        <ele>349.29</ele>
      </trkpt>
      <trkpt lat="48.66744884289801" lon="6.1310577392578125">
        <ele>350.66</ele>
      </trkpt>
      <trkpt lat="48.66744875907898" lon="6.130778789520264">
        <ele>351.88</ele>
      </trkpt>
      <trkpt lat="48.66744875907898" lon="6.130456924438477">
        <ele>352.98</ele>
      </trkpt>
      <trkpt lat="48.66749167442322" lon="6.13037109375">
        <ele>353.87</ele>
      </trkpt>
      <trkpt lat="48.667566776275635" lon="6.130295991897583">
        <ele>354.57</ele>
      </trkpt>
      <trkpt lat="48.67171883583069" lon="6.129019260406494">
        <ele>354.61</ele>
      </trkpt>
      <trkpt lat="48.67171891964972" lon="6.129019260406494">
        <ele>354.94</ele>
      </trkpt>
      <trkpt lat="48.67351055145264" lon="6.128482818603516">
        <ele>354.73</ele>
      </trkpt>
      <trkpt lat="48.67369294166565" lon="6.128418445587158">
        <ele>354.89</ele>
      </trkpt>
      <trkpt lat="48.67369302548468" lon="6.128418445587158">
        <ele>354.92</ele>
      </trkpt>
      <trkpt lat="48.67510914802551" lon="6.127978563308716">
        <ele>355.01</ele>
      </trkpt>
      <trkpt lat="48.675624215975404" lon="6.127839088439941">
        <ele>354.78</ele>
      </trkpt>
      <trkpt lat="48.67771633900702" lon="6.127195358276367">
        <ele>354.67</ele>
      </trkpt>
      <trkpt lat="48.67863901890814" lon="6.126916408538818">
        <ele>354.33</ele>
      </trkpt>
      <trkpt lat="48.67939003743231" lon="6.126691102981567">
        <ele>353.91</ele>
      </trkpt>
      <trkpt lat="48.679561698809266" lon="6.1266374588012695">
        <ele>353.3</ele>
      </trkpt>
      <trkpt lat="48.681546449661255" lon="6.126036643981934">
        <ele>352.4</ele>
      </trkpt>
      <trkpt lat="48.68166455067694" lon="6.126004457473755">
        <ele>351.59</ele>
      </trkpt>
      <trkpt lat="48.68173956871033" lon="6.126025915145874">
        <ele>350.74</ele>
      </trkpt>
      <trkpt lat="48.681814670562744" lon="6.126079559326172">
        <ele>349.85</ele>
      </trkpt>
      <trkpt lat="48.68246912956238" lon="6.126734018325806">
        <ele>348.79</ele>
      </trkpt>
      <trkpt lat="48.68246921338141" lon="6.126734018325806">
        <ele>347.8</ele>
      </trkpt>
      <trkpt lat="48.6832416895777" lon="6.127538681030273">
        <ele>346.46</ele>
      </trkpt>
      <trkpt lat="48.68433594703674" lon="6.128697395324707">
        <ele>345.35</ele>
      </trkpt>
      <trkpt lat="48.684572065249085" lon="6.1286115646362305">
        <ele>344.72</ele>
      </trkpt>
      <trkpt lat="48.68465789593756" lon="6.128847599029541">
        <ele>344.02</ele>
      </trkpt>
      <trkpt lat="48.68465781211853" lon="6.128847599029541">
        <ele>343.69</ele>
      </trkpt>
      <trkpt lat="48.68472218513489" lon="6.128751039505005">
        <ele>343.56</ele>
      </trkpt>
      <trkpt lat="48.684754371643066" lon="6.128718852996826">
        <ele>343.54</ele>
      </trkpt>
      <trkpt lat="48.68569850921631" lon="6.12812876701355">
        <ele>343.73</ele>
      </trkpt>
      <trkpt lat="48.68674993515015" lon="6.1277854442596436">
        <ele>344.35</ele>
      </trkpt>
      <trkpt lat="48.68713625706732" lon="6.127581596374512">
        <ele>344.64</ele>
      </trkpt>
      <trkpt lat="48.68746885098517" lon="6.127420663833618">
        <ele>344.62</ele>
      </trkpt>
      <trkpt lat="48.687769174575806" lon="6.127259731292725">
        <ele>344.59</ele>
      </trkpt>
      <trkpt lat="48.6878228187561" lon="6.127249002456665">
        <ele>344.65</ele>
      </trkpt>
      <trkpt lat="48.6878764629364" lon="6.127281188964844">
        <ele>344.67</ele>
      </trkpt>
      <trkpt lat="48.68790864944458" lon="6.127334833145142">
        <ele>344.66</ele>
      </trkpt>
      <trkpt lat="48.68795156478882" lon="6.127452850341797">
        <ele>344.57</ele>
      </trkpt>
      <trkpt lat="48.688048124313354" lon="6.129105091094971">
        <ele>344.24</ele>
      </trkpt>
      <trkpt lat="48.68867039680481" lon="6.128965616226196">
        <ele>344.85</ele>
      </trkpt>
      <trkpt lat="48.688777685165405" lon="6.1297595500946045">
        <ele>344.25</ele>
      </trkpt>
      <trkpt lat="48.688799142837524" lon="6.129802465438843">
        <ele>344.24</ele>
      </trkpt>
      <trkpt lat="48.6888313293457" lon="6.1298346519470215">
        <ele>344.27</ele>
      </trkpt>
      <trkpt lat="48.68892788887024" lon="6.1298346519470215">
        <ele>344.36</ele>
      </trkpt>
      <trkpt lat="48.68899209424853" lon="6.12981989979744">
        <ele>347.63</ele>
      </trkpt>
    </trkseg>
  </trk>
</gpx>
