<?xml version="1.0" encoding="UTF-8"?>
<gpx creator="Garmin Connect" version="1.1"
  xsi:schemaLocation="http://www.topografix.com/GPX/1/1 http://www.topografix.com/GPX/11.xsd"
  xmlns:ns3="http://www.garmin.com/xmlschemas/TrackPointExtension/v1"
  xmlns="http://www.topografix.com/GPX/1/1"
  xmlns:xsi="http://www.w3.org/2001/XMLSchema-instance" xmlns:ns2="http://www.garmin.com/xmlschemas/GpxExtensions/v3">
  <metadata>
    <name>41 - Ede singletrack</name>
    <link href="connect.garmin.com">
      <text>Garmin Connect</text>
    </link>
    <time>2022-07-29T08:15:46.000Z</time>
  </metadata>
  <trk>
    <name>41 - Ede singletrack</name>
    <trkseg>
      <trkpt lat="52.03820999711752" lon="5.735629973933101">
        <ele>29.0</ele>
      </trkpt>
      <trkpt lat="52.037987960502505" lon="5.735367955639958">
        <ele>29.0</ele>
      </trkpt>
      <trkpt lat="52.03797295689583" lon="5.735348928719759">
        <ele>30.0</ele>
      </trkpt>
      <trkpt lat="52.037879917770624" lon="5.735387988388538">
        <ele>29.0</ele>
      </trkpt>
      <trkpt lat="52.037772964686155" lon="5.735441967844963">
        <ele>29.0</ele>
      </trkpt>
      <trkpt lat="52.03773398883641" lon="5.735480943694711">
        <ele>29.0</ele>
      </trkpt>
      <trkpt lat="52.03729092143476" lon="5.7359519228339195">
        <ele>28.0</ele>
      </trkpt>
      <trkpt lat="52.03713493421674" lon="5.735987965017557">
        <ele>27.0</ele>
      </trkpt>
      <trkpt lat="52.037020940333605" lon="5.735989976674318">
        <ele>27.0</ele>
      </trkpt>
      <trkpt lat="52.03690795227885" lon="5.735982935875654">
        <ele>27.0</ele>
      </trkpt>
      <trkpt lat="52.03631996177137" lon="5.743020968511701">
        <ele>27.0</ele>
      </trkpt>
      <trkpt lat="52.03542393632233" lon="5.742176994681358">
        <ele>27.0</ele>
      </trkpt>
      <trkpt lat="52.03540398739278" lon="5.743356999009848">
        <ele>27.0</ele>
      </trkpt>
      <trkpt lat="52.035344978794456" lon="5.743907941505313">
        <ele>28.0</ele>
      </trkpt>
      <trkpt lat="52.035193936899304" lon="5.744002992287278">
        <ele>28.0</ele>
      </trkpt>
      <trkpt lat="52.034787917509675" lon="5.7444819342345">
        <ele>28.0</ele>
      </trkpt>
      <trkpt lat="52.03473896719515" lon="5.74493195861578">
        <ele>28.0</ele>
      </trkpt>
      <trkpt lat="52.034677946940064" lon="5.745028937235475">
        <ele>28.0</ele>
      </trkpt>
      <trkpt lat="52.03427595086396" lon="5.745207974687219">
        <ele>28.0</ele>
      </trkpt>
      <trkpt lat="52.03413194976747" lon="5.745300929993391">
        <ele>28.0</ele>
      </trkpt>
      <trkpt lat="52.03398392535746" lon="5.745304953306913">
        <ele>29.0</ele>
      </trkpt>
      <trkpt lat="52.03383598476648" lon="5.745661938562989">
        <ele>29.0</ele>
      </trkpt>
      <trkpt lat="52.03380497172475" lon="5.7459089532494545">
        <ele>29.0</ele>
      </trkpt>
      <trkpt lat="52.032960997894406" lon="5.74658595956862">
        <ele>29.0</ele>
      </trkpt>
      <trkpt lat="52.03332192264497" lon="5.747957993298769">
        <ele>30.0</ele>
      </trkpt>
      <trkpt lat="52.03333198092878" lon="5.7480759266763926">
        <ele>30.0</ele>
      </trkpt>
      <trkpt lat="52.032274939119816" lon="5.748833985999227">
        <ele>30.0</ele>
      </trkpt>
      <trkpt lat="52.032099924981594" lon="5.749232964590192">
        <ele>30.0</ele>
      </trkpt>
      <trkpt lat="52.030832916498184" lon="5.751696992665529">
        <ele>30.0</ele>
      </trkpt>
      <trkpt lat="52.0315039716661" lon="5.7529279589653015">
        <ele>30.0</ele>
      </trkpt>
      <trkpt lat="52.03084196895361" lon="5.754221957176924">
        <ele>30.0</ele>
      </trkpt>
      <trkpt lat="52.03086292371154" lon="5.754253976047039">
        <ele>30.0</ele>
      </trkpt>
      <trkpt lat="52.030319944024086" lon="5.7553499937057495">
        <ele>30.0</ele>
      </trkpt>
      <trkpt lat="52.0303519628942" lon="5.755709996446967">
        <ele>31.0</ele>
      </trkpt>
      <trkpt lat="52.0304539706558" lon="5.755897918716073">
        <ele>31.0</ele>
      </trkpt>
      <trkpt lat="52.03054893761873" lon="5.756266973912716">
        <ele>31.0</ele>
      </trkpt>
      <trkpt lat="52.03060291707516" lon="5.756262950599194">
        <ele>31.0</ele>
      </trkpt>
      <trkpt lat="52.030680952593684" lon="5.756005961447954">
        <ele>31.0</ele>
      </trkpt>
      <trkpt lat="52.03088094480336" lon="5.756107969209552">
        <ele>31.0</ele>
      </trkpt>
      <trkpt lat="52.03093199059367" lon="5.756639968603849">
        <ele>31.0</ele>
      </trkpt>
      <trkpt lat="52.031090995296836" lon="5.756731918081641">
        <ele>30.0</ele>
      </trkpt>
      <trkpt lat="52.03111496753991" lon="5.75689896941185">
        <ele>30.0</ele>
      </trkpt>
      <trkpt lat="52.03121496364474" lon="5.756939956918359">
        <ele>30.0</ele>
      </trkpt>
      <trkpt lat="52.03129199333489" lon="5.757284956052899">
        <ele>30.0</ele>
      </trkpt>
      <trkpt lat="52.03143599443138" lon="5.757083958014846">
        <ele>30.0</ele>
      </trkpt>
      <trkpt lat="52.03149198554456" lon="5.757129974663258">
        <ele>30.0</ele>
      </trkpt>
      <trkpt lat="52.03150196000934" lon="5.757158976048231">
        <ele>30.0</ele>
      </trkpt>
      <trkpt lat="52.03160296194255" lon="5.757453935220838">
        <ele>30.0</ele>
      </trkpt>
      <trkpt lat="52.03162098303437" lon="5.757691981270909">
        <ele>31.0</ele>
      </trkpt>
      <trkpt lat="52.031800942495465" lon="5.757874958217144">
        <ele>31.0</ele>
      </trkpt>
      <trkpt lat="52.03196497634053" lon="5.758407963439822">
        <ele>31.0</ele>
      </trkpt>
      <trkpt lat="52.03205198049545" lon="5.758503936231136">
        <ele>31.0</ele>
      </trkpt>
      <trkpt lat="52.03288799151778" lon="5.757081946358085">
        <ele>31.0</ele>
      </trkpt>
      <trkpt lat="52.03361394815147" lon="5.758478958159685">
        <ele>31.0</ele>
      </trkpt>
      <trkpt lat="52.034310987219214" lon="5.760033968836069">
        <ele>32.0</ele>
      </trkpt>
      <trkpt lat="52.03421995975077" lon="5.760128935799003">
        <ele>32.0</ele>
      </trkpt>
      <trkpt lat="52.034310987219214" lon="5.760033968836069">
        <ele>32.0</ele>
      </trkpt>
      <trkpt lat="52.034357925876975" lon="5.760151986032724">
        <ele>33.0</ele>
      </trkpt>
      <trkpt lat="52.03430092893541" lon="5.760302944108844">
        <ele>33.0</ele>
      </trkpt>
      <trkpt lat="52.03417595475912" lon="5.760417943820357">
        <ele>33.0</ele>
      </trkpt>
      <trkpt lat="52.03405098058283" lon="5.76042196713388">
        <ele>34.0</ele>
      </trkpt>
      <trkpt lat="52.03393497504294" lon="5.760663952678442">
        <ele>34.0</ele>
      </trkpt>
      <trkpt lat="52.0336589589715" lon="5.761015992611647">
        <ele>34.0</ele>
      </trkpt>
      <trkpt lat="52.03354395925999" lon="5.761054968461394">
        <ele>34.0</ele>
      </trkpt>
      <trkpt lat="52.03351194038987" lon="5.761378929018974">
        <ele>35.0</ele>
      </trkpt>
      <trkpt lat="52.03313995152712" lon="5.761617980897427">
        <ele>35.0</ele>
      </trkpt>
      <trkpt lat="52.03284993767738" lon="5.761686963960528">
        <ele>35.0</ele>
      </trkpt>
      <trkpt lat="52.03282697126269" lon="5.761827947571874">
        <ele>35.0</ele>
      </trkpt>
      <trkpt lat="52.033046996220946" lon="5.762264980003238">
        <ele>36.0</ele>
      </trkpt>
      <trkpt lat="52.033111955970526" lon="5.762582989409566">
        <ele>36.0</ele>
      </trkpt>
      <trkpt lat="52.03301497735083" lon="5.763093950226903">
        <ele>36.0</ele>
      </trkpt>
      <trkpt lat="52.033195942640305" lon="5.763483960181475">
        <ele>36.0</ele>
      </trkpt>
      <trkpt lat="52.033171970397234" lon="5.763620920479298">
        <ele>36.0</ele>
      </trkpt>
      <trkpt lat="52.03309996984899" lon="5.763948988169432">
        <ele>36.0</ele>
      </trkpt>
      <trkpt lat="52.03301698900759" lon="5.763962985947728">
        <ele>37.0</ele>
      </trkpt>
      <trkpt lat="52.03275899402797" lon="5.764580983668566">
        <ele>37.0</ele>
      </trkpt>
      <trkpt lat="52.03279696404934" lon="5.76482892036438">
        <ele>37.0</ele>
      </trkpt>
      <trkpt lat="52.03293392434716" lon="5.7651379611343145">
        <ele>37.0</ele>
      </trkpt>
      <trkpt lat="52.03316492959857" lon="5.765953939408064">
        <ele>38.0</ele>
      </trkpt>
      <trkpt lat="52.033048924058676" lon="5.766172958537936">
        <ele>38.0</ele>
      </trkpt>
      <trkpt lat="52.03286091797054" lon="5.76637395657599">
        <ele>38.0</ele>
      </trkpt>
      <trkpt lat="52.03264298848808" lon="5.767236957326531">
        <ele>38.0</ele>
      </trkpt>
      <trkpt lat="52.03275899402797" lon="5.76843598857522">
        <ele>39.0</ele>
      </trkpt>
      <trkpt lat="52.03301296569407" lon="5.768623994663358">
        <ele>39.0</ele>
      </trkpt>
      <trkpt lat="52.033112961798906" lon="5.768863968551159">
        <ele>39.0</ele>
      </trkpt>
      <trkpt lat="52.03314397484064" lon="5.7693809643387794">
        <ele>39.0</ele>
      </trkpt>
      <trkpt lat="52.03311698511243" lon="5.7700759917497635">
        <ele>39.0</ele>
      </trkpt>
      <trkpt lat="52.03316794708371" lon="5.7706059794873">
        <ele>39.0</ele>
      </trkpt>
      <trkpt lat="52.03298798762262" lon="5.771147953346372">
        <ele>39.0</ele>
      </trkpt>
      <trkpt lat="52.032937947660685" lon="5.771521953865886">
        <ele>39.0</ele>
      </trkpt>
      <trkpt lat="52.0327609218657" lon="5.771894948557019">
        <ele>39.0</ele>
      </trkpt>
      <trkpt lat="52.03275899402797" lon="5.77193895354867">
        <ele>39.0</ele>
      </trkpt>
      <trkpt lat="52.0326419826597" lon="5.7720989640802145">
        <ele>39.0</ele>
      </trkpt>
      <trkpt lat="52.03265195712447" lon="5.772208934649825">
        <ele>39.0</ele>
      </trkpt>
      <trkpt lat="52.03293593600392" lon="5.772191919386387">
        <ele>39.0</ele>
      </trkpt>
      <trkpt lat="52.03299796208739" lon="5.772003997117281">
        <ele>39.0</ele>
      </trkpt>
      <trkpt lat="52.03310692682862" lon="5.772107932716608">
        <ele>39.0</ele>
      </trkpt>
      <trkpt lat="52.03337498009205" lon="5.771877933293581">
        <ele>39.0</ele>
      </trkpt>
      <trkpt lat="52.033410938456655" lon="5.772039955481887">
        <ele>39.0</ele>
      </trkpt>
      <trkpt lat="52.033479921519756" lon="5.772077925503254">
        <ele>39.0</ele>
      </trkpt>
      <trkpt lat="52.03372391872108" lon="5.771714989095926">
        <ele>39.0</ele>
      </trkpt>
      <trkpt lat="52.03373699449003" lon="5.771951945498586">
        <ele>39.0</ele>
      </trkpt>
      <trkpt lat="52.03366298228502" lon="5.772112961858511">
        <ele>39.0</ele>
      </trkpt>
      <trkpt lat="52.03366197645664" lon="5.772393923252821">
        <ele>39.0</ele>
      </trkpt>
      <trkpt lat="52.03352996148169" lon="5.772740934044123">
        <ele>39.0</ele>
      </trkpt>
      <trkpt lat="52.03346592374146" lon="5.77309993095696">
        <ele>39.0</ele>
      </trkpt>
      <trkpt lat="52.033435916528106" lon="5.77326899394393">
        <ele>39.0</ele>
      </trkpt>
      <trkpt lat="52.033280935138464" lon="5.7736339420080185">
        <ele>39.0</ele>
      </trkpt>
      <trkpt lat="52.03329099342227" lon="5.7737779431045055">
        <ele>38.0</ele>
      </trkpt>
      <trkpt lat="52.033047918230295" lon="5.775175960734487">
        <ele>38.0</ele>
      </trkpt>
      <trkpt lat="52.03297298401594" lon="5.775260953232646">
        <ele>38.0</ele>
      </trkpt>
      <trkpt lat="52.03294498845935" lon="5.775553984567523">
        <ele>37.0</ele>
      </trkpt>
      <trkpt lat="52.03262999653816" lon="5.776304919272661">
        <ele>37.0</ele>
      </trkpt>
      <trkpt lat="52.032619938254356" lon="5.776861980557442">
        <ele>37.0</ele>
      </trkpt>
      <trkpt lat="52.03254894353449" lon="5.776978991925716">
        <ele>37.0</ele>
      </trkpt>
      <trkpt lat="52.03257794491947" lon="5.777329942211509">
        <ele>37.0</ele>
      </trkpt>
      <trkpt lat="52.03244894742966" lon="5.7776969857513905">
        <ele>37.0</ele>
      </trkpt>
      <trkpt lat="52.03238692134619" lon="5.777760939672589">
        <ele>37.0</ele>
      </trkpt>
      <trkpt lat="52.03235297463834" lon="5.777943916618824">
        <ele>37.0</ele>
      </trkpt>
      <trkpt lat="52.03237191773951" lon="5.778237953782082">
        <ele>37.0</ele>
      </trkpt>
      <trkpt lat="52.03210797160864" lon="5.77864296734333">
        <ele>37.0</ele>
      </trkpt>
      <trkpt lat="52.03157597221434" lon="5.778792919591069">
        <ele>37.0</ele>
      </trkpt>
      <trkpt lat="52.03135997056961" lon="5.778997940942645">
        <ele>38.0</ele>
      </trkpt>
      <trkpt lat="52.03095596283674" lon="5.77909491956234">
        <ele>38.0</ele>
      </trkpt>
      <trkpt lat="52.030917992815375" lon="5.779294995591044">
        <ele>38.0</ele>
      </trkpt>
      <trkpt lat="52.0309339184314" lon="5.779579980298877">
        <ele>39.0</ele>
      </trkpt>
      <trkpt lat="52.03080793842673" lon="5.77988994307816">
        <ele>39.0</ele>
      </trkpt>
      <trkpt lat="52.0305229537189" lon="5.781553918495774">
        <ele>40.0</ele>
      </trkpt>
      <trkpt lat="52.030398985370994" lon="5.781874945387244">
        <ele>41.0</ele>
      </trkpt>
      <trkpt lat="52.03029898926616" lon="5.78193093650043">
        <ele>41.0</ele>
      </trkpt>
      <trkpt lat="52.03015297651291" lon="5.781968990340829">
        <ele>41.0</ele>
      </trkpt>
      <trkpt lat="52.029971927404404" lon="5.781822977587581">
        <ele>42.0</ele>
      </trkpt>
      <trkpt lat="52.02977092936635" lon="5.782301919534802">
        <ele>42.0</ele>
      </trkpt>
      <trkpt lat="52.02976397238672" lon="5.782315917313099">
        <ele>42.0</ele>
      </trkpt>
      <trkpt lat="52.029670933261514" lon="5.782475927844644">
        <ele>43.0</ele>
      </trkpt>
      <trkpt lat="52.02942492440343" lon="5.782664939761162">
        <ele>43.0</ele>
      </trkpt>
      <trkpt lat="52.02938192524016" lon="5.782812964171171">
        <ele>43.0</ele>
      </trkpt>
      <trkpt lat="52.029267931357026" lon="5.782871972769499">
        <ele>43.0</ele>
      </trkpt>
      <trkpt lat="52.02931998297572" lon="5.783077999949455">
        <ele>43.0</ele>
      </trkpt>
      <trkpt lat="52.02919299714267" lon="5.783179923892021">
        <ele>44.0</ele>
      </trkpt>
      <trkpt lat="52.02907699160278" lon="5.783603964373469">
        <ele>44.0</ele>
      </trkpt>
      <trkpt lat="52.028880938887596" lon="5.783711923286319">
        <ele>44.0</ele>
      </trkpt>
      <trkpt lat="52.02887297607958" lon="5.783892972394824">
        <ele>44.0</ele>
      </trkpt>
      <trkpt lat="52.02875697053969" lon="5.7840439304709435">
        <ele>44.0</ele>
      </trkpt>
      <trkpt lat="52.02869796194136" lon="5.784469982609153">
        <ele>44.0</ele>
      </trkpt>
      <trkpt lat="52.02856091782451" lon="5.784563943743706">
        <ele>45.0</ele>
      </trkpt>
      <trkpt lat="52.02852898277342" lon="5.784819927066565">
        <ele>45.0</ele>
      </trkpt>
      <trkpt lat="52.028446923941374" lon="5.784922940656543">
        <ele>45.0</ele>
      </trkpt>
      <trkpt lat="52.02842999249697" lon="5.785036934539676">
        <ele>45.0</ele>
      </trkpt>
      <trkpt lat="52.0282849855721" lon="5.785235920920968">
        <ele>45.0</ele>
      </trkpt>
      <trkpt lat="52.02819898724556" lon="5.785257965326309">
        <ele>45.0</ele>
      </trkpt>
      <trkpt lat="52.02815598808229" lon="5.785452928394079">
        <ele>45.0</ele>
      </trkpt>
      <trkpt lat="52.02803193591535" lon="5.785652920603752">
        <ele>45.0</ele>
      </trkpt>
      <trkpt lat="52.02786999754608" lon="5.78560296446085">
        <ele>45.0</ele>
      </trkpt>
      <trkpt lat="52.02778894454241" lon="5.785806979984045">
        <ele>45.0</ele>
      </trkpt>
      <trkpt lat="52.02761895954609" lon="5.785846961662173">
        <ele>44.0</ele>
      </trkpt>
      <trkpt lat="52.02752994373441" lon="5.786048965528607">
        <ele>44.0</ele>
      </trkpt>
      <trkpt lat="52.026704996824265" lon="5.786193972453475">
        <ele>44.0</ele>
      </trkpt>
      <trkpt lat="52.02570998109877" lon="5.788479968905449">
        <ele>43.0</ele>
      </trkpt>
      <trkpt lat="52.0272159576416" lon="5.790012935176492">
        <ele>43.0</ele>
      </trkpt>
      <trkpt lat="52.02796898782253" lon="5.790791949257255">
        <ele>43.0</ele>
      </trkpt>
      <trkpt lat="52.02878094278276" lon="5.791612956672907">
        <ele>42.0</ele>
      </trkpt>
      <trkpt lat="52.024194952100515" lon="5.798434987664223">
        <ele>41.0</ele>
      </trkpt>
      <trkpt lat="52.023183926939964" lon="5.800140956416726">
        <ele>40.0</ele>
      </trkpt>
      <trkpt lat="52.02302391640842" lon="5.800639931112528">
        <ele>39.0</ele>
      </trkpt>
      <trkpt lat="52.02283398248255" lon="5.800980990752578">
        <ele>38.0</ele>
      </trkpt>
      <trkpt lat="52.02243894338608" lon="5.801625978201628">
        <ele>37.0</ele>
      </trkpt>
      <trkpt lat="52.02231799252331" lon="5.801805937662721">
        <ele>37.0</ele>
      </trkpt>
      <trkpt lat="52.02223291620612" lon="5.801841979846358">
        <ele>36.0</ele>
      </trkpt>
      <trkpt lat="52.02210693620145" lon="5.801771990954876">
        <ele>36.0</ele>
      </trkpt>
      <trkpt lat="52.021852964535356" lon="5.801430931314826">
        <ele>35.0</ele>
      </trkpt>
      <trkpt lat="52.0217349473387" lon="5.8013559971004725">
        <ele>35.0</ele>
      </trkpt>
      <trkpt lat="52.02162992209196" lon="5.8013559971004725">
        <ele>35.0</ele>
      </trkpt>
      <trkpt lat="52.02143093571067" lon="5.801559928804636">
        <ele>35.0</ele>
      </trkpt>
      <trkpt lat="52.021316941827536" lon="5.801722956821322">
        <ele>35.0</ele>
      </trkpt>
      <trkpt lat="52.02123798429966" lon="5.801962930709124">
        <ele>35.0</ele>
      </trkpt>
      <trkpt lat="52.021317947655916" lon="5.802557962015271">
        <ele>35.0</ele>
      </trkpt>
      <trkpt lat="52.02127696014941" lon="5.802802965044975">
        <ele>35.0</ele>
      </trkpt>
      <trkpt lat="52.0208749640733" lon="5.803437978029251">
        <ele>35.0</ele>
      </trkpt>
      <trkpt lat="52.020625937730074" lon="5.804091934114695">
        <ele>34.0</ele>
      </trkpt>
      <trkpt lat="52.020500963553786" lon="5.804392928257585">
        <ele>34.0</ele>
      </trkpt>
      <trkpt lat="52.01901393011212" lon="5.806625951081514">
        <ele>34.0</ele>
      </trkpt>
      <trkpt lat="52.018951987847686" lon="5.806879922747612">
        <ele>33.0</ele>
      </trkpt>
      <trkpt lat="52.018864983692765" lon="5.807031970471144">
        <ele>33.0</ele>
      </trkpt>
      <trkpt lat="52.018820978701115" lon="5.807109922170639">
        <ele>33.0</ele>
      </trkpt>
      <trkpt lat="52.01874596066773" lon="5.807233974337578">
        <ele>33.0</ele>
      </trkpt>
      <trkpt lat="52.018608916550875" lon="5.807355931028724">
        <ele>33.0</ele>
      </trkpt>
      <trkpt lat="52.01822795905173" lon="5.8080539759248495">
        <ele>33.0</ele>
      </trkpt>
      <trkpt lat="52.01750099658966" lon="5.809629941359162">
        <ele>34.0</ele>
      </trkpt>
      <trkpt lat="52.01694695279002" lon="5.8109799306839705">
        <ele>34.0</ele>
      </trkpt>
      <trkpt lat="52.016138937324286" lon="5.813481928780675">
        <ele>34.0</ele>
      </trkpt>
      <trkpt lat="52.016132986173034" lon="5.813504979014397">
        <ele>35.0</ele>
      </trkpt>
      <trkpt lat="52.01513897627592" lon="5.816879952326417">
        <ele>34.0</ele>
      </trkpt>
      <trkpt lat="52.01492993161082" lon="5.8179129380732775">
        <ele>35.0</ele>
      </trkpt>
      <trkpt lat="52.014717953279614" lon="5.818461952731013">
        <ele>35.0</ele>
      </trkpt>
      <trkpt lat="52.01463899575174" lon="5.818684995174408">
        <ele>35.0</ele>
      </trkpt>
      <trkpt lat="52.01430497691035" lon="5.818485924974084">
        <ele>36.0</ele>
      </trkpt>
      <trkpt lat="52.014182936400175" lon="5.818408979102969">
        <ele>36.0</ele>
      </trkpt>
      <trkpt lat="52.01391094364226" lon="5.8182139322161674">
        <ele>37.0</ele>
      </trkpt>
      <trkpt lat="52.013839948922396" lon="5.818163976073265">
        <ele>37.0</ele>
      </trkpt>
      <trkpt lat="52.013962995260954" lon="5.817413963377476">
        <ele>38.0</ele>
      </trkpt>
      <trkpt lat="52.013710951432586" lon="5.817206930369139">
        <ele>38.0</ele>
      </trkpt>
      <trkpt lat="52.01255793683231" lon="5.816461946815252">
        <ele>39.0</ele>
      </trkpt>
      <trkpt lat="52.01113494113088" lon="5.815537925809622">
        <ele>39.0</ele>
      </trkpt>
      <trkpt lat="52.01128992252052" lon="5.81480392254889">
        <ele>39.0</ele>
      </trkpt>
      <trkpt lat="52.01103896833956" lon="5.814687917008996">
        <ele>39.0</ele>
      </trkpt>
      <trkpt lat="52.01047495007515" lon="5.81458599306643">
        <ele>39.0</ele>
      </trkpt>
      <trkpt lat="52.01034997589886" lon="5.814891932532191">
        <ele>39.0</ele>
      </trkpt>
      <trkpt lat="52.01018292456865" lon="5.814958987757564">
        <ele>39.0</ele>
      </trkpt>
      <trkpt lat="52.010013945400715" lon="5.814901990815997">
        <ele>39.0</ele>
      </trkpt>
      <trkpt lat="52.00959996320307" lon="5.814531929790974">
        <ele>39.0</ele>
      </trkpt>
      <trkpt lat="52.00958898290992" lon="5.814272928982973">
        <ele>39.0</ele>
      </trkpt>
      <trkpt lat="52.0095379371196" lon="5.814181985333562">
        <ele>38.0</ele>
      </trkpt>
      <trkpt lat="52.009260999038815" lon="5.81394393928349">
        <ele>38.0</ele>
      </trkpt>
      <trkpt lat="52.00914398767054" lon="5.813961960375309">
        <ele>38.0</ele>
      </trkpt>
      <trkpt lat="52.00842993333936" lon="5.813726931810379">
        <ele>37.0</ele>
      </trkpt>
      <trkpt lat="52.00819792225957" lon="5.813528951257467">
        <ele>37.0</ele>
      </trkpt>
      <trkpt lat="52.00790296308696" lon="5.813395930454135">
        <ele>37.0</ele>
      </trkpt>
      <trkpt lat="52.007735995575786" lon="5.813450999557972">
        <ele>36.0</ele>
      </trkpt>
      <trkpt lat="52.0077109336853" lon="5.813777977600694">
        <ele>36.0</ele>
      </trkpt>
      <trkpt lat="52.00751395896077" lon="5.8140539936721325">
        <ele>36.0</ele>
      </trkpt>
      <trkpt lat="52.00737699866295" lon="5.814050976186991">
        <ele>36.0</ele>
      </trkpt>
      <trkpt lat="52.007282953709364" lon="5.813948968425393">
        <ele>35.0</ele>
      </trkpt>
      <trkpt lat="52.00709595344961" lon="5.814036978408694">
        <ele>35.0</ele>
      </trkpt>
      <trkpt lat="52.00688598677516" lon="5.813950980082154">
        <ele>35.0</ele>
      </trkpt>
      <trkpt lat="52.0065039396286" lon="5.814130939543247">
        <ele>35.0</ele>
      </trkpt>
      <trkpt lat="52.006491953507066" lon="5.814210986718535">
        <ele>34.0</ele>
      </trkpt>
      <trkpt lat="52.006424982100725" lon="5.814212998375297">
        <ele>34.0</ele>
      </trkpt>
      <trkpt lat="52.005675975233316" lon="5.813827933743596">
        <ele>34.0</ele>
      </trkpt>
      <trkpt lat="52.005457961931825" lon="5.81390094012022">
        <ele>33.0</ele>
      </trkpt>
      <trkpt lat="52.00521597638726" lon="5.8138669934123755">
        <ele>32.0</ele>
      </trkpt>
      <trkpt lat="52.00414292514324" lon="5.813139947131276">
        <ele>32.0</ele>
      </trkpt>
      <trkpt lat="52.003367934376" lon="5.8127419743686914">
        <ele>31.0</ele>
      </trkpt>
      <trkpt lat="52.00323197990656" lon="5.812821937724948">
        <ele>31.0</ele>
      </trkpt>
      <trkpt lat="52.00316794216633" lon="5.813173977658153">
        <ele>30.0</ele>
      </trkpt>
      <trkpt lat="52.002319945022464" lon="5.8127829618752">
        <ele>30.0</ele>
      </trkpt>
      <trkpt lat="52.00234995223582" lon="5.812621945515275">
        <ele>29.0</ele>
      </trkpt>
      <trkpt lat="52.00244097970426" lon="5.812134956941009">
        <ele>29.0</ele>
      </trkpt>
      <trkpt lat="52.00342199765146" lon="5.806719996035099">
        <ele>29.0</ele>
      </trkpt>
      <trkpt lat="52.003438929095864" lon="5.8066359255462885">
        <ele>28.0</ele>
      </trkpt>
      <trkpt lat="52.003567926585674" lon="5.805922960862517">
        <ele>28.0</ele>
      </trkpt>
      <trkpt lat="52.004083916544914" lon="5.803422974422574">
        <ele>27.0</ele>
      </trkpt>
      <trkpt lat="52.004122976213694" lon="5.803242931142449">
        <ele>27.0</ele>
      </trkpt>
      <trkpt lat="52.00386397540569" lon="5.803088955581188">
        <ele>27.0</ele>
      </trkpt>
      <trkpt lat="52.00341294519603" lon="5.802868930622935">
        <ele>27.0</ele>
      </trkpt>
      <trkpt lat="52.00321194715798" lon="5.802734987810254">
        <ele>27.0</ele>
      </trkpt>
      <trkpt lat="52.002882957458496" lon="5.8049289509654045">
        <ele>27.0</ele>
      </trkpt>
      <trkpt lat="52.00274893082678" lon="5.805680975317955">
        <ele>27.0</ele>
      </trkpt>
      <trkpt lat="52.002577940002084" lon="5.806654952466488">
        <ele>27.0</ele>
      </trkpt>
      <trkpt lat="52.002344923093915" lon="5.80652897246182">
        <ele>28.0</ele>
      </trkpt>
      <trkpt lat="52.002407955005765" lon="5.805783988907933">
        <ele>27.0</ele>
      </trkpt>
      <trkpt lat="52.00228993780911" lon="5.80534896813333">
        <ele>27.0</ele>
      </trkpt>
      <trkpt lat="52.00141293928027" lon="5.803876938298345">
        <ele>27.0</ele>
      </trkpt>
      <trkpt lat="52.00074599124491" lon="5.802451930940151">
        <ele>26.0</ele>
      </trkpt>
      <trkpt lat="52.00061799958348" lon="5.8023039903491735">
        <ele>26.0</ele>
      </trkpt>
      <trkpt lat="52.00037492439151" lon="5.8022609911859035">
        <ele>26.0</ele>
      </trkpt>
      <trkpt lat="52.00029294937849" lon="5.802155965939164">
        <ele>26.0</ele>
      </trkpt>
      <trkpt lat="51.9996449444443" lon="5.800727941095829">
        <ele>26.0</ele>
      </trkpt>
      <trkpt lat="51.999658942222595" lon="5.800207927823067">
        <ele>26.0</ele>
      </trkpt>
      <trkpt lat="51.99890096671879" lon="5.798490978777409">
        <ele>26.0</ele>
      </trkpt>
      <trkpt lat="51.99859293177724" lon="5.798049923032522">
        <ele>26.0</ele>
      </trkpt>
      <trkpt lat="51.99862092733383" lon="5.797945987433195">
        <ele>26.0</ele>
      </trkpt>
      <trkpt lat="51.998647917062044" lon="5.797920925542712">
        <ele>26.0</ele>
      </trkpt>
      <trkpt lat="51.9991509988904" lon="5.7974649500101805">
        <ele>26.0</ele>
      </trkpt>
      <trkpt lat="51.999210929498076" lon="5.797404935583472">
        <ele>27.0</ele>
      </trkpt>
      <trkpt lat="51.999184945598245" lon="5.79733494669199">
        <ele>27.0</ele>
      </trkpt>
      <trkpt lat="51.99915896169841" lon="5.797262946143746">
        <ele>27.0</ele>
      </trkpt>
      <trkpt lat="51.9990249350667" lon="5.797018948942423">
        <ele>28.0</ele>
      </trkpt>
      <trkpt lat="51.9986089412123" lon="5.795819917693734">
        <ele>28.0</ele>
      </trkpt>
      <trkpt lat="51.998366955667734" lon="5.795138971880078">
        <ele>29.0</ele>
      </trkpt>
      <trkpt lat="51.99839495122433" lon="5.795004945248365">
        <ele>29.0</ele>
      </trkpt>
      <trkpt lat="51.998753948137164" lon="5.794595992192626">
        <ele>30.0</ele>
      </trkpt>
      <trkpt lat="51.99880097061396" lon="5.79443397000432">
        <ele>30.0</ele>
      </trkpt>
      <trkpt lat="51.99849394150078" lon="5.792963951826096">
        <ele>30.0</ele>
      </trkpt>
      <trkpt lat="51.99820593930781" lon="5.7919379230588675">
        <ele>31.0</ele>
      </trkpt>
      <trkpt lat="51.99795397929847" lon="5.79166391864419">
        <ele>31.0</ele>
      </trkpt>
      <trkpt lat="51.99571995064616" lon="5.787383951246738">
        <ele>30.0</ele>
      </trkpt>
      <trkpt lat="51.99517998844385" lon="5.786562943831086">
        <ele>30.0</ele>
      </trkpt>
      <trkpt lat="51.9947649165988" lon="5.785460975021124">
        <ele>30.0</ele>
      </trkpt>
      <trkpt lat="51.99470791965723" lon="5.785032995045185">
        <ele>30.0</ele>
      </trkpt>
      <trkpt lat="51.994458977133036" lon="5.7842229679226875">
        <ele>29.0</ele>
      </trkpt>
      <trkpt lat="51.99409897439182" lon="5.7832699455320835">
        <ele>28.0</ele>
      </trkpt>
      <trkpt lat="51.99266399256885" lon="5.779950963333249">
        <ele>28.0</ele>
      </trkpt>
      <trkpt lat="51.99227498844266" lon="5.77905192039907">
        <ele>28.0</ele>
      </trkpt>
      <trkpt lat="51.99137896299362" lon="5.777178984135389">
        <ele>26.0</ele>
      </trkpt>
      <trkpt lat="51.989734936505556" lon="5.774041973054409">
        <ele>26.0</ele>
      </trkpt>
      <trkpt lat="51.9887069799006" lon="5.772354947403073">
        <ele>25.0</ele>
      </trkpt>
      <trkpt lat="51.98849592357874" lon="5.771899977698922">
        <ele>25.0</ele>
      </trkpt>
      <trkpt lat="51.98772696778178" lon="5.77082097530365">
        <ele>24.0</ele>
      </trkpt>
      <trkpt lat="51.98544197715819" lon="5.767058925703168">
        <ele>23.0</ele>
      </trkpt>
      <trkpt lat="51.985303927212954" lon="5.766765978187323">
        <ele>23.0</ele>
      </trkpt>
      <trkpt lat="51.984377978369594" lon="5.763844968751073">
        <ele>22.0</ele>
      </trkpt>
      <trkpt lat="51.98427999392152" lon="5.763593930751085">
        <ele>21.0</ele>
      </trkpt>
      <trkpt lat="51.98411596007645" lon="5.7632519491016865">
        <ele>21.0</ele>
      </trkpt>
      <trkpt lat="51.9838269520551" lon="5.762862944975495">
        <ele>20.0</ele>
      </trkpt>
      <trkpt lat="51.98349293321371" lon="5.762559939175844">
        <ele>20.0</ele>
      </trkpt>
      <trkpt lat="51.98323292657733" lon="5.762425996363163">
        <ele>20.0</ele>
      </trkpt>
      <trkpt lat="51.982944924384356" lon="5.7620989345014095">
        <ele>19.0</ele>
      </trkpt>
      <trkpt lat="51.98275398463011" lon="5.761952921748161">
        <ele>19.0</ele>
      </trkpt>
      <trkpt lat="51.98269799351692" lon="5.761934984475374">
        <ele>18.0</ele>
      </trkpt>
      <trkpt lat="51.98263395577669" lon="5.761917969211936">
        <ele>18.0</ele>
      </trkpt>
      <trkpt lat="51.98250596411526" lon="5.761865917593241">
        <ele>18.0</ele>
      </trkpt>
      <trkpt lat="51.98230898939073" lon="5.7617979403585196">
        <ele>17.0</ele>
      </trkpt>
      <trkpt lat="51.98223891668022" lon="5.761885950341821">
        <ele>17.0</ele>
      </trkpt>
      <trkpt lat="51.98217295110226" lon="5.761794922873378">
        <ele>17.0</ele>
      </trkpt>
      <trkpt lat="51.98211796581745" lon="5.761761981993914">
        <ele>17.0</ele>
      </trkpt>
      <trkpt lat="51.98209499940276" lon="5.761753935366869">
        <ele>16.0</ele>
      </trkpt>
      <trkpt lat="51.982079995796084" lon="5.761753935366869">
        <ele>16.0</ele>
      </trkpt>
      <trkpt lat="51.98204898275435" lon="5.761753935366869">
        <ele>16.0</ele>
      </trkpt>
      <trkpt lat="51.982035990804434" lon="5.761753935366869">
        <ele>16.0</ele>
      </trkpt>
      <trkpt lat="51.98201394639909" lon="5.761762987822294">
        <ele>16.0</ele>
      </trkpt>
      <trkpt lat="51.98189894668758" lon="5.761877987533808">
        <ele>16.0</ele>
      </trkpt>
      <trkpt lat="51.981850918382406" lon="5.762166995555162">
        <ele>15.0</ele>
      </trkpt>
      <trkpt lat="51.981870951130986" lon="5.762265985831618">
        <ele>15.0</ele>
      </trkpt>
      <trkpt lat="51.981807919219136" lon="5.7626349572092295">
        <ele>15.0</ele>
      </trkpt>
      <trkpt lat="51.981673976406455" lon="5.763221941888332">
        <ele>15.0</ele>
      </trkpt>
      <trkpt lat="51.98157498613" lon="5.763369966298342">
        <ele>15.0</ele>
      </trkpt>
      <trkpt lat="51.98148898780346" lon="5.763355968520045">
        <ele>15.0</ele>
      </trkpt>
      <trkpt lat="51.98072095401585" lon="5.762925976887345">
        <ele>16.0</ele>
      </trkpt>
      <trkpt lat="51.980600925162435" lon="5.762756997719407">
        <ele>16.0</ele>
      </trkpt>
      <trkpt lat="51.980535965412855" lon="5.762594975531101">
        <ele>16.0</ele>
      </trkpt>
      <trkpt lat="51.980343936011195" lon="5.762416943907738">
        <ele>16.0</ele>
      </trkpt>
      <trkpt lat="51.97977597825229" lon="5.762038920074701">
        <ele>17.0</ele>
      </trkpt>
      <trkpt lat="51.97959995828569" lon="5.761869940906763">
        <ele>18.0</ele>
      </trkpt>
      <trkpt lat="51.977959955111146" lon="5.759449917823076">
        <ele>18.0</ele>
      </trkpt>
      <trkpt lat="51.97763993404806" lon="5.759259983897209">
        <ele>19.0</ele>
      </trkpt>
      <trkpt lat="51.97760296985507" lon="5.759237939491868">
        <ele>19.0</ele>
      </trkpt>
      <trkpt lat="51.97669395245612" lon="5.758732929825783">
        <ele>19.0</ele>
      </trkpt>
      <trkpt lat="51.97654198855162" lon="5.758736953139305">
        <ele>20.0</ele>
      </trkpt>
      <trkpt lat="51.976322969421744" lon="5.75898296199739">
        <ele>20.0</ele>
      </trkpt>
      <trkpt lat="51.97616094723344" lon="5.759203992784023">
        <ele>21.0</ele>
      </trkpt>
      <trkpt lat="51.97603094391525" lon="5.759340953081846">
        <ele>21.0</ele>
      </trkpt>
      <trkpt lat="51.97588099166751" lon="5.759453941136599">
        <ele>22.0</ele>
      </trkpt>
      <trkpt lat="51.975356955081224" lon="5.759512949734926">
        <ele>22.0</ele>
      </trkpt>
      <trkpt lat="51.97501899674535" lon="5.759508926421404">
        <ele>23.0</ele>
      </trkpt>
      <trkpt lat="51.974820932373405" lon="5.759508926421404">
        <ele>23.0</ele>
      </trkpt>
      <trkpt lat="51.974839959293604" lon="5.757669936865568">
        <ele>23.0</ele>
      </trkpt>
      <trkpt lat="51.974240988492966" lon="5.757746966555715">
        <ele>23.0</ele>
      </trkpt>
      <trkpt lat="51.9739249907434" lon="5.757873952388763">
        <ele>23.0</ele>
      </trkpt>
      <trkpt lat="51.97344998829067" lon="5.757977971807122">
        <ele>22.0</ele>
      </trkpt>
      <trkpt lat="51.97090691886842" lon="5.757913934066892">
        <ele>22.0</ele>
      </trkpt>
      <trkpt lat="51.97077197022736" lon="5.759632978588343">
        <ele>22.0</ele>
      </trkpt>
      <trkpt lat="51.970652947202325" lon="5.761513961479068">
        <ele>21.0</ele>
      </trkpt>
      <trkpt lat="51.97051397524774" lon="5.761658968403935">
        <ele>20.0</ele>
      </trkpt>
      <trkpt lat="51.97048899717629" lon="5.762091977521777">
        <ele>19.0</ele>
      </trkpt>
      <trkpt lat="51.97043292224407" lon="5.762957995757461">
        <ele>18.0</ele>
      </trkpt>
      <trkpt lat="51.97012094780803" lon="5.767083987593651">
        <ele>18.0</ele>
      </trkpt>
      <trkpt lat="51.97001399472356" lon="5.767265958711505">
        <ele>17.0</ele>
      </trkpt>
      <trkpt lat="51.96935199201107" lon="5.767682958394289">
        <ele>16.0</ele>
      </trkpt>
      <trkpt lat="51.96851698681712" lon="5.768190985545516">
        <ele>15.0</ele>
      </trkpt>
      <trkpt lat="51.96847097016871" lon="5.768431965261698">
        <ele>15.0</ele>
      </trkpt>
      <trkpt lat="51.96845697239041" lon="5.768949966877699">
        <ele>15.0</ele>
      </trkpt>
      <trkpt lat="51.96849695406854" lon="5.769120957702398">
        <ele>14.0</ele>
      </trkpt>
      <trkpt lat="51.96865897625685" lon="5.769225982949138">
        <ele>15.0</ele>
      </trkpt>
      <trkpt lat="51.969812996685505" lon="5.768832955509424">
        <ele>16.0</ele>
      </trkpt>
      <trkpt lat="51.969942916184664" lon="5.768886934965849">
        <ele>16.0</ele>
      </trkpt>
      <trkpt lat="51.9699979852885" lon="5.769024984911084">
        <ele>17.0</ele>
      </trkpt>
      <trkpt lat="51.96986496448517" lon="5.77241295017302">
        <ele>18.0</ele>
      </trkpt>
      <trkpt lat="51.96974392980337" lon="5.7746959291398525">
        <ele>19.0</ele>
      </trkpt>
      <trkpt lat="51.969859935343266" lon="5.774878989905119">
        <ele>20.0</ele>
      </trkpt>
      <trkpt lat="51.97011994197965" lon="5.7751689199358225">
        <ele>22.0</ele>
      </trkpt>
      <trkpt lat="51.96989195421338" lon="5.775329936295748">
        <ele>23.0</ele>
      </trkpt>
      <trkpt lat="51.969774942845106" lon="5.775526994839311">
        <ele>24.0</ele>
      </trkpt>
      <trkpt lat="51.96980997920036" lon="5.775566976517439">
        <ele>26.0</ele>
      </trkpt>
      <trkpt lat="51.96977796033025" lon="5.775597989559174">
        <ele>28.0</ele>
      </trkpt>
      <trkpt lat="51.969833951443434" lon="5.775619950145483">
        <ele>30.0</ele>
      </trkpt>
      <trkpt lat="51.97025396861136" lon="5.775651969015598">
        <ele>32.0</ele>
      </trkpt>
      <trkpt lat="51.970458989962935" lon="5.7757549826055765">
        <ele>35.0</ele>
      </trkpt>
      <trkpt lat="51.97053493000567" lon="5.7758919429033995">
        <ele>37.0</ele>
      </trkpt>
      <trkpt lat="51.970667950809" lon="5.775860929861665">
        <ele>39.0</ele>
      </trkpt>
      <trkpt lat="51.970608942210674" lon="5.776062933728099">
        <ele>41.0</ele>
      </trkpt>
      <trkpt lat="51.97085998021066" lon="5.775968972593546">
        <ele>43.0</ele>
      </trkpt>
      <trkpt lat="51.97106298990548" lon="5.7759779412299395">
        <ele>45.0</ele>
      </trkpt>
      <trkpt lat="51.97151594795287" lon="5.7761499378830194">
        <ele>47.0</ele>
      </trkpt>
      <trkpt lat="51.97164796292782" lon="5.776314977556467">
        <ele>49.0</ele>
      </trkpt>
      <trkpt lat="51.97307598777115" lon="5.776220932602882">
        <ele>50.0</ele>
      </trkpt>
      <trkpt lat="51.971643939614296" lon="5.77918091788888">
        <ele>51.0</ele>
      </trkpt>
      <trkpt lat="51.97167696431279" lon="5.779407983645797">
        <ele>52.0</ele>
      </trkpt>
      <trkpt lat="51.972201922908425" lon="5.779912993311882">
        <ele>53.0</ele>
      </trkpt>
      <trkpt lat="51.97231197729707" lon="5.7800989877432585">
        <ele>54.0</ele>
      </trkpt>
      <trkpt lat="51.97253594174981" lon="5.78064096160233">
        <ele>54.0</ele>
      </trkpt>
      <trkpt lat="51.97405893355608" lon="5.7817629631608725">
        <ele>54.0</ele>
      </trkpt>
      <trkpt lat="51.9741649646312" lon="5.7818439323455095">
        <ele>54.0</ele>
      </trkpt>
      <trkpt lat="51.974244927987456" lon="5.782283982262015">
        <ele>53.0</ele>
      </trkpt>
      <trkpt lat="51.974135963246226" lon="5.782784968614578">
        <ele>53.0</ele>
      </trkpt>
      <trkpt lat="51.97360798716545" lon="5.7852119486778975">
        <ele>52.0</ele>
      </trkpt>
      <trkpt lat="51.97353498078883" lon="5.785526940599084">
        <ele>51.0</ele>
      </trkpt>
      <trkpt lat="51.973424926400185" lon="5.786024993285537">
        <ele>49.0</ele>
      </trkpt>
      <trkpt lat="51.97319693863392" lon="5.787052949890494">
        <ele>47.0</ele>
      </trkpt>
      <trkpt lat="51.972972974181175" lon="5.78805492259562">
        <ele>45.0</ele>
      </trkpt>
      <trkpt lat="51.97193495929241" lon="5.787247996777296">
        <ele>42.0</ele>
      </trkpt>
      <trkpt lat="51.97057298384607" lon="5.786318946629763">
        <ele>38.0</ele>
      </trkpt>
      <trkpt lat="51.969447964802384" lon="5.785475978627801">
        <ele>34.0</ele>
      </trkpt>
      <trkpt lat="51.96928393095732" lon="5.785380927845836">
        <ele>31.0</ele>
      </trkpt>
      <trkpt lat="51.969040939584374" lon="5.78519694507122">
        <ele>27.0</ele>
      </trkpt>
      <trkpt lat="51.968870954588056" lon="5.785170961171389">
        <ele>24.0</ele>
      </trkpt>
      <trkpt lat="51.968869948759675" lon="5.784020964056253">
        <ele>22.0</ele>
      </trkpt>
      <trkpt lat="51.96873298846185" lon="5.783868916332722">
        <ele>19.0</ele>
      </trkpt>
      <trkpt lat="51.968118930235505" lon="5.784081984311342">
        <ele>17.0</ele>
      </trkpt>
      <trkpt lat="51.96793293580413" lon="5.784342996776104">
        <ele>14.0</ele>
      </trkpt>
      <trkpt lat="51.96681898087263" lon="5.786681966856122">
        <ele>12.0</ele>
      </trkpt>
      <trkpt lat="51.96677095256746" lon="5.7867849804461">
        <ele>10.0</ele>
      </trkpt>
      <trkpt lat="51.966679925099015" lon="5.786975920200348">
        <ele>9.0</ele>
      </trkpt>
      <trkpt lat="51.96666894480586" lon="5.78699997626245">
        <ele>8.0</ele>
      </trkpt>
      <trkpt lat="51.96664698421955" lon="5.787043981254101">
        <ele>8.0</ele>
      </trkpt>
      <trkpt lat="51.966547993943095" lon="5.787230981513858">
        <ele>7.0</ele>
      </trkpt>
      <trkpt lat="51.96636895649135" lon="5.787657955661416">
        <ele>6.0</ele>
      </trkpt>
      <trkpt lat="51.96645696647465" lon="5.787731967866421">
        <ele>6.0</ele>
      </trkpt>
      <trkpt lat="51.96654497645795" lon="5.7878009509295225">
        <ele>6.0</ele>
      </trkpt>
      <trkpt lat="51.96655998006463" lon="5.787814948707819">
        <ele>6.0</ele>
      </trkpt>
      <trkpt lat="51.966615971177816" lon="5.787862977012992">
        <ele>6.0</ele>
      </trkpt>
      <trkpt lat="51.966675985604525" lon="5.787928942590952">
        <ele>6.0</ele>
      </trkpt>
      <trkpt lat="51.96673792786896" lon="5.787962973117828">
        <ele>6.0</ele>
      </trkpt>
      <trkpt lat="51.966853933408856" lon="5.78820395283401">
        <ele>7.0</ele>
      </trkpt>
      <trkpt lat="51.966976979747415" lon="5.788237983360887">
        <ele>7.0</ele>
      </trkpt>
      <trkpt lat="51.96714193560183" lon="5.788292968645692">
        <ele>7.0</ele>
      </trkpt>
      <trkpt lat="51.96720496751368" lon="5.788313923403621">
        <ele>8.0</ele>
      </trkpt>
      <trkpt lat="51.9669949170202" lon="5.789486970752478">
        <ele>9.0</ele>
      </trkpt>
      <trkpt lat="51.96698594838381" lon="5.789913944900036">
        <ele>11.0</ele>
      </trkpt>
      <trkpt lat="51.967149982228875" lon="5.790493972599506">
        <ele>12.0</ele>
      </trkpt>
      <trkpt lat="51.968222949653864" lon="5.790785998106003">
        <ele>13.0</ele>
      </trkpt>
      <trkpt lat="51.968267960473895" lon="5.7907969783991575">
        <ele>15.0</ele>
      </trkpt>
      <trkpt lat="51.96886098012328" lon="5.790745932608843">
        <ele>16.0</ele>
      </trkpt>
      <trkpt lat="51.96887296624482" lon="5.790744926780462">
        <ele>18.0</ele>
      </trkpt>
      <trkpt lat="51.96887891739607" lon="5.791090931743383">
        <ele>20.0</ele>
      </trkpt>
      <trkpt lat="51.96886399760842" lon="5.792894968762994">
        <ele>22.0</ele>
      </trkpt>
      <trkpt lat="51.96916197426617" lon="5.793279949575663">
        <ele>25.0</ele>
      </trkpt>
      <trkpt lat="51.96943597868085" lon="5.793328983709216">
        <ele>27.0</ele>
      </trkpt>
      <trkpt lat="51.96960998699069" lon="5.79342395067215">
        <ele>30.0</ele>
      </trkpt>
      <trkpt lat="51.969643933698535" lon="5.79353098757565">
        <ele>32.0</ele>
      </trkpt>
      <trkpt lat="51.96975792758167" lon="5.793564934283495">
        <ele>34.0</ele>
      </trkpt>
      <trkpt lat="51.969836968928576" lon="5.794031973928213">
        <ele>36.0</ele>
      </trkpt>
      <trkpt lat="51.97031197138131" lon="5.7945389952510595">
        <ele>38.0</ele>
      </trkpt>
      <trkpt lat="51.97104999795556" lon="5.79477796331048">
        <ele>40.0</ele>
      </trkpt>
      <trkpt lat="51.97109593078494" lon="5.794918946921825">
        <ele>42.0</ele>
      </trkpt>
      <trkpt lat="51.971059972420335" lon="5.795001927763224">
        <ele>43.0</ele>
      </trkpt>
      <trkpt lat="51.970953941345215" lon="5.794989941641688">
        <ele>45.0</ele>
      </trkpt>
      <trkpt lat="51.97074992582202" lon="5.794958928599954">
        <ele>46.0</ele>
      </trkpt>
      <trkpt lat="51.97036092169583" lon="5.794763965532184">
        <ele>47.0</ele>
      </trkpt>
      <trkpt lat="51.96993595920503" lon="5.794759942218661">
        <ele>47.0</ele>
      </trkpt>
      <trkpt lat="51.96967394091189" lon="5.794884916394949">
        <ele>48.0</ele>
      </trkpt>
      <trkpt lat="51.96963094174862" lon="5.794962951913476">
        <ele>49.0</ele>
      </trkpt>
      <trkpt lat="51.969665978103876" lon="5.795218935236335">
        <ele>50.0</ele>
      </trkpt>
      <trkpt lat="51.96973596699536" lon="5.795343993231654">
        <ele>51.0</ele>
      </trkpt>
      <trkpt lat="51.96991592645645" lon="5.795619925484061">
        <ele>53.0</ele>
      </trkpt>
      <trkpt lat="51.97103197686374" lon="5.796321993693709">
        <ele>55.0</ele>
      </trkpt>
      <trkpt lat="51.97144092991948" lon="5.796717954799533">
        <ele>56.0</ele>
      </trkpt>
      <trkpt lat="51.97157193906605" lon="5.797501998022199">
        <ele>57.0</ele>
      </trkpt>
      <trkpt lat="51.97153598070145" lon="5.797618925571442">
        <ele>58.0</ele>
      </trkpt>
      <trkpt lat="51.97148694656789" lon="5.797605933621526">
        <ele>59.0</ele>
      </trkpt>
      <trkpt lat="51.97145492769778" lon="5.797681957483292">
        <ele>60.0</ele>
      </trkpt>
      <trkpt lat="51.971507985144854" lon="5.797787988558412">
        <ele>61.0</ele>
      </trkpt>
      <trkpt lat="51.97167897596955" lon="5.797960991039872">
        <ele>61.0</ele>
      </trkpt>
      <trkpt lat="51.97182993404567" lon="5.798283945769072">
        <ele>62.0</ele>
      </trkpt>
      <trkpt lat="51.97178098373115" lon="5.7984759751707315">
        <ele>62.0</ele>
      </trkpt>
      <trkpt lat="51.971984999254346" lon="5.79858192242682">
        <ele>62.0</ele>
      </trkpt>
      <trkpt lat="51.97191392071545" lon="5.798748973757029">
        <ele>63.0</ele>
      </trkpt>
      <trkpt lat="51.9719769526273" lon="5.7988859340548515">
        <ele>63.0</ele>
      </trkpt>
      <trkpt lat="51.97195691987872" lon="5.79894594848156">
        <ele>63.0</ele>
      </trkpt>
      <trkpt lat="51.9719269964844" lon="5.7990349642932415">
        <ele>63.0</ele>
      </trkpt>
      <trkpt lat="51.97188198566437" lon="5.7990349642932415">
        <ele>63.0</ele>
      </trkpt>
      <trkpt lat="51.97188592515886" lon="5.79918491654098">
        <ele>63.0</ele>
      </trkpt>
      <trkpt lat="51.97197997011244" lon="5.799564952030778">
        <ele>63.0</ele>
      </trkpt>
      <trkpt lat="51.97214299812913" lon="5.799835938960314">
        <ele>63.0</ele>
      </trkpt>
      <trkpt lat="51.97234692983329" lon="5.800022939220071">
        <ele>63.0</ele>
      </trkpt>
      <trkpt lat="51.97247399948537" lon="5.800267942249775">
        <ele>63.0</ele>
      </trkpt>
      <trkpt lat="51.972545916214585" lon="5.800229972228408">
        <ele>63.0</ele>
      </trkpt>
      <trkpt lat="51.972632920369506" lon="5.800305996090174">
        <ele>63.0</ele>
      </trkpt>
      <trkpt lat="51.972695952281356" lon="5.800219997763634">
        <ele>63.0</ele>
      </trkpt>
      <trkpt lat="51.97273199446499" lon="5.800336925312877">
        <ele>63.0</ele>
      </trkpt>
      <trkpt lat="51.97289493866265" lon="5.800351928919554">
        <ele>63.0</ele>
      </trkpt>
      <trkpt lat="51.97302896529436" lon="5.800415966659784">
        <ele>63.0</ele>
      </trkpt>
      <trkpt lat="51.973057966679335" lon="5.800511939451098">
        <ele>63.0</ele>
      </trkpt>
      <trkpt lat="51.97305595502257" lon="5.800700951367617">
        <ele>63.0</ele>
      </trkpt>
      <trkpt lat="51.97300893254578" lon="5.800778986886144">
        <ele>63.0</ele>
      </trkpt>
      <trkpt lat="51.973063917830586" lon="5.8010429330170155">
        <ele>63.0</ele>
      </trkpt>
      <trkpt lat="51.97296492755413" lon="5.801230939105153">
        <ele>63.0</ele>
      </trkpt>
      <trkpt lat="51.972995940595865" lon="5.8014139998704195">
        <ele>63.0</ele>
      </trkpt>
      <trkpt lat="51.973206996917725" lon="5.801617931574583">
        <ele>63.0</ele>
      </trkpt>
      <trkpt lat="51.973255947232246" lon="5.801771990954876">
        <ele>63.0</ele>
      </trkpt>
      <trkpt lat="51.97322392836213" lon="5.801928984001279">
        <ele>63.0</ele>
      </trkpt>
      <trkpt lat="51.97313893586397" lon="5.80197399482131">
        <ele>63.0</ele>
      </trkpt>
      <trkpt lat="51.97315695695579" lon="5.802040966227651">
        <ele>63.0</ele>
      </trkpt>
      <trkpt lat="51.97306995280087" lon="5.802263924852014">
        <ele>63.0</ele>
      </trkpt>
      <trkpt lat="51.973106916993856" lon="5.8026329800486565">
        <ele>62.0</ele>
      </trkpt>
      <trkpt lat="51.97332493029535" lon="5.802619988098741">
        <ele>62.0</ele>
      </trkpt>
      <trkpt lat="51.97336692363024" lon="5.802796930074692">
        <ele>62.0</ele>
      </trkpt>
      <trkpt lat="51.973725920543075" lon="5.803268998861313">
        <ele>62.0</ele>
      </trkpt>
      <trkpt lat="51.97386397048831" lon="5.803546942770481">
        <ele>62.0</ele>
      </trkpt>
      <trkpt lat="51.97405692189932" lon="5.803617937490344">
        <ele>61.0</ele>
      </trkpt>
      <trkpt lat="51.974112996831536" lon="5.803700918331742">
        <ele>61.0</ele>
      </trkpt>
      <trkpt lat="51.97413093410432" lon="5.804091934114695">
        <ele>60.0</ele>
      </trkpt>
      <trkpt lat="51.97438892908394" lon="5.804183967411518">
        <ele>59.0</ele>
      </trkpt>
      <trkpt lat="51.97438398376107" lon="5.8042919263243675">
        <ele>59.0</ele>
      </trkpt>
      <trkpt lat="51.97427694685757" lon="5.804416984319687">
        <ele>58.0</ele>
      </trkpt>
      <trkpt lat="51.97425892576575" lon="5.804528966546059">
        <ele>57.0</ele>
      </trkpt>
      <trkpt lat="51.974458917975426" lon="5.804902967065573">
        <ele>56.0</ele>
      </trkpt>
      <trkpt lat="51.97437895461917" lon="5.805121986195445">
        <ele>56.0</ele>
      </trkpt>
      <trkpt lat="51.97450099512935" lon="5.805387943983078">
        <ele>55.0</ele>
      </trkpt>
      <trkpt lat="51.974583975970745" lon="5.80539096146822">
        <ele>54.0</ele>
      </trkpt>
      <trkpt lat="51.97474398650229" lon="5.805572932586074">
        <ele>52.0</ele>
      </trkpt>
      <trkpt lat="51.97482897900045" lon="5.805558934807777">
        <ele>51.0</ele>
      </trkpt>
      <trkpt lat="51.97495998814702" lon="5.805772924795747">
        <ele>50.0</ele>
      </trkpt>
      <trkpt lat="51.97509694844484" lon="5.805675946176052">
        <ele>48.0</ele>
      </trkpt>
      <trkpt lat="51.9752649217844" lon="5.805736966431141">
        <ele>47.0</ele>
      </trkpt>
      <trkpt lat="51.97542794980109" lon="5.805662954226136">
        <ele>46.0</ele>
      </trkpt>
      <trkpt lat="51.975484946742654" lon="5.805696984753013">
        <ele>45.0</ele>
      </trkpt>
      <trkpt lat="51.97549492120743" lon="5.805946933105588">
        <ele>44.0</ele>
      </trkpt>
      <trkpt lat="51.97553599253297" lon="5.80594995059073">
        <ele>43.0</ele>
      </trkpt>
      <trkpt lat="51.975679993629456" lon="5.805959925055504">
        <ele>42.0</ele>
      </trkpt>
      <trkpt lat="51.97577697224915" lon="5.806126976385713">
        <ele>41.0</ele>
      </trkpt>
      <trkpt lat="51.975855929777026" lon="5.806149942800403">
        <ele>40.0</ele>
      </trkpt>
      <trkpt lat="51.976090958341956" lon="5.806324956938624">
        <ele>39.0</ele>
      </trkpt>
      <trkpt lat="51.97610093280673" lon="5.806759977713227">
        <ele>38.0</ele>
      </trkpt>
      <trkpt lat="51.976236971095204" lon="5.807551983743906">
        <ele>37.0</ele>
      </trkpt>
      <trkpt lat="51.97637493722141" lon="5.807898994535208">
        <ele>37.0</ele>
      </trkpt>
      <trkpt lat="51.97653595358133" lon="5.80812094733119">
        <ele>37.0</ele>
      </trkpt>
      <trkpt lat="51.97659596800804" lon="5.808603996410966">
        <ele>37.0</ele>
      </trkpt>
      <trkpt lat="51.97661692276597" lon="5.809079920873046">
        <ele>38.0</ele>
      </trkpt>
      <trkpt lat="51.97662999853492" lon="5.809682998806238">
        <ele>38.0</ele>
      </trkpt>
      <trkpt lat="51.97664097882807" lon="5.810171999037266">
        <ele>39.0</ele>
      </trkpt>
      <trkpt lat="51.97665095329285" lon="5.810926957055926">
        <ele>40.0</ele>
      </trkpt>
      <trkpt lat="51.976797971874475" lon="5.812152978032827">
        <ele>42.0</ele>
      </trkpt>
      <trkpt lat="51.97704297490418" lon="5.812237970530987">
        <ele>43.0</ele>
      </trkpt>
      <trkpt lat="51.97742694988847" lon="5.812342995777726">
        <ele>44.0</ele>
      </trkpt>
      <trkpt lat="51.9779849331826" lon="5.8127569779753685">
        <ele>46.0</ele>
      </trkpt>
      <trkpt lat="51.97850192897022" lon="5.813289983198047">
        <ele>48.0</ele>
      </trkpt>
      <trkpt lat="51.978839971125126" lon="5.813690973445773">
        <ele>50.0</ele>
      </trkpt>
      <trkpt lat="51.97891599498689" lon="5.81383497454226">
        <ele>52.0</ele>
      </trkpt>
      <trkpt lat="51.97892999276519" lon="5.813831957057118">
        <ele>54.0</ele>
      </trkpt>
      <trkpt lat="51.978948935866356" lon="5.813888953998685">
        <ele>55.0</ele>
      </trkpt>
      <trkpt lat="51.97935998439789" lon="5.81355594098568">
        <ele>57.0</ele>
      </trkpt>
      <trkpt lat="51.979976976290345" lon="5.812097992748022">
        <ele>57.0</ele>
      </trkpt>
      <trkpt lat="51.98089496232569" lon="5.809928923845291">
        <ele>59.0</ele>
      </trkpt>
      <trkpt lat="51.98104499839246" lon="5.8101979829370975">
        <ele>60.0</ele>
      </trkpt>
      <trkpt lat="51.98114298284054" lon="5.810273922979832">
        <ele>61.0</ele>
      </trkpt>
      <trkpt lat="51.98296797461808" lon="5.811050925403833">
        <ele>61.0</ele>
      </trkpt>
      <trkpt lat="51.98349092155695" lon="5.811291988939047">
        <ele>61.0</ele>
      </trkpt>
      <trkpt lat="51.9852239638567" lon="5.812004953622818">
        <ele>61.0</ele>
      </trkpt>
      <trkpt lat="51.98528096079826" lon="5.812028925865889">
        <ele>61.0</ele>
      </trkpt>
      <trkpt lat="51.987152975052595" lon="5.8128429763019085">
        <ele>60.0</ele>
      </trkpt>
      <trkpt lat="51.98771799914539" lon="5.8130609896034">
        <ele>60.0</ele>
      </trkpt>
      <trkpt lat="51.98780198581517" lon="5.813091918826103">
        <ele>59.0</ele>
      </trkpt>
      <trkpt lat="51.98786895722151" lon="5.813395930454135">
        <ele>59.0</ele>
      </trkpt>
      <trkpt lat="51.98794196359813" lon="5.814069919288158">
        <ele>58.0</ele>
      </trkpt>
      <trkpt lat="51.98804296553135" lon="5.815959954634309">
        <ele>58.0</ele>
      </trkpt>
      <trkpt lat="51.98793391697109" lon="5.816904930397868">
        <ele>59.0</ele>
      </trkpt>
      <trkpt lat="51.988055957481265" lon="5.81688498146832">
        <ele>59.0</ele>
      </trkpt>
      <trkpt lat="51.98811496607959" lon="5.8168659545481205">
        <ele>59.0</ele>
      </trkpt>
      <trkpt lat="51.98819995857775" lon="5.816844999790192">
        <ele>59.0</ele>
      </trkpt>
      <trkpt lat="51.988119995221496" lon="5.81359994597733">
        <ele>59.0</ele>
      </trkpt>
      <trkpt lat="51.988245975226164" lon="5.813595922663808">
        <ele>59.0</ele>
      </trkpt>
      <trkpt lat="51.98930997401476" lon="5.813026959076524">
        <ele>59.0</ele>
      </trkpt>
      <trkpt lat="51.989453975111246" lon="5.813050931319594">
        <ele>60.0</ele>
      </trkpt>
      <trkpt lat="51.989622954279184" lon="5.813132990151644">
        <ele>60.0</ele>
      </trkpt>
      <trkpt lat="51.98978095315397" lon="5.813436917960644">
        <ele>61.0</ele>
      </trkpt>
      <trkpt lat="51.99021798558533" lon="5.814267983660102">
        <ele>61.0</ele>
      </trkpt>
      <trkpt lat="51.990353940054774" lon="5.81471499055624">
        <ele>60.0</ele>
      </trkpt>
      <trkpt lat="51.99038595892489" lon="5.815008943900466">
        <ele>60.0</ele>
      </trkpt>
      <trkpt lat="51.99048696085811" lon="5.814927974715829">
        <ele>59.0</ele>
      </trkpt>
      <trkpt lat="51.99079893529415" lon="5.814667968079448">
        <ele>58.0</ele>
      </trkpt>
      <trkpt lat="51.99109992943704" lon="5.814417935907841">
        <ele>56.0</ele>
      </trkpt>
      <trkpt lat="51.992223942652345" lon="5.813457956537604">
        <ele>54.0</ele>
      </trkpt>
      <trkpt lat="51.99328391812742" lon="5.8125699777156115">
        <ele>52.0</ele>
      </trkpt>
      <trkpt lat="51.99429293163121" lon="5.811702953651547">
        <ele>49.0</ele>
      </trkpt>
      <trkpt lat="51.99553596787155" lon="5.810652952641249">
        <ele>46.0</ele>
      </trkpt>
      <trkpt lat="51.995557928457856" lon="5.810667956247926">
        <ele>44.0</ele>
      </trkpt>
      <trkpt lat="51.99606092646718" lon="5.811285953968763">
        <ele>42.0</ele>
      </trkpt>
      <trkpt lat="51.996780931949615" lon="5.811986932530999">
        <ele>40.0</ele>
      </trkpt>
      <trkpt lat="51.997100953012705" lon="5.812410973012447">
        <ele>38.0</ele>
      </trkpt>
      <trkpt lat="51.99723992496729" lon="5.812391946092248">
        <ele>36.0</ele>
      </trkpt>
      <trkpt lat="51.99816092848778" lon="5.81347094848752">
        <ele>35.0</ele>
      </trkpt>
      <trkpt lat="51.998220942914486" lon="5.813415963202715">
        <ele>34.0</ele>
      </trkpt>
      <trkpt lat="51.99850492179394" lon="5.813712934032083">
        <ele>32.0</ele>
      </trkpt>
      <trkpt lat="51.998603995889425" lon="5.813916949555278">
        <ele>32.0</ele>
      </trkpt>
      <trkpt lat="51.99911294505" lon="5.814421959221363">
        <ele>31.0</ele>
      </trkpt>
      <trkpt lat="51.99932098388672" lon="5.814471999183297">
        <ele>30.0</ele>
      </trkpt>
      <trkpt lat="51.999400947242975" lon="5.814090957865119">
        <ele>29.0</ele>
      </trkpt>
      <trkpt lat="51.99960496276617" lon="5.8136319648474455">
        <ele>29.0</ele>
      </trkpt>
      <trkpt lat="51.9998349621892" lon="5.812305947765708">
        <ele>28.0</ele>
      </trkpt>
      <trkpt lat="51.99992598965764" lon="5.812134956941009">
        <ele>28.0</ele>
      </trkpt>
      <trkpt lat="52.000281969085336" lon="5.811919961124659">
        <ele>29.0</ele>
      </trkpt>
      <trkpt lat="52.00074297375977" lon="5.811923984438181">
        <ele>29.0</ele>
      </trkpt>
      <trkpt lat="52.00142299756408" lon="5.811776965856552">
        <ele>29.0</ele>
      </trkpt>
      <trkpt lat="52.00155895203352" lon="5.812042923644185">
        <ele>29.0</ele>
      </trkpt>
      <trkpt lat="52.001997996121645" lon="5.810035960748792">
        <ele>29.0</ele>
      </trkpt>
      <trkpt lat="52.00205692090094" lon="5.8097959868609905">
        <ele>29.0</ele>
      </trkpt>
      <trkpt lat="52.002107966691256" lon="5.808904990553856">
        <ele>29.0</ele>
      </trkpt>
      <trkpt lat="52.0022679772228" lon="5.808221949264407">
        <ele>29.0</ele>
      </trkpt>
      <trkpt lat="52.002344923093915" lon="5.80652897246182">
        <ele>28.0</ele>
      </trkpt>
      <trkpt lat="52.002577940002084" lon="5.806654952466488">
        <ele>27.0</ele>
      </trkpt>
      <trkpt lat="52.00274893082678" lon="5.805680975317955">
        <ele>27.0</ele>
      </trkpt>
      <trkpt lat="52.002882957458496" lon="5.8049289509654045">
        <ele>27.0</ele>
      </trkpt>
      <trkpt lat="52.00321194715798" lon="5.802734987810254">
        <ele>27.0</ele>
      </trkpt>
      <trkpt lat="52.00341294519603" lon="5.802868930622935">
        <ele>27.0</ele>
      </trkpt>
      <trkpt lat="52.00386397540569" lon="5.803088955581188">
        <ele>27.0</ele>
      </trkpt>
      <trkpt lat="52.004122976213694" lon="5.803242931142449">
        <ele>27.0</ele>
      </trkpt>
      <trkpt lat="52.004083916544914" lon="5.803422974422574">
        <ele>27.0</ele>
      </trkpt>
      <trkpt lat="52.0041589345783" lon="5.80345599912107">
        <ele>25.0</ele>
      </trkpt>
      <trkpt lat="52.00423093512654" lon="5.803493969142437">
        <ele>24.0</ele>
      </trkpt>
      <trkpt lat="52.005138946697116" lon="5.804130993783474">
        <ele>25.0</ele>
      </trkpt>
      <trkpt lat="52.0053019747138" lon="5.804304918274283">
        <ele>25.0</ele>
      </trkpt>
      <trkpt lat="52.00571193359792" lon="5.804820992052555">
        <ele>25.0</ele>
      </trkpt>
      <trkpt lat="52.006383994594216" lon="5.805412922054529">
        <ele>26.0</ele>
      </trkpt>
      <trkpt lat="52.00706091709435" lon="5.806082971394062">
        <ele>26.0</ele>
      </trkpt>
      <trkpt lat="52.00716594234109" lon="5.806254968047142">
        <ele>27.0</ele>
      </trkpt>
      <trkpt lat="52.00723299756646" lon="5.806501982733607">
        <ele>27.0</ele>
      </trkpt>
      <trkpt lat="52.0074519328773" lon="5.806611953303218">
        <ele>28.0</ele>
      </trkpt>
      <trkpt lat="52.00699092820287" lon="5.808888981118798">
        <ele>29.0</ele>
      </trkpt>
      <trkpt lat="52.007001992315054" lon="5.809211935847998">
        <ele>30.0</ele>
      </trkpt>
      <trkpt lat="52.00703099370003" lon="5.809376975521445">
        <ele>31.0</ele>
      </trkpt>
      <trkpt lat="52.00725797563791" lon="5.809750976040959">
        <ele>31.0</ele>
      </trkpt>
      <trkpt lat="52.0076369214803" lon="5.809959936887026">
        <ele>32.0</ele>
      </trkpt>
      <trkpt lat="52.0077109336853" lon="5.810073930770159">
        <ele>32.0</ele>
      </trkpt>
      <trkpt lat="52.007737923413515" lon="5.810245927423239">
        <ele>33.0</ele>
      </trkpt>
      <trkpt lat="52.007823921740055" lon="5.810320945456624">
        <ele>33.0</ele>
      </trkpt>
      <trkpt lat="52.01179292052984" lon="5.812129927799106">
        <ele>34.0</ele>
      </trkpt>
      <trkpt lat="52.0118089299649" lon="5.81213696859777">
        <ele>34.0</ele>
      </trkpt>
      <trkpt lat="52.01184798963368" lon="5.812183991074562">
        <ele>34.0</ele>
      </trkpt>
      <trkpt lat="52.01266396790743" lon="5.812704926356673">
        <ele>34.0</ele>
      </trkpt>
      <trkpt lat="52.01371296308935" lon="5.813081944361329">
        <ele>34.0</ele>
      </trkpt>
      <trkpt lat="52.01594891957939" lon="5.813458962365985">
        <ele>35.0</ele>
      </trkpt>
      <trkpt lat="52.016132986173034" lon="5.813504979014397">
        <ele>35.0</ele>
      </trkpt>
      <trkpt lat="52.01513897627592" lon="5.816879952326417">
        <ele>34.0</ele>
      </trkpt>
      <trkpt lat="52.01492993161082" lon="5.8179129380732775">
        <ele>35.0</ele>
      </trkpt>
      <trkpt lat="52.014717953279614" lon="5.818461952731013">
        <ele>35.0</ele>
      </trkpt>
      <trkpt lat="52.01463899575174" lon="5.818684995174408">
        <ele>35.0</ele>
      </trkpt>
      <trkpt lat="52.014608988538384" lon="5.818774932995439">
        <ele>34.0</ele>
      </trkpt>
      <trkpt lat="52.01457898132503" lon="5.8188889268785715">
        <ele>34.0</ele>
      </trkpt>
      <trkpt lat="52.01460496522486" lon="5.819069975987077">
        <ele>34.0</ele>
      </trkpt>
      <trkpt lat="52.014673948287964" lon="5.819127978757024">
        <ele>34.0</ele>
      </trkpt>
      <trkpt lat="52.01479397714138" lon="5.819228980690241">
        <ele>34.0</ele>
      </trkpt>
      <trkpt lat="52.014931943267584" lon="5.819343980401754">
        <ele>35.0</ele>
      </trkpt>
      <trkpt lat="52.014996986836195" lon="5.819122949615121">
        <ele>35.0</ele>
      </trkpt>
      <trkpt lat="52.015039985999465" lon="5.818989928811789">
        <ele>35.0</ele>
      </trkpt>
      <trkpt lat="52.01510997489095" lon="5.81875498406589">
        <ele>35.0</ele>
      </trkpt>
      <trkpt lat="52.015166971832514" lon="5.8185929618775845">
        <ele>36.0</ele>
      </trkpt>
      <trkpt lat="52.015642980113626" lon="5.817048931494355">
        <ele>36.0</ele>
      </trkpt>
      <trkpt lat="52.01574498787522" lon="5.8164869248867035">
        <ele>36.0</ele>
      </trkpt>
      <trkpt lat="52.01594799757004" lon="5.815747976303101">
        <ele>37.0</ele>
      </trkpt>
      <trkpt lat="52.01623197644949" lon="5.814996957778931">
        <ele>37.0</ele>
      </trkpt>
      <trkpt lat="52.01624899171293" lon="5.814941972494125">
        <ele>37.0</ele>
      </trkpt>
      <trkpt lat="52.016673954203725" lon="5.813632970675826">
        <ele>37.0</ele>
      </trkpt>
      <trkpt lat="52.01671393588185" lon="5.813523922115564">
        <ele>36.0</ele>
      </trkpt>
      <trkpt lat="52.01719899661839" lon="5.8126759249717">
        <ele>36.0</ele>
      </trkpt>
      <trkpt lat="52.01722992584109" lon="5.81232899799943">
        <ele>36.0</ele>
      </trkpt>
      <trkpt lat="52.01719799079001" lon="5.8117609564214945">
        <ele>36.0</ele>
      </trkpt>
      <trkpt lat="52.01730494387448" lon="5.811270950362086">
        <ele>35.0</ele>
      </trkpt>
      <trkpt lat="52.01756696216762" lon="5.810484979301691">
        <ele>35.0</ele>
      </trkpt>
      <trkpt lat="52.01797599904239" lon="5.809495998546481">
        <ele>35.0</ele>
      </trkpt>
      <trkpt lat="52.01870497316122" lon="5.808118935674429">
        <ele>35.0</ele>
      </trkpt>
      <trkpt lat="52.01904594898224" lon="5.807702941820025">
        <ele>35.0</ele>
      </trkpt>
      <trkpt lat="52.0191359706223" lon="5.807564975693822">
        <ele>35.0</ele>
      </trkpt>
      <trkpt lat="52.01918198727071" lon="5.807490963488817">
        <ele>35.0</ele>
      </trkpt>
      <trkpt lat="52.019269997254014" lon="5.807348974049091">
        <ele>35.0</ele>
      </trkpt>
      <trkpt lat="52.019491950049996" lon="5.806836923584342">
        <ele>35.0</ele>
      </trkpt>
      <trkpt lat="52.02201892621815" lon="5.802678996697068">
        <ele>36.0</ele>
      </trkpt>
      <trkpt lat="52.02246995642781" lon="5.801927978172898">
        <ele>36.0</ele>
      </trkpt>
      <trkpt lat="52.022865917533636" lon="5.801289947703481">
        <ele>37.0</ele>
      </trkpt>
      <trkpt lat="52.02306096442044" lon="5.801074951887131">
        <ele>38.0</ele>
      </trkpt>
      <trkpt lat="52.02360394410789" lon="5.801289947703481">
        <ele>38.0</ele>
      </trkpt>
      <trkpt lat="52.02372799627483" lon="5.801260946318507">
        <ele>39.0</ele>
      </trkpt>
      <trkpt lat="52.02383696101606" lon="5.801122980192304">
        <ele>40.0</ele>
      </trkpt>
      <trkpt lat="52.02394399791956" lon="5.800942936912179">
        <ele>40.0</ele>
      </trkpt>
      <trkpt lat="52.02400694601238" lon="5.800765994936228">
        <ele>41.0</ele>
      </trkpt>
      <trkpt lat="52.02385992743075" lon="5.8000589814037085">
        <ele>41.0</ele>
      </trkpt>
      <trkpt lat="52.02386395074427" lon="5.799879943951964">
        <ele>41.0</ele>
      </trkpt>
      <trkpt lat="52.024622932076454" lon="5.798445967957377">
        <ele>42.0</ele>
      </trkpt>
      <trkpt lat="52.024642964825034" lon="5.7985549326986074">
        <ele>42.0</ele>
      </trkpt>
      <trkpt lat="52.02493599615991" lon="5.798919964581728">
        <ele>42.0</ele>
      </trkpt>
      <trkpt lat="52.025116961449385" lon="5.799136972054839">
        <ele>42.0</ele>
      </trkpt>
      <trkpt lat="52.027354929596186" lon="5.80182496458292">
        <ele>41.0</ele>
      </trkpt>
      <trkpt lat="52.02722794376314" lon="5.802194941788912">
        <ele>40.0</ele>
      </trkpt>
      <trkpt lat="52.02653291635215" lon="5.804227972403169">
        <ele>40.0</ele>
      </trkpt>
      <trkpt lat="52.02617894858122" lon="5.8048049826174974">
        <ele>39.0</ele>
      </trkpt>
      <trkpt lat="52.02475897036493" lon="5.808747997507453">
        <ele>39.0</ele>
      </trkpt>
      <trkpt lat="52.02465796843171" lon="5.8087569661438465">
        <ele>38.0</ele>
      </trkpt>
      <trkpt lat="52.024601977318525" lon="5.808896943926811">
        <ele>38.0</ele>
      </trkpt>
      <trkpt lat="52.02422797679901" lon="5.810207957401872">
        <ele>37.0</ele>
      </trkpt>
      <trkpt lat="52.02422596514225" lon="5.810528984293342">
        <ele>37.0</ele>
      </trkpt>
      <trkpt lat="52.02439595013857" lon="5.811440935358405">
        <ele>37.0</ele>
      </trkpt>
      <trkpt lat="52.02464899979532" lon="5.811794986948371">
        <ele>37.0</ele>
      </trkpt>
      <trkpt lat="52.02484396286309" lon="5.812237970530987">
        <ele>37.0</ele>
      </trkpt>
      <trkpt lat="52.02486994676292" lon="5.81243896856904">
        <ele>37.0</ele>
      </trkpt>
      <trkpt lat="52.02489995397627" lon="5.8126709796488285">
        <ele>37.0</ele>
      </trkpt>
      <trkpt lat="52.0248899795115" lon="5.812898967415094">
        <ele>37.0</ele>
      </trkpt>
      <trkpt lat="52.02508393675089" lon="5.813757944852114">
        <ele>38.0</ele>
      </trkpt>
      <trkpt lat="52.02513397671282" lon="5.814409973099828">
        <ele>38.0</ele>
      </trkpt>
      <trkpt lat="52.025288958102465" lon="5.814946917816997">
        <ele>38.0</ele>
      </trkpt>
      <trkpt lat="52.02532097697258" lon="5.815460979938507">
        <ele>39.0</ele>
      </trkpt>
      <trkpt lat="52.025436982512474" lon="5.815709922462702">
        <ele>39.0</ele>
      </trkpt>
      <trkpt lat="52.025416949763894" lon="5.816002953797579">
        <ele>39.0</ele>
      </trkpt>
      <trkpt lat="52.02549892477691" lon="5.816407967358828">
        <ele>40.0</ele>
      </trkpt>
      <trkpt lat="52.02564694918692" lon="5.816589938476682">
        <ele>40.0</ele>
      </trkpt>
      <trkpt lat="52.025743927806616" lon="5.816619945690036">
        <ele>40.0</ele>
      </trkpt>
      <trkpt lat="52.02630694024265" lon="5.816794959828258">
        <ele>40.0</ele>
      </trkpt>
      <trkpt lat="52.02654196880758" lon="5.817133923992515">
        <ele>40.0</ele>
      </trkpt>
      <trkpt lat="52.02693097293377" lon="5.81703694537282">
        <ele>40.0</ele>
      </trkpt>
      <trkpt lat="52.02708997763693" lon="5.816780962049961">
        <ele>40.0</ele>
      </trkpt>
      <trkpt lat="52.0272159576416" lon="5.816373936831951">
        <ele>40.0</ele>
      </trkpt>
      <trkpt lat="52.027244959026575" lon="5.816288944333792">
        <ele>40.0</ele>
      </trkpt>
      <trkpt lat="52.027182932943106" lon="5.816150978207588">
        <ele>40.0</ele>
      </trkpt>
      <trkpt lat="52.02654498629272" lon="5.815607998520136">
        <ele>39.0</ele>
      </trkpt>
      <trkpt lat="52.02648094855249" lon="5.8154319785535336">
        <ele>39.0</ele>
      </trkpt>
      <trkpt lat="52.02648396603763" lon="5.815162919461727">
        <ele>39.0</ele>
      </trkpt>
      <trkpt lat="52.02652998268604" lon="5.815039956942201">
        <ele>39.0</ele>
      </trkpt>
      <trkpt lat="52.02650399878621" lon="5.814688922837377">
        <ele>39.0</ele>
      </trkpt>
      <trkpt lat="52.026557978242636" lon="5.814353981986642">
        <ele>39.0</ele>
      </trkpt>
      <trkpt lat="52.02664598822594" lon="5.814276952296495">
        <ele>39.0</ele>
      </trkpt>
      <trkpt lat="52.02665495686233" lon="5.814052987843752">
        <ele>39.0</ele>
      </trkpt>
      <trkpt lat="52.026709942147136" lon="5.814083917066455">
        <ele>40.0</ele>
      </trkpt>
      <trkpt lat="52.026747995987535" lon="5.813888953998685">
        <ele>40.0</ele>
      </trkpt>
      <trkpt lat="52.02689392492175" lon="5.813724920153618">
        <ele>40.0</ele>
      </trkpt>
      <trkpt lat="52.02703692018986" lon="5.813036933541298">
        <ele>41.0</ele>
      </trkpt>
      <trkpt lat="52.02751795761287" lon="5.81171091645956">
        <ele>41.0</ele>
      </trkpt>
      <trkpt lat="52.027866980060935" lon="5.81091295927763">
        <ele>42.0</ele>
      </trkpt>
      <trkpt lat="52.0297319535166" lon="5.807844931259751">
        <ele>43.0</ele>
      </trkpt>
      <trkpt lat="52.03097398392856" lon="5.805461956188083">
        <ele>44.0</ele>
      </trkpt>
      <trkpt lat="52.032164968550205" lon="5.802839929237962">
        <ele>44.0</ele>
      </trkpt>
      <trkpt lat="52.032398991286755" lon="5.80188799649477">
        <ele>44.0</ele>
      </trkpt>
      <trkpt lat="52.03261197544634" lon="5.801295982673764">
        <ele>44.0</ele>
      </trkpt>
      <trkpt lat="52.03301296569407" lon="5.800788961350918">
        <ele>44.0</ele>
      </trkpt>
      <trkpt lat="52.032999973744154" lon="5.800610929727554">
        <ele>44.0</ele>
      </trkpt>
      <trkpt lat="52.03285999596119" lon="5.80044899135828">
        <ele>44.0</ele>
      </trkpt>
      <trkpt lat="52.03279696404934" lon="5.799923948943615">
        <ele>44.0</ele>
      </trkpt>
      <trkpt lat="52.032810961827636" lon="5.7996169198304415">
        <ele>43.0</ele>
      </trkpt>
      <trkpt lat="52.032721946015954" lon="5.798611929640174">
        <ele>43.0</ele>
      </trkpt>
      <trkpt lat="52.032833928242326" lon="5.798373967409134">
        <ele>43.0</ele>
      </trkpt>
      <trkpt lat="52.03264592215419" lon="5.796491978690028">
        <ele>42.0</ele>
      </trkpt>
      <trkpt lat="52.03262496739626" lon="5.7956089451909065">
        <ele>42.0</ele>
      </trkpt>
      <trkpt lat="52.03262697905302" lon="5.795532921329141">
        <ele>41.0</ele>
      </trkpt>
      <trkpt lat="52.032616920769215" lon="5.795248942449689">
        <ele>40.0</ele>
      </trkpt>
      <trkpt lat="52.03550792299211" lon="5.790345948189497">
        <ele>39.0</ele>
      </trkpt>
      <trkpt lat="52.036374947056174" lon="5.788904931396246">
        <ele>38.0</ele>
      </trkpt>
      <trkpt lat="52.03638299368322" lon="5.788754979148507">
        <ele>37.0</ele>
      </trkpt>
      <trkpt lat="52.03645692206919" lon="5.787349920719862">
        <ele>37.0</ele>
      </trkpt>
      <trkpt lat="52.036376958712935" lon="5.78487591817975">
        <ele>37.0</ele>
      </trkpt>
      <trkpt lat="52.036480978131294" lon="5.7843949645757675">
        <ele>36.0</ele>
      </trkpt>
      <trkpt lat="52.036440996453166" lon="5.784210981801152">
        <ele>36.0</ele>
      </trkpt>
      <trkpt lat="52.03645893372595" lon="5.7841419987380505">
        <ele>36.0</ele>
      </trkpt>
      <trkpt lat="52.03660192899406" lon="5.7838209718465805">
        <ele>36.0</ele>
      </trkpt>
      <trkpt lat="52.03534095548093" lon="5.784130934625864">
        <ele>36.0</ele>
      </trkpt>
      <trkpt lat="52.03535998240113" lon="5.779807968065143">
        <ele>36.0</ele>
      </trkpt>
      <trkpt lat="52.0353289693594" lon="5.77754694968462">
        <ele>36.0</ele>
      </trkpt>
      <trkpt lat="52.03468699939549" lon="5.777765968814492">
        <ele>36.0</ele>
      </trkpt>
      <trkpt lat="52.03469596803188" lon="5.776963988319039">
        <ele>36.0</ele>
      </trkpt>
      <trkpt lat="52.03499595634639" lon="5.772428959608078">
        <ele>36.0</ele>
      </trkpt>
      <trkpt lat="52.03601997345686" lon="5.7721929252147675">
        <ele>36.0</ele>
      </trkpt>
      <trkpt lat="52.03593397513032" lon="5.770554933696985">
        <ele>36.0</ele>
      </trkpt>
      <trkpt lat="52.035989966243505" lon="5.7702509220689535">
        <ele>36.0</ele>
      </trkpt>
      <trkpt lat="52.0359299518168" lon="5.76996099203825">
        <ele>36.0</ele>
      </trkpt>
      <trkpt lat="52.03496695496142" lon="5.7699039950966835">
        <ele>36.0</ele>
      </trkpt>
      <trkpt lat="52.03487894497812" lon="5.7695049326866865">
        <ele>36.0</ele>
      </trkpt>
      <trkpt lat="52.03466596081853" lon="5.769213996827602">
        <ele>36.0</ele>
      </trkpt>
      <trkpt lat="52.034613993018866" lon="5.768953990191221">
        <ele>36.0</ele>
      </trkpt>
      <trkpt lat="52.03461994417012" lon="5.768807977437973">
        <ele>36.0</ele>
      </trkpt>
      <trkpt lat="52.034789929166436" lon="5.768746957182884">
        <ele>35.0</ele>
      </trkpt>
      <trkpt lat="52.034895960241556" lon="5.768424924463034">
        <ele>35.0</ele>
      </trkpt>
      <trkpt lat="52.0348799508065" lon="5.768209928646684">
        <ele>35.0</ele>
      </trkpt>
      <trkpt lat="52.03475296497345" lon="5.768067939206958">
        <ele>35.0</ele>
      </trkpt>
      <trkpt lat="52.03476193360984" lon="5.7678059209138155">
        <ele>34.0</ele>
      </trkpt>
      <trkpt lat="52.03493393026292" lon="5.767758982256055">
        <ele>34.0</ele>
      </trkpt>
      <trkpt lat="52.03484399244189" lon="5.76731993816793">
        <ele>34.0</ele>
      </trkpt>
      <trkpt lat="52.034912975504994" lon="5.76727693900466">
        <ele>33.0</ele>
      </trkpt>
      <trkpt lat="52.03489696606994" lon="5.767150958999991">
        <ele>33.0</ele>
      </trkpt>
      <trkpt lat="52.03477098606527" lon="5.766977956518531">
        <ele>33.0</ele>
      </trkpt>
      <trkpt lat="52.03479596413672" lon="5.766603955999017">
        <ele>33.0</ele>
      </trkpt>
      <trkpt lat="52.03485899604857" lon="5.766541929915547">
        <ele>33.0</ele>
      </trkpt>
      <trkpt lat="52.03484399244189" lon="5.766421984881163">
        <ele>33.0</ele>
      </trkpt>
      <trkpt lat="52.034765956923366" lon="5.766332969069481">
        <ele>34.0</ele>
      </trkpt>
      <trkpt lat="52.03481197357178" lon="5.766081931069493">
        <ele>34.0</ele>
      </trkpt>
      <trkpt lat="52.034789929166436" lon="5.765636935830116">
        <ele>34.0</ele>
      </trkpt>
      <trkpt lat="52.03487793914974" lon="5.7654309924691916">
        <ele>34.0</ele>
      </trkpt>
      <trkpt lat="52.03501892276108" lon="5.76532294973731">
        <ele>35.0</ele>
      </trkpt>
      <trkpt lat="52.0350699685514" lon="5.7652009930461645">
        <ele>35.0</ele>
      </trkpt>
      <trkpt lat="52.03505798242986" lon="5.765053974464536">
        <ele>35.0</ele>
      </trkpt>
      <trkpt lat="52.03511296771467" lon="5.764832943677902">
        <ele>36.0</ele>
      </trkpt>
      <trkpt lat="52.03527096658945" lon="5.764687936753035">
        <ele>36.0</ele>
      </trkpt>
      <trkpt lat="52.03520097769797" lon="5.764267919585109">
        <ele>37.0</ele>
      </trkpt>
      <trkpt lat="52.034979946911335" lon="5.763791995123029">
        <ele>37.0</ele>
      </trkpt>
      <trkpt lat="52.035172982141376" lon="5.763442972674966">
        <ele>37.0</ele>
      </trkpt>
      <trkpt lat="52.03519796021283" lon="5.763331996276975">
        <ele>37.0</ele>
      </trkpt>
      <trkpt lat="52.0351389516145" lon="5.763227976858616">
        <ele>37.0</ele>
      </trkpt>
      <trkpt lat="52.035245988518" lon="5.763019938021898">
        <ele>37.0</ele>
      </trkpt>
      <trkpt lat="52.03524992801249" lon="5.7628929521888494">
        <ele>37.0</ele>
      </trkpt>
      <trkpt lat="52.03531798906624" lon="5.762854982167482">
        <ele>37.0</ele>
      </trkpt>
      <trkpt lat="52.035364927724004" lon="5.76259296387434">
        <ele>36.0</ele>
      </trkpt>
      <trkpt lat="52.035494931042194" lon="5.762415938079357">
        <ele>36.0</ele>
      </trkpt>
      <trkpt lat="52.03541496768594" lon="5.762144951149821">
        <ele>35.0</ele>
      </trkpt>
      <trkpt lat="52.03544296324253" lon="5.762028945609927">
        <ele>35.0</ele>
      </trkpt>
      <trkpt lat="52.03530893661082" lon="5.761863989755511">
        <ele>34.0</ele>
      </trkpt>
      <trkpt lat="52.03526996076107" lon="5.761548997834325">
        <ele>34.0</ele>
      </trkpt>
      <trkpt lat="52.035305919125676" lon="5.761446990072727">
        <ele>33.0</ele>
      </trkpt>
      <trkpt lat="52.03541396185756" lon="5.761502981185913">
        <ele>32.0</ele>
      </trkpt>
      <trkpt lat="52.03555293381214" lon="5.761425951495767">
        <ele>31.0</ele>
      </trkpt>
      <trkpt lat="52.03565091826022" lon="5.761054968461394">
        <ele>31.0</ele>
      </trkpt>
      <trkpt lat="52.03552493825555" lon="5.760197918862104">
        <ele>30.0</ele>
      </trkpt>
      <trkpt lat="52.035536924377084" lon="5.7600379921495914">
        <ele>29.0</ele>
      </trkpt>
      <trkpt lat="52.03564194962382" lon="5.7599119283258915">
        <ele>28.0</ele>
      </trkpt>
      <trkpt lat="52.035663994029164" lon="5.75958495028317">
        <ele>28.0</ele>
      </trkpt>
      <trkpt lat="52.03561797738075" lon="5.75945695862174">
        <ele>27.0</ele>
      </trkpt>
      <trkpt lat="52.03548395074904" lon="5.759468944743276">
        <ele>27.0</ele>
      </trkpt>
      <trkpt lat="52.03542695380747" lon="5.759348999708891">
        <ele>26.0</ele>
      </trkpt>
      <trkpt lat="52.0354169793427" lon="5.75917499139905">
        <ele>26.0</ele>
      </trkpt>
      <trkpt lat="52.03546592965722" lon="5.759017998352647">
        <ele>26.0</ele>
      </trkpt>
      <trkpt lat="52.03571696765721" lon="5.758687919005752">
        <ele>26.0</ele>
      </trkpt>
      <trkpt lat="52.03576197847724" lon="5.758390948176384">
        <ele>25.0</ele>
      </trkpt>
      <trkpt lat="52.035753931850195" lon="5.758063970133662">
        <ele>25.0</ele>
      </trkpt>
      <trkpt lat="52.03567396849394" lon="5.757959950715303">
        <ele>25.0</ele>
      </trkpt>
      <trkpt lat="52.03561797738075" lon="5.757512943819165">
        <ele>25.0</ele>
      </trkpt>
      <trkpt lat="52.03568293713033" lon="5.757198957726359">
        <ele>25.0</ele>
      </trkpt>
      <trkpt lat="52.03572694212198" lon="5.756526980549097">
        <ele>26.0</ele>
      </trkpt>
      <trkpt lat="52.035922994837165" lon="5.756157925352454">
        <ele>26.0</ele>
      </trkpt>
      <trkpt lat="52.03594193793833" lon="5.755660962313414">
        <ele>26.0</ele>
      </trkpt>
      <trkpt lat="52.0358659978956" lon="5.755606982856989">
        <ele>26.0</ele>
      </trkpt>
      <trkpt lat="52.03582299873233" lon="5.755476979538798">
        <ele>27.0</ele>
      </trkpt>
      <trkpt lat="52.035884940996766" lon="5.755356950685382">
        <ele>27.0</ele>
      </trkpt>
      <trkpt lat="52.0358969271183" lon="5.755178919062018">
        <ele>27.0</ele>
      </trkpt>
      <trkpt lat="52.035808917135" lon="5.754862921312451">
        <ele>28.0</ele>
      </trkpt>
      <trkpt lat="52.035836996510625" lon="5.754668964073062">
        <ele>28.0</ele>
      </trkpt>
      <trkpt lat="52.036033971235156" lon="5.754538960754871">
        <ele>28.0</ele>
      </trkpt>
      <trkpt lat="52.03629892319441" lon="5.754700982943177">
        <ele>28.0</ele>
      </trkpt>
      <trkpt lat="52.036483995616436" lon="5.754646919667721">
        <ele>29.0</ele>
      </trkpt>
      <trkpt lat="52.03655398450792" lon="5.7546979654580355">
        <ele>29.0</ele>
      </trkpt>
      <trkpt lat="52.03668692149222" lon="5.754715986549854">
        <ele>30.0</ele>
      </trkpt>
      <trkpt lat="52.03690594062209" lon="5.754624959081411">
        <ele>30.0</ele>
      </trkpt>
      <trkpt lat="52.037101993337274" lon="5.754776922985911">
        <ele>31.0</ele>
      </trkpt>
      <trkpt lat="52.03728396445513" lon="5.754588916897774">
        <ele>31.0</ele>
      </trkpt>
      <trkpt lat="52.037365939468145" lon="5.754595957696438">
        <ele>31.0</ele>
      </trkpt>
      <trkpt lat="52.03747792169452" lon="5.754544995725155">
        <ele>32.0</ele>
      </trkpt>
      <trkpt lat="52.03749996609986" lon="5.754534937441349">
        <ele>32.0</ele>
      </trkpt>
      <trkpt lat="52.03739795833826" lon="5.754021964967251">
        <ele>32.0</ele>
      </trkpt>
      <trkpt lat="52.03739292919636" lon="5.75384896248579">
        <ele>33.0</ele>
      </trkpt>
      <trkpt lat="52.03747398220003" lon="5.753722982481122">
        <ele>33.0</ele>
      </trkpt>
      <trkpt lat="52.037385972216725" lon="5.7534389197826385">
        <ele>33.0</ele>
      </trkpt>
      <trkpt lat="52.03741991892457" lon="5.75326893478632">
        <ele>33.0</ele>
      </trkpt>
      <trkpt lat="52.03729293309152" lon="5.75294598005712">
        <ele>33.0</ele>
      </trkpt>
      <trkpt lat="52.037360994145274" lon="5.7527609914541245">
        <ele>33.0</ele>
      </trkpt>
      <trkpt lat="52.03730994835496" lon="5.751145966351032">
        <ele>33.0</ele>
      </trkpt>
      <trkpt lat="52.037342973053455" lon="5.750736929476261">
        <ele>33.0</ele>
      </trkpt>
      <trkpt lat="52.037299973890185" lon="5.75019596144557">
        <ele>33.0</ele>
      </trkpt>
      <trkpt lat="52.03755394555628" lon="5.748796937987208">
        <ele>33.0</ele>
      </trkpt>
      <trkpt lat="52.037427965551615" lon="5.748660983517766">
        <ele>32.0</ele>
      </trkpt>
      <trkpt lat="52.03770196996629" lon="5.744527950882912">
        <ele>32.0</ele>
      </trkpt>
      <trkpt lat="52.03768897801638" lon="5.744484951719642">
        <ele>31.0</ele>
      </trkpt>
      <trkpt lat="52.03887795098126" lon="5.743418941274285">
        <ele>30.0</ele>
      </trkpt>
      <trkpt lat="52.03888398595154" lon="5.742949973791838">
        <ele>29.0</ele>
      </trkpt>
      <trkpt lat="52.03908598981798" lon="5.741960993036628">
        <ele>28.0</ele>
      </trkpt>
      <trkpt lat="52.03907391987741" lon="5.741716995835304">
        <ele>27.0</ele>
      </trkpt>
      <trkpt lat="52.03896294347942" lon="5.739544993266463">
        <ele>26.0</ele>
      </trkpt>
      <trkpt lat="52.038954980671406" lon="5.73811998590827">
        <ele>26.0</ele>
      </trkpt>
      <trkpt lat="52.038928996771574" lon="5.7376559637486935">
        <ele>26.0</ele>
      </trkpt>
      <trkpt lat="52.03882195986807" lon="5.736978957429528">
        <ele>26.0</ele>
      </trkpt>
      <trkpt lat="52.03872397542" lon="5.7365309447050095">
        <ele>26.0</ele>
      </trkpt>
      <trkpt lat="52.038566982373595" lon="5.73612199164927">
        <ele>26.0</ele>
      </trkpt>
      <trkpt lat="52.03847394324839" lon="5.735940942540765">
        <ele>26.0</ele>
      </trkpt>
      <trkpt lat="52.03820999711752" lon="5.735629973933101">
        <ele>29.0</ele>
      </trkpt>
    </trkseg>
  </trk>
</gpx>
