<?xml version="1.0" encoding="UTF-8"?>
<gpx creator="Garmin Connect" version="1.1"
  xsi:schemaLocation="http://www.topografix.com/GPX/1/1 http://www.topografix.com/GPX/11.xsd"
  xmlns:ns3="http://www.garmin.com/xmlschemas/TrackPointExtension/v1"
  xmlns="http://www.topografix.com/GPX/1/1"
  xmlns:xsi="http://www.w3.org/2001/XMLSchema-instance" xmlns:ns2="http://www.garmin.com/xmlschemas/GpxExtensions/v3">
  <metadata>
    <name>Radio Kootwijk – Uitzicht op Radio Kootwijk Circuit à partir de Eerbeek</name>
    <link href="connect.garmin.com">
      <text>Garmin Connect</text>
    </link>
    <time>2025-05-13T07:10:48.000Z</time>
  </metadata>
  <trk>
    <name>Radio Kootwijk – Uitzicht op Radio Kootwijk Circuit à partir de Eerbeek</name>
    <trkseg>
      <trkpt lat="52.10280999541283" lon="6.06639395467937">
        <ele>20.0</ele>
      </trkpt>
      <trkpt lat="52.10445293225348" lon="6.064291941002011">
        <ele>19.7</ele>
      </trkpt>
      <trkpt lat="52.105425987392664" lon="6.064487993717194">
        <ele>19.4</ele>
      </trkpt>
      <trkpt lat="52.10556294769049" lon="6.063888939097524">
        <ele>19.3</ele>
      </trkpt>
      <trkpt lat="52.106077931821346" lon="6.057919934391975">
        <ele>19.5</ele>
      </trkpt>
      <trkpt lat="52.1057659573853" lon="6.053376942873001">
        <ele>20.1</ele>
      </trkpt>
      <trkpt lat="52.105817925184965" lon="6.050175977870822">
        <ele>22.0</ele>
      </trkpt>
      <trkpt lat="52.107148971408606" lon="6.040013926103711">
        <ele>19.9</ele>
      </trkpt>
      <trkpt lat="52.10787392221391" lon="6.037188973277807">
        <ele>19.0</ele>
      </trkpt>
      <trkpt lat="52.10818497464061" lon="6.036585979163647">
        <ele>19.0</ele>
      </trkpt>
      <trkpt lat="52.108439952135086" lon="6.035312935709953">
        <ele>19.3</ele>
      </trkpt>
      <trkpt lat="52.10911796428263" lon="6.033470928668976">
        <ele>20.1</ele>
      </trkpt>
      <trkpt lat="52.10975297726691" lon="6.028479924425483">
        <ele>21.9</ele>
      </trkpt>
      <trkpt lat="52.11091596633196" lon="6.0249989200383425">
        <ele>22.9</ele>
      </trkpt>
      <trkpt lat="52.11322392337024" lon="6.0217269603163">
        <ele>23.0</ele>
      </trkpt>
      <trkpt lat="52.11390495300293" lon="6.021224968135357">
        <ele>23.3</ele>
      </trkpt>
      <trkpt lat="52.11583999916911" lon="6.0178079176694155">
        <ele>26.3</ele>
      </trkpt>
      <trkpt lat="52.11627191863954" lon="6.017563920468092">
        <ele>26.7</ele>
      </trkpt>
      <trkpt lat="52.11729593575001" lon="6.01822298951447">
        <ele>27.0</ele>
      </trkpt>
      <trkpt lat="52.11816497147083" lon="6.018114946782589">
        <ele>26.4</ele>
      </trkpt>
      <trkpt lat="52.11869596503675" lon="6.017906991764903">
        <ele>26.0</ele>
      </trkpt>
      <trkpt lat="52.1201509796083" lon="6.016638977453113">
        <ele>26.4</ele>
      </trkpt>
      <trkpt lat="52.12166894227266" lon="6.0156129486858845">
        <ele>28.3</ele>
      </trkpt>
      <trkpt lat="52.12557792663574" lon="6.012276951223612">
        <ele>34.9</ele>
      </trkpt>
      <trkpt lat="52.12917795404792" lon="6.0080779530107975">
        <ele>34.0</ele>
      </trkpt>
      <trkpt lat="52.131318943575025" lon="6.0050079971551895">
        <ele>32.4</ele>
      </trkpt>
      <trkpt lat="52.132009947672486" lon="6.006386987864971">
        <ele>34.1</ele>
      </trkpt>
      <trkpt lat="52.13323798030615" lon="6.006371984258294">
        <ele>35.6</ele>
      </trkpt>
      <trkpt lat="52.13332096114755" lon="6.006595948711038">
        <ele>35.7</ele>
      </trkpt>
      <trkpt lat="52.13323798030615" lon="6.006371984258294">
        <ele>35.7</ele>
      </trkpt>
      <trkpt lat="52.132696928456426" lon="6.006301995366812">
        <ele>35.4</ele>
      </trkpt>
      <trkpt lat="52.131817918270826" lon="6.004289919510484">
        <ele>33.7</ele>
      </trkpt>
      <trkpt lat="52.14003696106374" lon="5.992703950032592">
        <ele>32.6</ele>
      </trkpt>
      <trkpt lat="52.1419489569962" lon="5.989721920341253">
        <ele>34.9</ele>
      </trkpt>
      <trkpt lat="52.14433595538139" lon="5.9843249805271626">
        <ele>47.1</ele>
      </trkpt>
      <trkpt lat="52.14010393247008" lon="5.973316943272948">
        <ele>46.1</ele>
      </trkpt>
      <trkpt lat="52.13970998302102" lon="5.973149975761771">
        <ele>45.4</ele>
      </trkpt>
      <trkpt lat="52.1394659858197" lon="5.97325399518013">
        <ele>44.9</ele>
      </trkpt>
      <trkpt lat="52.139035994187" lon="5.974212968721986">
        <ele>43.8</ele>
      </trkpt>
      <trkpt lat="52.13844892568886" lon="5.97491092979908">
        <ele>42.7</ele>
      </trkpt>
      <trkpt lat="52.137353997677565" lon="5.9714779537171125">
        <ele>39.3</ele>
      </trkpt>
      <trkpt lat="52.13530395179987" lon="5.970778986811638">
        <ele>37.8</ele>
      </trkpt>
      <trkpt lat="52.13519498705864" lon="5.9699939377605915">
        <ele>37.6</ele>
      </trkpt>
      <trkpt lat="52.13456994853914" lon="5.969565957784653">
        <ele>37.3</ele>
      </trkpt>
      <trkpt lat="52.13517897762358" lon="5.966331968083978">
        <ele>37.2</ele>
      </trkpt>
      <trkpt lat="52.135181995108724" lon="5.964298937469721">
        <ele>38.4</ele>
      </trkpt>
      <trkpt lat="52.13504394516349" lon="5.964241940528154">
        <ele>38.6</ele>
      </trkpt>
      <trkpt lat="52.135419957339764" lon="5.962746944278479">
        <ele>40.2</ele>
      </trkpt>
      <trkpt lat="52.13559798896313" lon="5.960570918396115">
        <ele>42.5</ele>
      </trkpt>
      <trkpt lat="52.135337982326746" lon="5.95913995988667">
        <ele>44.5</ele>
      </trkpt>
      <trkpt lat="52.13892191648483" lon="5.960031962022185">
        <ele>54.3</ele>
      </trkpt>
      <trkpt lat="52.1398439258337" lon="5.959968930110335">
        <ele>53.5</ele>
      </trkpt>
      <trkpt lat="52.14233293198049" lon="5.960434963926673">
        <ele>49.1</ele>
      </trkpt>
      <trkpt lat="52.14224592782557" lon="5.959464926272631">
        <ele>49.7</ele>
      </trkpt>
      <trkpt lat="52.141976952552795" lon="5.959620997309685">
        <ele>50.2</ele>
      </trkpt>
      <trkpt lat="52.141201961785555" lon="5.959406923502684">
        <ele>52.4</ele>
      </trkpt>
      <trkpt lat="52.139911986887455" lon="5.956972986459732">
        <ele>58.7</ele>
      </trkpt>
      <trkpt lat="52.1394659858197" lon="5.955671947449446">
        <ele>61.8</ele>
      </trkpt>
      <trkpt lat="52.13899995200336" lon="5.952380960807204">
        <ele>69.2</ele>
      </trkpt>
      <trkpt lat="52.13905191980302" lon="5.951928924769163">
        <ele>70.1</ele>
      </trkpt>
      <trkpt lat="52.13868395425379" lon="5.9512249287217855">
        <ele>71.5</ele>
      </trkpt>
      <trkpt lat="52.13826695457101" lon="5.951326936483383">
        <ele>71.9</ele>
      </trkpt>
      <trkpt lat="52.13775197044015" lon="5.951075982302427">
        <ele>71.9</ele>
      </trkpt>
      <trkpt lat="52.13725592941046" lon="5.949949957430363">
        <ele>71.4</ele>
      </trkpt>
      <trkpt lat="52.139266999438405" lon="5.947773931547999">
        <ele>69.4</ele>
      </trkpt>
      <trkpt lat="52.13811691850424" lon="5.944940932095051">
        <ele>73.5</ele>
      </trkpt>
      <trkpt lat="52.13963898830116" lon="5.944706993177533">
        <ele>77.2</ele>
      </trkpt>
      <trkpt lat="52.140427976846695" lon="5.944793997332454">
        <ele>79.2</ele>
      </trkpt>
      <trkpt lat="52.14106592349708" lon="5.944340955466032">
        <ele>81.1</ele>
      </trkpt>
      <trkpt lat="52.13960596360266" lon="5.937245925888419">
        <ele>82.6</ele>
      </trkpt>
      <trkpt lat="52.151686968281865" lon="5.931096961721778">
        <ele>73.3</ele>
      </trkpt>
      <trkpt lat="52.15299194678664" lon="5.931763993576169">
        <ele>71.9</ele>
      </trkpt>
      <trkpt lat="52.153707928955555" lon="5.935500981286168">
        <ele>74.2</ele>
      </trkpt>
      <trkpt lat="52.15373491868377" lon="5.936365993693471">
        <ele>74.2</ele>
      </trkpt>
      <trkpt lat="52.15442793443799" lon="5.938314953818917">
        <ele>73.1</ele>
      </trkpt>
      <trkpt lat="52.15418494306505" lon="5.939941965043545">
        <ele>70.7</ele>
      </trkpt>
      <trkpt lat="52.154801934957504" lon="5.941798975691199">
        <ele>67.5</ele>
      </trkpt>
      <trkpt lat="52.1549559943378" lon="5.942987948656082">
        <ele>65.4</ele>
      </trkpt>
      <trkpt lat="52.154864966869354" lon="5.943786995485425">
        <ele>64.2</ele>
      </trkpt>
      <trkpt lat="52.15619198977947" lon="5.944214975461364">
        <ele>62.4</ele>
      </trkpt>
      <trkpt lat="52.15724593028426" lon="5.935710947960615">
        <ele>65.9</ele>
      </trkpt>
      <trkpt lat="52.15780097991228" lon="5.9350349474698305">
        <ele>65.7</ele>
      </trkpt>
      <trkpt lat="52.157699977979064" lon="5.9358159732073545">
        <ele>65.5</ele>
      </trkpt>
      <trkpt lat="52.157894941046834" lon="5.934287952259183">
        <ele>65.7</ele>
      </trkpt>
      <trkpt lat="52.161031952127814" lon="5.9358049929142">
        <ele>63.5</ele>
      </trkpt>
      <trkpt lat="52.16730195097625" lon="5.925563983619213">
        <ele>58.4</ele>
      </trkpt>
      <trkpt lat="52.16898797079921" lon="5.927645964547992">
        <ele>53.8</ele>
      </trkpt>
      <trkpt lat="52.17058799229562" lon="5.923844939097762">
        <ele>54.3</ele>
      </trkpt>
      <trkpt lat="52.17165199108422" lon="5.925507992506027">
        <ele>53.4</ele>
      </trkpt>
      <trkpt lat="52.17275496572256" lon="5.921019986271858">
        <ele>50.5</ele>
      </trkpt>
      <trkpt lat="52.17030996456742" lon="5.910101970657706">
        <ele>54.4</ele>
      </trkpt>
      <trkpt lat="52.17063099145889" lon="5.909899966791272">
        <ele>54.4</ele>
      </trkpt>
      <trkpt lat="52.17063199728727" lon="5.909260930493474">
        <ele>54.5</ele>
      </trkpt>
      <trkpt lat="52.17111999168992" lon="5.907827960327268">
        <ele>54.1</ele>
      </trkpt>
      <trkpt lat="52.16861195862293" lon="5.905655957758427">
        <ele>59.7</ele>
      </trkpt>
      <trkpt lat="52.1689329855144" lon="5.904283924028277">
        <ele>64.1</ele>
      </trkpt>
      <trkpt lat="52.16852596029639" lon="5.902025923132896">
        <ele>72.6</ele>
      </trkpt>
      <trkpt lat="52.16688193380833" lon="5.898803919553757">
        <ele>79.2</ele>
      </trkpt>
      <trkpt lat="52.166358986869454" lon="5.896327989175916">
        <ele>85.2</ele>
      </trkpt>
      <trkpt lat="52.165866969153285" lon="5.895067937672138">
        <ele>90.2</ele>
      </trkpt>
      <trkpt lat="52.165091978386045" lon="5.893801935017109">
        <ele>94.3</ele>
      </trkpt>
      <trkpt lat="52.16609797440469" lon="5.892940945923328">
        <ele>95.8</ele>
      </trkpt>
      <trkpt lat="52.16654296964407" lon="5.892188921570778">
        <ele>95.7</ele>
      </trkpt>
      <trkpt lat="52.167175970971584" lon="5.892541967332363">
        <ele>95.1</ele>
      </trkpt>
      <trkpt lat="52.16770092956722" lon="5.892473990097642">
        <ele>94.3</ele>
      </trkpt>
      <trkpt lat="52.168060932308435" lon="5.893016969785094">
        <ele>93.8</ele>
      </trkpt>
      <trkpt lat="52.168206945061684" lon="5.892586978152394">
        <ele>93.5</ele>
      </trkpt>
      <trkpt lat="52.16819998808205" lon="5.891778962686658">
        <ele>92.8</ele>
      </trkpt>
      <trkpt lat="52.16669292189181" lon="5.885613989084959">
        <ele>87.8</ele>
      </trkpt>
      <trkpt lat="52.16798298060894" lon="5.884254947304726">
        <ele>86.5</ele>
      </trkpt>
      <trkpt lat="52.170725958421826" lon="5.882635982707143">
        <ele>85.2</ele>
      </trkpt>
      <trkpt lat="52.17174997553229" lon="5.88166493922472">
        <ele>83.8</ele>
      </trkpt>
      <trkpt lat="52.17211592942476" lon="5.881519932299852">
        <ele>83.2</ele>
      </trkpt>
      <trkpt lat="52.17830395326018" lon="5.881204940378666">
        <ele>78.6</ele>
      </trkpt>
      <trkpt lat="52.178159952163696" lon="5.876525994390249">
        <ele>80.1</ele>
      </trkpt>
      <trkpt lat="52.177788969129324" lon="5.874583991244435">
        <ele>81.9</ele>
      </trkpt>
      <trkpt lat="52.18007295392454" lon="5.873114978894591">
        <ele>83.8</ele>
      </trkpt>
      <trkpt lat="52.1776969358325" lon="5.862459987401962">
        <ele>81.7</ele>
      </trkpt>
      <trkpt lat="52.17703392729163" lon="5.861390959471464">
        <ele>81.6</ele>
      </trkpt>
      <trkpt lat="52.17660494148731" lon="5.858804974704981">
        <ele>79.2</ele>
      </trkpt>
      <trkpt lat="52.17462094500661" lon="5.859010918065906">
        <ele>70.5</ele>
      </trkpt>
      <trkpt lat="52.17312494292855" lon="5.854373965412378">
        <ele>61.8</ele>
      </trkpt>
      <trkpt lat="52.17111496254802" lon="5.846872916445136">
        <ele>60.2</ele>
      </trkpt>
      <trkpt lat="52.17287692241371" lon="5.841783927753568">
        <ele>63.9</ele>
      </trkpt>
      <trkpt lat="52.17380697838962" lon="5.835320977494121">
        <ele>64.8</ele>
      </trkpt>
      <trkpt lat="52.17428198084235" lon="5.834848992526531">
        <ele>66.4</ele>
      </trkpt>
      <trkpt lat="52.17549894936383" lon="5.834453953430057">
        <ele>69.3</ele>
      </trkpt>
      <trkpt lat="52.175965989008546" lon="5.834730975329876">
        <ele>70.3</ele>
      </trkpt>
      <trkpt lat="52.176502933725715" lon="5.836648922413588">
        <ele>72.8</ele>
      </trkpt>
      <trkpt lat="52.180027943104506" lon="5.840622950345278">
        <ele>80.2</ele>
      </trkpt>
      <trkpt lat="52.18182292766869" lon="5.834106942638755">
        <ele>64.3</ele>
      </trkpt>
      <trkpt lat="52.18485197983682" lon="5.837474958971143">
        <ele>70.9</ele>
      </trkpt>
      <trkpt lat="52.184237921610475" lon="5.838621938601136">
        <ele>72.6</ele>
      </trkpt>
      <trkpt lat="52.188107930123806" lon="5.831760931760073">
        <ele>63.2</ele>
      </trkpt>
      <trkpt lat="52.18879792839289" lon="5.831508971750736">
        <ele>64.1</ele>
      </trkpt>
      <trkpt lat="52.190100979059935" lon="5.830197958275676">
        <ele>65.0</ele>
      </trkpt>
      <trkpt lat="52.190443966537714" lon="5.829724967479706">
        <ele>65.0</ele>
      </trkpt>
      <trkpt lat="52.19055091962218" lon="5.829154998064041">
        <ele>64.9</ele>
      </trkpt>
      <trkpt lat="52.19678797759116" lon="5.830280939117074">
        <ele>70.3</ele>
      </trkpt>
      <trkpt lat="52.19647499732673" lon="5.826070960611105">
        <ele>66.2</ele>
      </trkpt>
      <trkpt lat="52.19427592121065" lon="5.8261859603226185">
        <ele>61.7</ele>
      </trkpt>
      <trkpt lat="52.19445093534887" lon="5.81136298365891">
        <ele>52.8</ele>
      </trkpt>
      <trkpt lat="52.19492392614484" lon="5.811662971973419">
        <ele>51.9</ele>
      </trkpt>
      <trkpt lat="52.19555399380624" lon="5.810629986226559">
        <ele>50.5</ele>
      </trkpt>
      <trkpt lat="52.19851791858673" lon="5.813808990642428">
        <ele>48.9</ele>
      </trkpt>
      <trkpt lat="52.19876593910158" lon="5.8138389978557825">
        <ele>48.7</ele>
      </trkpt>
      <trkpt lat="52.199150919914246" lon="5.813715951517224">
        <ele>48.2</ele>
      </trkpt>
      <trkpt lat="52.19921696931124" lon="5.813397942110896">
        <ele>47.8</ele>
      </trkpt>
      <trkpt lat="52.1998009365052" lon="5.813022935763001">
        <ele>46.9</ele>
      </trkpt>
      <trkpt lat="52.2027849778533" lon="5.811584936454892">
        <ele>43.5</ele>
      </trkpt>
      <trkpt lat="52.203204995021224" lon="5.81084699369967">
        <ele>43.3</ele>
      </trkpt>
      <trkpt lat="52.203485956415534" lon="5.810665944591165">
        <ele>43.7</ele>
      </trkpt>
      <trkpt lat="52.20496695488691" lon="5.810619927942753">
        <ele>46.9</ele>
      </trkpt>
      <trkpt lat="52.205960964784026" lon="5.810235952958465">
        <ele>49.5</ele>
      </trkpt>
      <trkpt lat="52.21009592525661" lon="5.808157995343208">
        <ele>53.9</ele>
      </trkpt>
      <trkpt lat="52.2104849293828" lon="5.807911986485124">
        <ele>54.2</ele>
      </trkpt>
      <trkpt lat="52.210772931575775" lon="5.80745299346745">
        <ele>54.4</ele>
      </trkpt>
      <trkpt lat="52.20891499891877" lon="5.805236985906959">
        <ele>53.1</ele>
      </trkpt>
      <trkpt lat="52.207630975171924" lon="5.8042059279978275">
        <ele>49.3</ele>
      </trkpt>
      <trkpt lat="52.20819993875921" lon="5.803871992975473">
        <ele>47.1</ele>
      </trkpt>
      <trkpt lat="52.20826196484268" lon="5.800371961668134">
        <ele>41.4</ele>
      </trkpt>
      <trkpt lat="52.20843798480928" lon="5.79975999891758">
        <ele>40.9</ele>
      </trkpt>
      <trkpt lat="52.208189964294434" lon="5.79814899712801">
        <ele>41.8</ele>
      </trkpt>
      <trkpt lat="52.21151992678642" lon="5.793412970378995">
        <ele>44.8</ele>
      </trkpt>
      <trkpt lat="52.21135698258877" lon="5.791945969685912">
        <ele>42.9</ele>
      </trkpt>
      <trkpt lat="52.210749965161085" lon="5.79020194709301">
        <ele>41.1</ele>
      </trkpt>
      <trkpt lat="52.211436945945024" lon="5.789732979610562">
        <ele>40.6</ele>
      </trkpt>
      <trkpt lat="52.213324969634414" lon="5.787544967606664">
        <ele>39.8</ele>
      </trkpt>
      <trkpt lat="52.21446096897125" lon="5.786923952400684">
        <ele>38.8</ele>
      </trkpt>
      <trkpt lat="52.21443297341466" lon="5.786479962989688">
        <ele>38.7</ele>
      </trkpt>
      <trkpt lat="52.21458393149078" lon="5.786257926374674">
        <ele>38.6</ele>
      </trkpt>
      <trkpt lat="52.215607948601246" lon="5.785892978310585">
        <ele>39.1</ele>
      </trkpt>
      <trkpt lat="52.216332983225584" lon="5.784291950985789">
        <ele>39.9</ele>
      </trkpt>
      <trkpt lat="52.215993935242295" lon="5.781098948791623">
        <ele>39.4</ele>
      </trkpt>
      <trkpt lat="52.21550895832479" lon="5.7805589865893126">
        <ele>39.1</ele>
      </trkpt>
      <trkpt lat="52.21549194306135" lon="5.780079960823059">
        <ele>39.0</ele>
      </trkpt>
      <trkpt lat="52.215243922546506" lon="5.779795981943607">
        <ele>39.0</ele>
      </trkpt>
      <trkpt lat="52.21523595973849" lon="5.779505968093872">
        <ele>39.0</ele>
      </trkpt>
      <trkpt lat="52.2155499458313" lon="5.779119981452823">
        <ele>39.1</ele>
      </trkpt>
      <trkpt lat="52.2155879996717" lon="5.776598956435919">
        <ele>39.0</ele>
      </trkpt>
      <trkpt lat="52.212637988850474" lon="5.77640893869102">
        <ele>35.1</ele>
      </trkpt>
      <trkpt lat="52.21090695820749" lon="5.76923293992877">
        <ele>33.3</ele>
      </trkpt>
      <trkpt lat="52.21050295047462" lon="5.768577978014946">
        <ele>34.1</ele>
      </trkpt>
      <trkpt lat="52.20949896611273" lon="5.7633149810135365">
        <ele>38.9</ele>
      </trkpt>
      <trkpt lat="52.20904198475182" lon="5.76261299662292">
        <ele>38.7</ele>
      </trkpt>
      <trkpt lat="52.20856798812747" lon="5.760005973279476">
        <ele>37.0</ele>
      </trkpt>
      <trkpt lat="52.20856295898557" lon="5.7591079361736774">
        <ele>36.2</ele>
      </trkpt>
      <trkpt lat="52.20719997771084" lon="5.7604199554771185">
        <ele>34.5</ele>
      </trkpt>
      <trkpt lat="52.206324990838766" lon="5.75767295435071">
        <ele>33.6</ele>
      </trkpt>
      <trkpt lat="52.20609499141574" lon="5.756277954205871">
        <ele>33.4</ele>
      </trkpt>
      <trkpt lat="52.205550922080874" lon="5.755440937355161">
        <ele>33.1</ele>
      </trkpt>
      <trkpt lat="52.20524791628122" lon="5.755896996706724">
        <ele>33.0</ele>
      </trkpt>
      <trkpt lat="52.20461499877274" lon="5.7562329433858395">
        <ele>32.7</ele>
      </trkpt>
      <trkpt lat="52.204391956329346" lon="5.756215928122401">
        <ele>32.6</ele>
      </trkpt>
      <trkpt lat="52.20405793748796" lon="5.755706978961825">
        <ele>32.3</ele>
      </trkpt>
      <trkpt lat="52.20370598137379" lon="5.755639923736453">
        <ele>32.1</ele>
      </trkpt>
      <trkpt lat="52.2032789234072" lon="5.756062958389521">
        <ele>31.8</ele>
      </trkpt>
      <trkpt lat="52.20237996429205" lon="5.7561819814145565">
        <ele>31.3</ele>
      </trkpt>
      <trkpt lat="52.20171494409442" lon="5.755043970420957">
        <ele>31.0</ele>
      </trkpt>
      <trkpt lat="52.20166792161763" lon="5.754636945202947">
        <ele>31.0</ele>
      </trkpt>
      <trkpt lat="52.200674917548895" lon="5.75537396594882">
        <ele>31.8</ele>
      </trkpt>
      <trkpt lat="52.199940998107195" lon="5.756586994975805">
        <ele>32.6</ele>
      </trkpt>
      <trkpt lat="52.19963598065078" lon="5.755265923216939">
        <ele>33.2</ele>
      </trkpt>
      <trkpt lat="52.198932990431786" lon="5.754197984933853">
        <ele>33.4</ele>
      </trkpt>
      <trkpt lat="52.19855798408389" lon="5.754074938595295">
        <ele>33.3</ele>
      </trkpt>
      <trkpt lat="52.198008969426155" lon="5.7535649836063385">
        <ele>33.2</ele>
      </trkpt>
      <trkpt lat="52.197749968618155" lon="5.7525339256972075">
        <ele>32.6</ele>
      </trkpt>
      <trkpt lat="52.19776195473969" lon="5.751301953569055">
        <ele>31.6</ele>
      </trkpt>
      <trkpt lat="52.194679928943515" lon="5.752231925725937">
        <ele>31.3</ele>
      </trkpt>
      <trkpt lat="52.19458496198058" lon="5.752528980374336">
        <ele>31.5</ele>
      </trkpt>
      <trkpt lat="52.195002967491746" lon="5.756955966353416">
        <ele>33.9</ele>
      </trkpt>
      <trkpt lat="52.1950329747051" lon="5.759593918919563">
        <ele>34.8</ele>
      </trkpt>
      <trkpt lat="52.19436594285071" lon="5.759635996073484">
        <ele>35.0</ele>
      </trkpt>
      <trkpt lat="52.19425798393786" lon="5.759439943358302">
        <ele>34.8</ele>
      </trkpt>
      <trkpt lat="52.193861939013004" lon="5.757054956629872">
        <ele>34.0</ele>
      </trkpt>
      <trkpt lat="52.1928399335593" lon="5.7567639369517565">
        <ele>32.8</ele>
      </trkpt>
      <trkpt lat="52.1924149710685" lon="5.757065936923027">
        <ele>32.2</ele>
      </trkpt>
      <trkpt lat="52.19223593361676" lon="5.755097949877381">
        <ele>31.5</ele>
      </trkpt>
      <trkpt lat="52.19043399207294" lon="5.755789959803224">
        <ele>32.4</ele>
      </trkpt>
      <trkpt lat="52.18912792392075" lon="5.756556987762451">
        <ele>33.6</ele>
      </trkpt>
      <trkpt lat="52.186447978019714" lon="5.756751950830221">
        <ele>36.4</ele>
      </trkpt>
      <trkpt lat="52.1859169844538" lon="5.757002988830209">
        <ele>36.9</ele>
      </trkpt>
      <trkpt lat="52.1837929263711" lon="5.759359980002046">
        <ele>37.7</ele>
      </trkpt>
      <trkpt lat="52.18305096030235" lon="5.759547986090183">
        <ele>37.9</ele>
      </trkpt>
      <trkpt lat="52.182582998648286" lon="5.7603849191218615">
        <ele>38.4</ele>
      </trkpt>
      <trkpt lat="52.18227596953511" lon="5.758479963988066">
        <ele>39.1</ele>
      </trkpt>
      <trkpt lat="52.181011978536844" lon="5.7584199495613575">
        <ele>39.9</ele>
      </trkpt>
      <trkpt lat="52.17918396927416" lon="5.75887693092227">
        <ele>40.2</ele>
      </trkpt>
      <trkpt lat="52.1789229568094" lon="5.7594439666718245">
        <ele>40.2</ele>
      </trkpt>
      <trkpt lat="52.17773691751063" lon="5.760327922180295">
        <ele>40.3</ele>
      </trkpt>
      <trkpt lat="52.17743894085288" lon="5.75915596447885">
        <ele>40.2</ele>
      </trkpt>
      <trkpt lat="52.177299968898296" lon="5.760314930230379">
        <ele>39.9</ele>
      </trkpt>
      <trkpt lat="52.17589197680354" lon="5.760332951322198">
        <ele>38.3</ele>
      </trkpt>
      <trkpt lat="52.174241999164224" lon="5.763496952131391">
        <ele>34.9</ele>
      </trkpt>
      <trkpt lat="52.17483292333782" lon="5.76439599506557">
        <ele>34.6</ele>
      </trkpt>
      <trkpt lat="52.175257969647646" lon="5.765992999076843">
        <ele>34.8</ele>
      </trkpt>
      <trkpt lat="52.176091969013214" lon="5.7673809584230185">
        <ele>35.2</ele>
      </trkpt>
      <trkpt lat="52.17657493427396" lon="5.768593987450004">
        <ele>34.9</ele>
      </trkpt>
      <trkpt lat="52.176439985632896" lon="5.7690089754760265">
        <ele>34.9</ele>
      </trkpt>
      <trkpt lat="52.176008988171816" lon="5.769340982660651">
        <ele>34.7</ele>
      </trkpt>
      <trkpt lat="52.17739393003285" lon="5.774050941690803">
        <ele>36.4</ele>
      </trkpt>
      <trkpt lat="52.17806196771562" lon="5.775717934593558">
        <ele>35.8</ele>
      </trkpt>
      <trkpt lat="52.178328931331635" lon="5.777196921408176">
        <ele>34.9</ele>
      </trkpt>
      <trkpt lat="52.17947691679001" lon="5.780552951619029">
        <ele>34.1</ele>
      </trkpt>
      <trkpt lat="52.18042097054422" lon="5.781107917428017">
        <ele>34.6</ele>
      </trkpt>
      <trkpt lat="52.18169099651277" lon="5.782700981944799">
        <ele>35.8</ele>
      </trkpt>
      <trkpt lat="52.18184296041727" lon="5.782542983070016">
        <ele>36.0</ele>
      </trkpt>
      <trkpt lat="52.18238594010472" lon="5.783898923546076">
        <ele>36.6</ele>
      </trkpt>
      <trkpt lat="52.18293696641922" lon="5.785741936415434">
        <ele>37.3</ele>
      </trkpt>
      <trkpt lat="52.18318096362054" lon="5.787868928164244">
        <ele>37.8</ele>
      </trkpt>
      <trkpt lat="52.18387699685991" lon="5.789758963510394">
        <ele>38.1</ele>
      </trkpt>
      <trkpt lat="52.18375596217811" lon="5.789971947669983">
        <ele>38.0</ele>
      </trkpt>
      <trkpt lat="52.1836079377681" lon="5.792685924097896">
        <ele>36.7</ele>
      </trkpt>
      <trkpt lat="52.18416994437575" lon="5.7953559793531895">
        <ele>35.7</ele>
      </trkpt>
      <trkpt lat="52.18437597155571" lon="5.795517917722464">
        <ele>35.7</ele>
      </trkpt>
      <trkpt lat="52.18478199094534" lon="5.795380957424641">
        <ele>35.8</ele>
      </trkpt>
      <trkpt lat="52.18596392311156" lon="5.797087932005525">
        <ele>36.0</ele>
      </trkpt>
      <trkpt lat="52.186767999082804" lon="5.7991209626197815">
        <ele>36.1</ele>
      </trkpt>
      <trkpt lat="52.187524968758225" lon="5.80014799721539">
        <ele>36.9</ele>
      </trkpt>
      <trkpt lat="52.187843983992934" lon="5.800816956907511">
        <ele>37.5</ele>
      </trkpt>
      <trkpt lat="52.18774197623134" lon="5.801127925515175">
        <ele>37.9</ele>
      </trkpt>
      <trkpt lat="52.188168950378895" lon="5.801999978721142">
        <ele>39.2</ele>
      </trkpt>
      <trkpt lat="52.188514955341816" lon="5.802207933738828">
        <ele>40.0</ele>
      </trkpt>
      <trkpt lat="52.18902298249304" lon="5.8035029377788305">
        <ele>41.7</ele>
      </trkpt>
      <trkpt lat="52.18943998217583" lon="5.803801920264959">
        <ele>42.4</ele>
      </trkpt>
      <trkpt lat="52.18993795104325" lon="5.803789934143424">
        <ele>43.2</ele>
      </trkpt>
      <trkpt lat="52.190320920199156" lon="5.804305924102664">
        <ele>43.8</ele>
      </trkpt>
      <trkpt lat="52.19071093015373" lon="5.804606918245554">
        <ele>44.1</ele>
      </trkpt>
      <trkpt lat="52.190814949572086" lon="5.804477920755744">
        <ele>44.2</ele>
      </trkpt>
      <trkpt lat="52.191092977300286" lon="5.805224999785423">
        <ele>44.5</ele>
      </trkpt>
      <trkpt lat="52.18695499934256" lon="5.810749931260943">
        <ele>46.1</ele>
      </trkpt>
      <trkpt lat="52.186451917514205" lon="5.809993967413902">
        <ele>45.5</ele>
      </trkpt>
      <trkpt lat="52.1833489369601" lon="5.813852995634079">
        <ele>43.5</ele>
      </trkpt>
      <trkpt lat="52.182326931506395" lon="5.814469987526536">
        <ele>43.4</ele>
      </trkpt>
      <trkpt lat="52.181317918002605" lon="5.8147139847278595">
        <ele>43.5</ele>
      </trkpt>
      <trkpt lat="52.1811109688133" lon="5.814146948978305">
        <ele>43.6</ele>
      </trkpt>
      <trkpt lat="52.180304965004325" lon="5.813526939600706">
        <ele>44.1</ele>
      </trkpt>
      <trkpt lat="52.17869999818504" lon="5.8115229941904545">
        <ele>44.9</ele>
      </trkpt>
      <trkpt lat="52.17788293026388" lon="5.810322957113385">
        <ele>45.1</ele>
      </trkpt>
      <trkpt lat="52.17739393003285" lon="5.809233980253339">
        <ele>45.2</ele>
      </trkpt>
      <trkpt lat="52.17459496110678" lon="5.805116957053542">
        <ele>45.5</ele>
      </trkpt>
      <trkpt lat="52.175601962953806" lon="5.803546942770481">
        <ele>43.5</ele>
      </trkpt>
      <trkpt lat="52.17634594067931" lon="5.802898937836289">
        <ele>42.5</ele>
      </trkpt>
      <trkpt lat="52.175620989874005" lon="5.801169918850064">
        <ele>41.5</ele>
      </trkpt>
      <trkpt lat="52.175147999078035" lon="5.800873953849077">
        <ele>41.0</ele>
      </trkpt>
      <trkpt lat="52.17357295565307" lon="5.797548936679959">
        <ele>36.5</ele>
      </trkpt>
      <trkpt lat="52.17316299676895" lon="5.798696922138333">
        <ele>36.5</ele>
      </trkpt>
      <trkpt lat="52.170337960124016" lon="5.804280946031213">
        <ele>41.2</ele>
      </trkpt>
      <trkpt lat="52.16973999515176" lon="5.805097930133343">
        <ele>42.0</ele>
      </trkpt>
      <trkpt lat="52.16745098121464" lon="5.809528939425945">
        <ele>47.1</ele>
      </trkpt>
      <trkpt lat="52.16687296517193" lon="5.810991916805506">
        <ele>47.2</ele>
      </trkpt>
      <trkpt lat="52.16871698386967" lon="5.825279960408807">
        <ele>43.8</ele>
      </trkpt>
      <trkpt lat="52.16980897821486" lon="5.824071960523725">
        <ele>45.8</ele>
      </trkpt>
      <trkpt lat="52.17017292045057" lon="5.824074978008866">
        <ele>46.5</ele>
      </trkpt>
      <trkpt lat="52.171413945034146" lon="5.826008934527636">
        <ele>48.8</ele>
      </trkpt>
      <trkpt lat="52.17180797830224" lon="5.827144933864474">
        <ele>50.3</ele>
      </trkpt>
      <trkpt lat="52.17131696641445" lon="5.829174946993589">
        <ele>52.8</ele>
      </trkpt>
      <trkpt lat="52.17178492806852" lon="5.831115944311023">
        <ele>54.9</ele>
      </trkpt>
      <trkpt lat="52.17174494639039" lon="5.832626949995756">
        <ele>56.1</ele>
      </trkpt>
      <trkpt lat="52.17191895470023" lon="5.833863951265812">
        <ele>56.9</ele>
      </trkpt>
      <trkpt lat="52.172226989641786" lon="5.8346889819949865">
        <ele>57.3</ele>
      </trkpt>
      <trkpt lat="52.17213395051658" lon="5.835433965548873">
        <ele>57.5</ele>
      </trkpt>
      <trkpt lat="52.17224299907684" lon="5.836127987131476">
        <ele>58.0</ele>
      </trkpt>
      <trkpt lat="52.17245095409453" lon="5.836455971002579">
        <ele>58.0</ele>
      </trkpt>
      <trkpt lat="52.17307993210852" lon="5.836520930752158">
        <ele>57.9</ele>
      </trkpt>
      <trkpt lat="52.17324195429683" lon="5.8367169834673405">
        <ele>58.1</ele>
      </trkpt>
      <trkpt lat="52.17185793444514" lon="5.840548938140273">
        <ele>57.0</ele>
      </trkpt>
      <trkpt lat="52.171496925875545" lon="5.8409039955586195">
        <ele>56.7</ele>
      </trkpt>
      <trkpt lat="52.166748996824026" lon="5.843425942584872">
        <ele>54.3</ele>
      </trkpt>
      <trkpt lat="52.1673549246043" lon="5.846718940883875">
        <ele>55.1</ele>
      </trkpt>
      <trkpt lat="52.16723497956991" lon="5.847204923629761">
        <ele>55.1</ele>
      </trkpt>
      <trkpt lat="52.15552495792508" lon="5.847541959956288">
        <ele>73.0</ele>
      </trkpt>
      <trkpt lat="52.15226096101105" lon="5.846083927899599">
        <ele>75.3</ele>
      </trkpt>
      <trkpt lat="52.15162695385516" lon="5.845978986471891">
        <ele>74.6</ele>
      </trkpt>
      <trkpt lat="52.15079697780311" lon="5.849967934191227">
        <ele>71.2</ele>
      </trkpt>
      <trkpt lat="52.151170978322625" lon="5.8513599168509245">
        <ele>70.3</ele>
      </trkpt>
      <trkpt lat="52.149775978177786" lon="5.854986933991313">
        <ele>70.9</ele>
      </trkpt>
      <trkpt lat="52.148852963000536" lon="5.859400928020477">
        <ele>75.2</ele>
      </trkpt>
      <trkpt lat="52.14831895194948" lon="5.859816921874881">
        <ele>75.6</ele>
      </trkpt>
      <trkpt lat="52.14525394141674" lon="5.861223991960287">
        <ele>76.6</ele>
      </trkpt>
      <trkpt lat="52.14601996354759" lon="5.864475918933749">
        <ele>79.3</ele>
      </trkpt>
      <trkpt lat="52.14217593893409" lon="5.866530993953347">
        <ele>74.1</ele>
      </trkpt>
      <trkpt lat="52.14181099087" lon="5.865406980738044">
        <ele>73.2</ele>
      </trkpt>
      <trkpt lat="52.129000928252935" lon="5.875189919024706">
        <ele>73.1</ele>
      </trkpt>
      <trkpt lat="52.12728993035853" lon="5.878641922026873">
        <ele>67.7</ele>
      </trkpt>
      <trkpt lat="52.12861795909703" lon="5.879473993554711">
        <ele>69.3</ele>
      </trkpt>
      <trkpt lat="52.13147593662143" lon="5.8800299651920795">
        <ele>78.3</ele>
      </trkpt>
      <trkpt lat="52.13218797929585" lon="5.880377981811762">
        <ele>79.7</ele>
      </trkpt>
      <trkpt lat="52.133573926985264" lon="5.881692934781313">
        <ele>80.7</ele>
      </trkpt>
      <trkpt lat="52.13135397993028" lon="5.8838429767638445">
        <ele>82.4</ele>
      </trkpt>
      <trkpt lat="52.13732399046421" lon="5.890225963667035">
        <ele>85.2</ele>
      </trkpt>
      <trkpt lat="52.137270933017135" lon="5.890358984470367">
        <ele>85.3</ele>
      </trkpt>
      <trkpt lat="52.1404779329896" lon="5.8938809763640165">
        <ele>95.0</ele>
      </trkpt>
      <trkpt lat="52.14071597903967" lon="5.8945689629763365">
        <ele>95.7</ele>
      </trkpt>
      <trkpt lat="52.14084799401462" lon="5.897439932450652">
        <ele>94.8</ele>
      </trkpt>
      <trkpt lat="52.13943195529282" lon="5.899412948638201">
        <ele>91.3</ele>
      </trkpt>
      <trkpt lat="52.14151293039322" lon="5.901526948437095">
        <ele>90.5</ele>
      </trkpt>
      <trkpt lat="52.1395349688828" lon="5.903085982427001">
        <ele>91.0</ele>
      </trkpt>
      <trkpt lat="52.138364939019084" lon="5.904347961768508">
        <ele>89.9</ele>
      </trkpt>
      <trkpt lat="52.136194948107004" lon="5.908281924203038">
        <ele>84.5</ele>
      </trkpt>
      <trkpt lat="52.13482995517552" lon="5.911257918924093">
        <ele>82.0</ele>
      </trkpt>
      <trkpt lat="52.13419393636286" lon="5.911176949739456">
        <ele>81.4</ele>
      </trkpt>
      <trkpt lat="52.132435999810696" lon="5.909846993163228">
        <ele>79.3</ele>
      </trkpt>
      <trkpt lat="52.12970299646258" lon="5.908696996048093">
        <ele>73.0</ele>
      </trkpt>
      <trkpt lat="52.129001934081316" lon="5.908252922818065">
        <ele>71.4</ele>
      </trkpt>
      <trkpt lat="52.12852098047733" lon="5.908097941428423">
        <ele>70.5</ele>
      </trkpt>
      <trkpt lat="52.12825695052743" lon="5.908170947805047">
        <ele>70.2</ele>
      </trkpt>
      <trkpt lat="52.12765194475651" lon="5.907771969214082">
        <ele>69.5</ele>
      </trkpt>
      <trkpt lat="52.1270049456507" lon="5.907661998644471">
        <ele>68.6</ele>
      </trkpt>
      <trkpt lat="52.125514978542924" lon="5.908135995268822">
        <ele>65.6</ele>
      </trkpt>
      <trkpt lat="52.12163591757417" lon="5.910103982314467">
        <ele>58.0</ele>
      </trkpt>
      <trkpt lat="52.12206699885428" lon="5.913025997579098">
        <ele>59.4</ele>
      </trkpt>
      <trkpt lat="52.12374195456505" lon="5.930548952892423">
        <ele>77.1</ele>
      </trkpt>
      <trkpt lat="52.12276395410299" lon="5.930906943976879">
        <ele>77.3</ele>
      </trkpt>
      <trkpt lat="52.1231659501791" lon="5.934074968099594">
        <ele>76.7</ele>
      </trkpt>
      <trkpt lat="52.12048592045903" lon="5.935494946315885">
        <ele>74.8</ele>
      </trkpt>
      <trkpt lat="52.12028198875487" lon="5.935803987085819">
        <ele>74.7</ele>
      </trkpt>
      <trkpt lat="52.11846294812858" lon="5.936481999233365">
        <ele>75.7</ele>
      </trkpt>
      <trkpt lat="52.11785199120641" lon="5.935717988759279">
        <ele>76.8</ele>
      </trkpt>
      <trkpt lat="52.117525935173035" lon="5.934637980535626">
        <ele>77.4</ele>
      </trkpt>
      <trkpt lat="52.116729989647865" lon="5.933753941208124">
        <ele>77.3</ele>
      </trkpt>
      <trkpt lat="52.11609992198646" lon="5.933619998395443">
        <ele>76.8</ele>
      </trkpt>
      <trkpt lat="52.115591978654265" lon="5.933854943141341">
        <ele>76.4</ele>
      </trkpt>
      <trkpt lat="52.113852985203266" lon="5.935645988211036">
        <ele>77.0</ele>
      </trkpt>
      <trkpt lat="52.112112985923886" lon="5.9366249945014715">
        <ele>81.8</ele>
      </trkpt>
      <trkpt lat="52.11236494593322" lon="5.937468968331814">
        <ele>82.2</ele>
      </trkpt>
      <trkpt lat="52.11326692253351" lon="5.938904955983162">
        <ele>80.7</ele>
      </trkpt>
      <trkpt lat="52.11289099417627" lon="5.939295971766114">
        <ele>79.3</ele>
      </trkpt>
      <trkpt lat="52.11171098984778" lon="5.939256995916367">
        <ele>75.1</ele>
      </trkpt>
      <trkpt lat="52.11192699149251" lon="5.940528949722648">
        <ele>75.6</ele>
      </trkpt>
      <trkpt lat="52.112092953175306" lon="5.940906973555684">
        <ele>76.6</ele>
      </trkpt>
      <trkpt lat="52.112220944836736" lon="5.940897921100259">
        <ele>76.7</ele>
      </trkpt>
      <trkpt lat="52.112522944808006" lon="5.942824920639396">
        <ele>82.4</ele>
      </trkpt>
      <trkpt lat="52.111768992617726" lon="5.94332599081099">
        <ele>86.8</ele>
      </trkpt>
      <trkpt lat="52.10996797308326" lon="5.946340961381793">
        <ele>87.5</ele>
      </trkpt>
      <trkpt lat="52.108414974063635" lon="5.947170937433839">
        <ele>83.1</ele>
      </trkpt>
      <trkpt lat="52.10711695253849" lon="5.947375958785415">
        <ele>80.1</ele>
      </trkpt>
      <trkpt lat="52.10666793398559" lon="5.947219971567392">
        <ele>79.4</ele>
      </trkpt>
      <trkpt lat="52.106523932889104" lon="5.948534924536943">
        <ele>78.2</ele>
      </trkpt>
      <trkpt lat="52.10692198947072" lon="5.952196978032589">
        <ele>76.6</ele>
      </trkpt>
      <trkpt lat="52.10518098436296" lon="5.951839992776513">
        <ele>74.6</ele>
      </trkpt>
      <trkpt lat="52.101607946678996" lon="5.95168299973011">
        <ele>76.2</ele>
      </trkpt>
      <trkpt lat="52.10133394226432" lon="5.952123971655965">
        <ele>76.7</ele>
      </trkpt>
      <trkpt lat="52.10091099143028" lon="5.951867988333106">
        <ele>77.2</ele>
      </trkpt>
      <trkpt lat="52.096403958275914" lon="5.950669962912798">
        <ele>83.0</ele>
      </trkpt>
      <trkpt lat="52.09622894413769" lon="5.950529985129833">
        <ele>83.2</ele>
      </trkpt>
      <trkpt lat="52.096103969961405" lon="5.949936965480447">
        <ele>83.6</ele>
      </trkpt>
      <trkpt lat="52.09639197215438" lon="5.9464649297297">
        <ele>85.3</ele>
      </trkpt>
      <trkpt lat="52.083749966695905" lon="5.9433739352971315">
        <ele>92.2</ele>
      </trkpt>
      <trkpt lat="52.08247197791934" lon="5.946581941097975">
        <ele>89.8</ele>
      </trkpt>
      <trkpt lat="52.08225999958813" lon="5.948296962305903">
        <ele>88.0</ele>
      </trkpt>
      <trkpt lat="52.081279987469316" lon="5.947706960141659">
        <ele>86.7</ele>
      </trkpt>
      <trkpt lat="52.08127395249903" lon="5.950279952958226">
        <ele>84.8</ele>
      </trkpt>
      <trkpt lat="52.0817279163748" lon="5.952717997133732">
        <ele>83.5</ele>
      </trkpt>
      <trkpt lat="52.08189295604825" lon="5.953198950737715">
        <ele>83.8</ele>
      </trkpt>
      <trkpt lat="52.08304798230529" lon="5.954516921192408">
        <ele>85.7</ele>
      </trkpt>
      <trkpt lat="52.08205698989332" lon="5.960613917559385">
        <ele>80.4</ele>
      </trkpt>
      <trkpt lat="52.081664968281984" lon="5.962128946557641">
        <ele>77.6</ele>
      </trkpt>
      <trkpt lat="52.07983293570578" lon="5.973829999566078">
        <ele>58.2</ele>
      </trkpt>
      <trkpt lat="52.07963294349611" lon="5.97392194904387">
        <ele>58.1</ele>
      </trkpt>
      <trkpt lat="52.07887697964907" lon="5.973604945465922">
        <ele>57.8</ele>
      </trkpt>
      <trkpt lat="52.077886993065476" lon="5.973744923248887">
        <ele>58.6</ele>
      </trkpt>
      <trkpt lat="52.07789897918701" lon="5.97534092143178">
        <ele>60.5</ele>
      </trkpt>
      <trkpt lat="52.077586920931935" lon="5.976838935166597">
        <ele>61.8</ele>
      </trkpt>
      <trkpt lat="52.078276919201016" lon="5.978441974148154">
        <ele>62.2</ele>
      </trkpt>
      <trkpt lat="52.078467942774296" lon="5.979775954037905">
        <ele>60.5</ele>
      </trkpt>
      <trkpt lat="52.0783899910748" lon="5.981292994692922">
        <ele>58.7</ele>
      </trkpt>
      <trkpt lat="52.07875393331051" lon="5.982121964916587">
        <ele>58.2</ele>
      </trkpt>
      <trkpt lat="52.07887899130583" lon="5.983120920136571">
        <ele>58.1</ele>
      </trkpt>
      <trkpt lat="52.07915894687176" lon="5.9835669212043285">
        <ele>58.3</ele>
      </trkpt>
      <trkpt lat="52.07920697517693" lon="5.986009994521737">
        <ele>59.5</ele>
      </trkpt>
      <trkpt lat="52.07918895408511" lon="5.983339939266443">
        <ele>57.8</ele>
      </trkpt>
      <trkpt lat="52.08134092390537" lon="5.982661927118897">
        <ele>54.3</ele>
      </trkpt>
      <trkpt lat="52.0850729662925" lon="5.984064973890781">
        <ele>50.8</ele>
      </trkpt>
      <trkpt lat="52.08516592159867" lon="5.98909193649888">
        <ele>57.9</ele>
      </trkpt>
      <trkpt lat="52.085724994540215" lon="5.992022920399904">
        <ele>69.0</ele>
      </trkpt>
      <trkpt lat="52.08518394269049" lon="5.997387925162911">
        <ele>75.5</ele>
      </trkpt>
      <trkpt lat="52.08521998487413" lon="5.998306917026639">
        <ele>75.8</ele>
      </trkpt>
      <trkpt lat="52.08561192266643" lon="5.999630922451615">
        <ele>75.5</ele>
      </trkpt>
      <trkpt lat="52.08659294061363" lon="6.000762982293963">
        <ele>73.4</ele>
      </trkpt>
      <trkpt lat="52.08833696320653" lon="6.007082937285304">
        <ele>56.9</ele>
      </trkpt>
      <trkpt lat="52.08765492774546" lon="6.015783939510584">
        <ele>47.1</ele>
      </trkpt>
      <trkpt lat="52.087769927456975" lon="6.016725981608033">
        <ele>46.1</ele>
      </trkpt>
      <trkpt lat="52.088156919926405" lon="6.017613960430026">
        <ele>45.0</ele>
      </trkpt>
      <trkpt lat="52.09094096906483" lon="6.020402954891324">
        <ele>42.0</ele>
      </trkpt>
      <trkpt lat="52.093741949647665" lon="6.020856918767095">
        <ele>41.7</ele>
      </trkpt>
      <trkpt lat="52.09597798995674" lon="6.02187599055469">
        <ele>47.1</ele>
      </trkpt>
      <trkpt lat="52.09948497824371" lon="6.025075949728489">
        <ele>46.2</ele>
      </trkpt>
      <trkpt lat="52.09935296326876" lon="6.025318941101432">
        <ele>46.2</ele>
      </trkpt>
      <trkpt lat="52.09940895438194" lon="6.0267089959234">
        <ele>45.5</ele>
      </trkpt>
      <trkpt lat="52.09971095435321" lon="6.027830997481942">
        <ele>44.3</ele>
      </trkpt>
      <trkpt lat="52.09994598291814" lon="6.028155963867903">
        <ele>43.7</ele>
      </trkpt>
      <trkpt lat="52.10056398063898" lon="6.0283819399774075">
        <ele>42.1</ele>
      </trkpt>
      <trkpt lat="52.10139999166131" lon="6.029677949845791">
        <ele>39.0</ele>
      </trkpt>
      <trkpt lat="52.10299397818744" lon="6.031595980748534">
        <ele>32.3</ele>
      </trkpt>
      <trkpt lat="52.10372295230627" lon="6.033596992492676">
        <ele>27.3</ele>
      </trkpt>
      <trkpt lat="52.103968961164355" lon="6.033827997744083">
        <ele>26.4</ele>
      </trkpt>
      <trkpt lat="52.10627691820264" lon="6.0342019982635975">
        <ele>21.9</ele>
      </trkpt>
      <trkpt lat="52.107165986672044" lon="6.033507976680994">
        <ele>20.9</ele>
      </trkpt>
      <trkpt lat="52.10726698860526" lon="6.034047938883305">
        <ele>20.6</ele>
      </trkpt>
      <trkpt lat="52.1075189486146" lon="6.0344169940799475">
        <ele>20.4</ele>
      </trkpt>
      <trkpt lat="52.108452944085" lon="6.034859977662563">
        <ele>19.7</ele>
      </trkpt>
      <trkpt lat="52.10777694359422" lon="6.0353349801152945">
        <ele>19.3</ele>
      </trkpt>
      <trkpt lat="52.108093947172165" lon="6.036327984184027">
        <ele>19.3</ele>
      </trkpt>
      <trkpt lat="52.10777593776584" lon="6.037052934989333">
        <ele>19.4</ele>
      </trkpt>
      <trkpt lat="52.10703891701996" lon="6.039957934990525">
        <ele>19.9</ele>
      </trkpt>
      <trkpt lat="52.10572597570717" lon="6.050048992037773">
        <ele>22.8</ele>
      </trkpt>
      <trkpt lat="52.1057659573853" lon="6.053376942873001">
        <ele>20.1</ele>
      </trkpt>
      <trkpt lat="52.106077931821346" lon="6.057919934391975">
        <ele>19.5</ele>
      </trkpt>
      <trkpt lat="52.10556294769049" lon="6.063888939097524">
        <ele>19.3</ele>
      </trkpt>
      <trkpt lat="52.105425987392664" lon="6.064487993717194">
        <ele>19.4</ele>
      </trkpt>
      <trkpt lat="52.10445293225348" lon="6.064291941002011">
        <ele>19.7</ele>
      </trkpt>
      <trkpt lat="52.10280999541283" lon="6.06639395467937">
        <ele>20.0</ele>
      </trkpt>
    </trkseg>
  </trk>
</gpx>
