<?xml version="1.0" encoding="UTF-8"?>
<gpx creator="Garmin Connect" version="1.1"
  xsi:schemaLocation="http://www.topografix.com/GPX/1/1 http://www.topografix.com/GPX/11.xsd"
  xmlns:ns3="http://www.garmin.com/xmlschemas/TrackPointExtension/v1"
  xmlns="http://www.topografix.com/GPX/1/1"
  xmlns:xsi="http://www.w3.org/2001/XMLSchema-instance" xmlns:ns2="http://www.garmin.com/xmlschemas/GpxExtensions/v3">
  <metadata>
    <name>Gravelpad Veluwezoom – Gravelsnelweg Veluwezoom Circuit à partir de Arnhem Velperpoort</name>
    <link href="connect.garmin.com">
      <text>Garmin Connect</text>
    </link>
    <time>2025-05-13T07:10:47.000Z</time>
  </metadata>
  <trk>
    <name>Gravelpad Veluwezoom – Gravelsnelweg Veluwezoom Circuit à partir de Arnhem Velperpoort</name>
    <trkseg>
      <trkpt lat="51.98514592833817" lon="5.919914999976754">
        <ele>17.9</ele>
      </trkpt>
      <trkpt lat="51.98503294028342" lon="5.920450938865542">
        <ele>17.8</ele>
      </trkpt>
      <trkpt lat="51.985178953036666" lon="5.9200359508395195">
        <ele>17.7</ele>
      </trkpt>
      <trkpt lat="51.98535195551813" lon="5.920085990801454">
        <ele>17.6</ele>
      </trkpt>
      <trkpt lat="51.98511893860996" lon="5.920732989907265">
        <ele>17.6</ele>
      </trkpt>
      <trkpt lat="51.98529093526304" lon="5.921510998159647">
        <ele>17.4</ele>
      </trkpt>
      <trkpt lat="51.98511994443834" lon="5.921665979549289">
        <ele>17.4</ele>
      </trkpt>
      <trkpt lat="51.98778094723821" lon="5.928278965875506">
        <ele>21.8</ele>
      </trkpt>
      <trkpt lat="51.988509921357036" lon="5.9327189438045025">
        <ele>20.2</ele>
      </trkpt>
      <trkpt lat="51.98894795961678" lon="5.932458937168121">
        <ele>20.4</ele>
      </trkpt>
      <trkpt lat="51.991042932495475" lon="5.93271492049098">
        <ele>26.3</ele>
      </trkpt>
      <trkpt lat="51.9919169973582" lon="5.931376917287707">
        <ele>28.1</ele>
      </trkpt>
      <trkpt lat="51.99251697398722" lon="5.932169929146767">
        <ele>28.5</ele>
      </trkpt>
      <trkpt lat="51.99392597191036" lon="5.932848947122693">
        <ele>30.6</ele>
      </trkpt>
      <trkpt lat="51.9948719535023" lon="5.9337579645216465">
        <ele>33.9</ele>
      </trkpt>
      <trkpt lat="51.99661999940872" lon="5.935969948768616">
        <ele>37.8</ele>
      </trkpt>
      <trkpt lat="51.99801592156291" lon="5.93883597292006">
        <ele>37.7</ele>
      </trkpt>
      <trkpt lat="51.99925996363163" lon="5.942149925976992">
        <ele>34.1</ele>
      </trkpt>
      <trkpt lat="51.9998399913311" lon="5.943209985271096">
        <ele>33.2</ele>
      </trkpt>
      <trkpt lat="52.00555494055152" lon="5.952253974974155">
        <ele>49.7</ele>
      </trkpt>
      <trkpt lat="52.00516794808209" lon="5.952953947708011">
        <ele>51.2</ele>
      </trkpt>
      <trkpt lat="52.00544396415353" lon="5.9532069973647594">
        <ele>52.1</ele>
      </trkpt>
      <trkpt lat="52.006042934954166" lon="5.954460930079222">
        <ele>54.7</ele>
      </trkpt>
      <trkpt lat="52.0062689948827" lon="5.955317979678512">
        <ele>55.6</ele>
      </trkpt>
      <trkpt lat="52.00620696879923" lon="5.9564099740237">
        <ele>56.3</ele>
      </trkpt>
      <trkpt lat="52.006834940984845" lon="5.959078939631581">
        <ele>55.3</ele>
      </trkpt>
      <trkpt lat="52.00663494877517" lon="5.959337940439582">
        <ele>54.8</ele>
      </trkpt>
      <trkpt lat="52.006664955988526" lon="5.959585960954428">
        <ele>54.6</ele>
      </trkpt>
      <trkpt lat="52.006898978725076" lon="5.959708923473954">
        <ele>54.1</ele>
      </trkpt>
      <trkpt lat="52.00838693417609" lon="5.965811954811215">
        <ele>44.2</ele>
      </trkpt>
      <trkpt lat="52.00951396487653" lon="5.9658069256693125">
        <ele>47.6</ele>
      </trkpt>
      <trkpt lat="52.0097089279443" lon="5.965963918715715">
        <ele>48.8</ele>
      </trkpt>
      <trkpt lat="52.01040697284043" lon="5.965542979538441">
        <ele>52.8</ele>
      </trkpt>
      <trkpt lat="52.01073395088315" lon="5.965604921802878">
        <ele>54.5</ele>
      </trkpt>
      <trkpt lat="52.01121197082102" lon="5.965360924601555">
        <ele>57.0</ele>
      </trkpt>
      <trkpt lat="52.01187095604837" lon="5.96541297622025">
        <ele>61.3</ele>
      </trkpt>
      <trkpt lat="52.0145979244262" lon="5.970015982165933">
        <ele>81.5</ele>
      </trkpt>
      <trkpt lat="52.01483194716275" lon="5.970048923045397">
        <ele>82.1</ele>
      </trkpt>
      <trkpt lat="52.0147239882499" lon="5.970263918861747">
        <ele>82.4</ele>
      </trkpt>
      <trkpt lat="52.01808295212686" lon="5.97611197270453">
        <ele>98.6</ele>
      </trkpt>
      <trkpt lat="52.01995697803795" lon="5.974818980321288">
        <ele>97.1</ele>
      </trkpt>
      <trkpt lat="52.021230943500996" lon="5.975139923393726">
        <ele>95.3</ele>
      </trkpt>
      <trkpt lat="52.02227692119777" lon="5.978470975533128">
        <ele>91.2</ele>
      </trkpt>
      <trkpt lat="52.02251295559108" lon="5.97877599298954">
        <ele>90.8</ele>
      </trkpt>
      <trkpt lat="52.02247699722648" lon="5.979365995153785">
        <ele>90.2</ele>
      </trkpt>
      <trkpt lat="52.02216795645654" lon="5.979303969070315">
        <ele>89.9</ele>
      </trkpt>
      <trkpt lat="52.021957989782095" lon="5.980166969820857">
        <ele>89.2</ele>
      </trkpt>
      <trkpt lat="52.021439988166094" lon="5.980907930061221">
        <ele>88.9</ele>
      </trkpt>
      <trkpt lat="52.021380979567766" lon="5.981359966099262">
        <ele>88.9</ele>
      </trkpt>
      <trkpt lat="52.02111795544624" lon="5.981538919731975">
        <ele>88.9</ele>
      </trkpt>
      <trkpt lat="52.02026694081724" lon="5.981497932225466">
        <ele>89.1</ele>
      </trkpt>
      <trkpt lat="52.01905491761863" lon="5.981863969936967">
        <ele>89.0</ele>
      </trkpt>
      <trkpt lat="52.01987994834781" lon="5.984942978248">
        <ele>86.4</ele>
      </trkpt>
      <trkpt lat="52.02053599990904" lon="5.986010916531086">
        <ele>83.9</ele>
      </trkpt>
      <trkpt lat="52.020602971315384" lon="5.985886948183179">
        <ele>83.7</ele>
      </trkpt>
      <trkpt lat="52.021205965429544" lon="5.986790936440229">
        <ele>80.7</ele>
      </trkpt>
      <trkpt lat="52.021489944308996" lon="5.986967962235212">
        <ele>79.6</ele>
      </trkpt>
      <trkpt lat="52.02190392650664" lon="5.987871950492263">
        <ele>77.0</ele>
      </trkpt>
      <trkpt lat="52.022539945319295" lon="5.9876069985330105">
        <ele>75.3</ele>
      </trkpt>
      <trkpt lat="52.024085987359285" lon="5.987888965755701">
        <ele>77.2</ele>
      </trkpt>
      <trkpt lat="52.02473499812186" lon="5.98926099948585">
        <ele>81.7</ele>
      </trkpt>
      <trkpt lat="52.02489593066275" lon="5.990192983299494">
        <ele>85.1</ele>
      </trkpt>
      <trkpt lat="52.026233933866024" lon="5.992890950292349">
        <ele>93.2</ele>
      </trkpt>
      <trkpt lat="52.02647499740124" lon="5.994405979290605">
        <ele>96.0</ele>
      </trkpt>
      <trkpt lat="52.02687095850706" lon="5.995581960305572">
        <ele>98.5</ele>
      </trkpt>
      <trkpt lat="52.0266479998827" lon="5.99643599241972">
        <ele>100.2</ele>
      </trkpt>
      <trkpt lat="52.02647399157286" lon="5.996635984629393">
        <ele>100.6</ele>
      </trkpt>
      <trkpt lat="52.02614592388272" lon="5.995939951390028">
        <ele>101.8</ele>
      </trkpt>
      <trkpt lat="52.02508997172117" lon="5.995257999747992">
        <ele>100.6</ele>
      </trkpt>
      <trkpt lat="52.0250279456377" lon="5.994780985638499">
        <ele>99.8</ele>
      </trkpt>
      <trkpt lat="52.02428296208382" lon="5.993957966566086">
        <ele>95.1</ele>
      </trkpt>
      <trkpt lat="52.024254966527224" lon="5.993323959410191">
        <ele>92.3</ele>
      </trkpt>
      <trkpt lat="52.02390795573592" lon="5.992674948647618">
        <ele>88.6</ele>
      </trkpt>
      <trkpt lat="52.02319691888988" lon="5.9904339630156755">
        <ele>78.4</ele>
      </trkpt>
      <trkpt lat="52.02257992699742" lon="5.989548917859793">
        <ele>74.6</ele>
      </trkpt>
      <trkpt lat="52.02237599529326" lon="5.989596946164966">
        <ele>73.7</ele>
      </trkpt>
      <trkpt lat="52.0222719758749" lon="5.990030961111188">
        <ele>72.6</ele>
      </trkpt>
      <trkpt lat="52.022369960322976" lon="5.99037797190249">
        <ele>71.5</ele>
      </trkpt>
      <trkpt lat="52.02201792038977" lon="5.99126192741096">
        <ele>69.4</ele>
      </trkpt>
      <trkpt lat="52.02142498455942" lon="5.992113947868347">
        <ele>67.2</ele>
      </trkpt>
      <trkpt lat="52.021290957927704" lon="5.991517994552851">
        <ele>66.9</ele>
      </trkpt>
      <trkpt lat="52.02115592546761" lon="5.991540960967541">
        <ele>66.9</ele>
      </trkpt>
      <trkpt lat="52.02186897397041" lon="5.99040194414556">
        <ele>68.4</ele>
      </trkpt>
      <trkpt lat="52.02190392650664" lon="5.987871950492263">
        <ele>72.5</ele>
      </trkpt>
      <trkpt lat="52.022539945319295" lon="5.9876069985330105">
        <ele>73.5</ele>
      </trkpt>
      <trkpt lat="52.024085987359285" lon="5.987888965755701">
        <ele>77.2</ele>
      </trkpt>
      <trkpt lat="52.02473499812186" lon="5.98926099948585">
        <ele>81.7</ele>
      </trkpt>
      <trkpt lat="52.02489593066275" lon="5.990192983299494">
        <ele>85.1</ele>
      </trkpt>
      <trkpt lat="52.026233933866024" lon="5.992890950292349">
        <ele>93.2</ele>
      </trkpt>
      <trkpt lat="52.02647499740124" lon="5.994405979290605">
        <ele>95.8</ele>
      </trkpt>
      <trkpt lat="52.02687095850706" lon="5.995581960305572">
        <ele>98.5</ele>
      </trkpt>
      <trkpt lat="52.02665898017585" lon="5.996335996314883">
        <ele>100.2</ele>
      </trkpt>
      <trkpt lat="52.02732693403959" lon="5.997242918238044">
        <ele>101.9</ele>
      </trkpt>
      <trkpt lat="52.027629939839244" lon="5.9981489181518555">
        <ele>102.2</ele>
      </trkpt>
      <trkpt lat="52.02746892347932" lon="5.997186927124858">
        <ele>99.3</ele>
      </trkpt>
      <trkpt lat="52.02761996537447" lon="5.996368937194347">
        <ele>96.6</ele>
      </trkpt>
      <trkpt lat="52.02790696173906" lon="5.9955039247870445">
        <ele>92.8</ele>
      </trkpt>
      <trkpt lat="52.028577933087945" lon="5.99508591927588">
        <ele>89.3</ele>
      </trkpt>
      <trkpt lat="52.02972197905183" lon="5.9958809427917">
        <ele>85.8</ele>
      </trkpt>
      <trkpt lat="52.03028499148786" lon="5.998116983100772">
        <ele>85.2</ele>
      </trkpt>
      <trkpt lat="52.0316559355706" lon="5.996437920257449">
        <ele>87.3</ele>
      </trkpt>
      <trkpt lat="52.03340398147702" lon="5.9951169323176146">
        <ele>94.0</ele>
      </trkpt>
      <trkpt lat="52.03604897484183" lon="5.991396959871054">
        <ele>103.3</ele>
      </trkpt>
      <trkpt lat="52.03700895421207" lon="5.9907849971205">
        <ele>104.2</ele>
      </trkpt>
      <trkpt lat="52.037278935313225" lon="5.991251952946186">
        <ele>104.2</ele>
      </trkpt>
      <trkpt lat="52.03691893257201" lon="5.9912149887532">
        <ele>104.0</ele>
      </trkpt>
      <trkpt lat="52.036373941227794" lon="5.991526963189244">
        <ele>103.5</ele>
      </trkpt>
      <trkpt lat="52.03623999841511" lon="5.991929965093732">
        <ele>103.2</ele>
      </trkpt>
      <trkpt lat="52.0355189871043" lon="5.992642929777503">
        <ele>101.7</ele>
      </trkpt>
      <trkpt lat="52.03547892160714" lon="5.9930509608238935">
        <ele>101.2</ele>
      </trkpt>
      <trkpt lat="52.03512394800782" lon="5.993276936933398">
        <ele>100.4</ele>
      </trkpt>
      <trkpt lat="52.03496695496142" lon="5.993940951302648">
        <ele>99.5</ele>
      </trkpt>
      <trkpt lat="52.034594966098666" lon="5.994318975135684">
        <ele>98.5</ele>
      </trkpt>
      <trkpt lat="52.03426396474242" lon="5.994215961545706">
        <ele>97.6</ele>
      </trkpt>
      <trkpt lat="52.03420897945762" lon="5.994767993688583">
        <ele>96.7</ele>
      </trkpt>
      <trkpt lat="52.0340009406209" lon="5.995036968961358">
        <ele>96.0</ele>
      </trkpt>
      <trkpt lat="52.03406296670437" lon="5.995279960334301">
        <ele>95.6</ele>
      </trkpt>
      <trkpt lat="52.03386599197984" lon="5.995217934250832">
        <ele>95.0</ele>
      </trkpt>
      <trkpt lat="52.033535996451974" lon="5.9954029228538275">
        <ele>94.1</ele>
      </trkpt>
      <trkpt lat="52.033325945958495" lon="5.995765943080187">
        <ele>93.4</ele>
      </trkpt>
      <trkpt lat="52.03300894238055" lon="5.995765943080187">
        <ele>92.4</ele>
      </trkpt>
      <trkpt lat="52.032532934099436" lon="5.996209932491183">
        <ele>90.5</ele>
      </trkpt>
      <trkpt lat="52.032420951873064" lon="5.996148996055126">
        <ele>90.1</ele>
      </trkpt>
      <trkpt lat="52.03229698352516" lon="5.996466921642423">
        <ele>89.6</ele>
      </trkpt>
      <trkpt lat="52.03160095028579" lon="5.996977966278791">
        <ele>88.6</ele>
      </trkpt>
      <trkpt lat="52.03138193115592" lon="5.996807981282473">
        <ele>88.5</ele>
      </trkpt>
      <trkpt lat="52.03200696967542" lon="5.9961259458214045">
        <ele>89.4</ele>
      </trkpt>
      <trkpt lat="52.03340398147702" lon="5.9951169323176146">
        <ele>94.0</ele>
      </trkpt>
      <trkpt lat="52.03604897484183" lon="5.991396959871054">
        <ele>103.3</ele>
      </trkpt>
      <trkpt lat="52.03700895421207" lon="5.9907849971205">
        <ele>104.3</ele>
      </trkpt>
      <trkpt lat="52.03831393271685" lon="5.992830935865641">
        <ele>105.3</ele>
      </trkpt>
      <trkpt lat="52.03925999812782" lon="5.996102979406714">
        <ele>107.8</ele>
      </trkpt>
      <trkpt lat="52.040462968871" lon="5.997512983158231">
        <ele>107.1</ele>
      </trkpt>
      <trkpt lat="52.042716946452856" lon="6.001152992248535">
        <ele>96.5</ele>
      </trkpt>
      <trkpt lat="52.04353694804013" lon="6.003987919539213">
        <ele>89.5</ele>
      </trkpt>
      <trkpt lat="52.04351892694831" lon="6.004905989393592">
        <ele>88.4</ele>
      </trkpt>
      <trkpt lat="52.04267897643149" lon="6.005831938236952">
        <ele>87.4</ele>
      </trkpt>
      <trkpt lat="52.04238192178309" lon="6.006076941266656">
        <ele>87.7</ele>
      </trkpt>
      <trkpt lat="52.04089991748333" lon="6.006612963974476">
        <ele>90.2</ele>
      </trkpt>
      <trkpt lat="52.03856999985874" lon="6.008644988760352">
        <ele>96.7</ele>
      </trkpt>
      <trkpt lat="52.03726996667683" lon="6.010030936449766">
        <ele>98.4</ele>
      </trkpt>
      <trkpt lat="52.036029947921634" lon="6.013393923640251">
        <ele>97.8</ele>
      </trkpt>
      <trkpt lat="52.03613195568323" lon="6.01542997173965">
        <ele>99.4</ele>
      </trkpt>
      <trkpt lat="52.035883935168386" lon="6.016557924449444">
        <ele>100.5</ele>
      </trkpt>
      <trkpt lat="52.0353789255023" lon="6.017247922718525">
        <ele>100.6</ele>
      </trkpt>
      <trkpt lat="52.03428894281387" lon="6.018082927912474">
        <ele>99.0</ele>
      </trkpt>
      <trkpt lat="52.03389499336481" lon="6.018602941185236">
        <ele>97.6</ele>
      </trkpt>
      <trkpt lat="52.03369298949838" lon="6.018425999209285">
        <ele>96.9</ele>
      </trkpt>
      <trkpt lat="52.03317096456885" lon="6.0186239797621965">
        <ele>95.4</ele>
      </trkpt>
      <trkpt lat="52.03158192336559" lon="6.019636932760477">
        <ele>91.4</ele>
      </trkpt>
      <trkpt lat="52.030490934848785" lon="6.020027948543429">
        <ele>89.4</ele>
      </trkpt>
      <trkpt lat="52.03021994791925" lon="6.022061984986067">
        <ele>88.7</ele>
      </trkpt>
      <trkpt lat="52.02964494936168" lon="6.022129962220788">
        <ele>89.1</ele>
      </trkpt>
      <trkpt lat="52.0295749604702" lon="6.022418970242143">
        <ele>89.1</ele>
      </trkpt>
      <trkpt lat="52.02978199347854" lon="6.02316495962441">
        <ele>89.5</ele>
      </trkpt>
      <trkpt lat="52.02957294881344" lon="6.023424966260791">
        <ele>89.6</ele>
      </trkpt>
      <trkpt lat="52.02957797795534" lon="6.023954953998327">
        <ele>89.7</ele>
      </trkpt>
      <trkpt lat="52.0290569588542" lon="6.025789920240641">
        <ele>88.3</ele>
      </trkpt>
      <trkpt lat="52.02842999249697" lon="6.027159942314029">
        <ele>86.9</ele>
      </trkpt>
      <trkpt lat="52.02801098115742" lon="6.029700916260481">
        <ele>86.3</ele>
      </trkpt>
      <trkpt lat="52.0279879309237" lon="6.030699955299497">
        <ele>87.6</ele>
      </trkpt>
      <trkpt lat="52.02829093672335" lon="6.032424950972199">
        <ele>89.9</ele>
      </trkpt>
      <trkpt lat="52.029135916382074" lon="6.033299937844276">
        <ele>89.5</ele>
      </trkpt>
      <trkpt lat="52.02899099327624" lon="6.034844974055886">
        <ele>86.8</ele>
      </trkpt>
      <trkpt lat="52.03010897152126" lon="6.039109937846661">
        <ele>80.1</ele>
      </trkpt>
      <trkpt lat="52.0299409981817" lon="6.03936399333179">
        <ele>80.4</ele>
      </trkpt>
      <trkpt lat="52.02966498211026" lon="6.0394159611314535">
        <ele>80.9</ele>
      </trkpt>
      <trkpt lat="52.02856594696641" lon="6.0390999633818865">
        <ele>82.1</ele>
      </trkpt>
      <trkpt lat="52.027310924604535" lon="6.03977395221591">
        <ele>82.4</ele>
      </trkpt>
      <trkpt lat="52.02736096456647" lon="6.040070923045278">
        <ele>82.6</ele>
      </trkpt>
      <trkpt lat="52.02718896791339" lon="6.040329923853278">
        <ele>82.6</ele>
      </trkpt>
      <trkpt lat="52.02736892737448" lon="6.042079981416464">
        <ele>81.4</ele>
      </trkpt>
      <trkpt lat="52.02710296958685" lon="6.0425489488989115">
        <ele>80.8</ele>
      </trkpt>
      <trkpt lat="52.02674095518887" lon="6.043010959401727">
        <ele>79.9</ele>
      </trkpt>
      <trkpt lat="52.0262679643929" lon="6.0432089399546385">
        <ele>78.7</ele>
      </trkpt>
      <trkpt lat="52.02519499696791" lon="6.043003918603063">
        <ele>73.8</ele>
      </trkpt>
      <trkpt lat="52.024989975616336" lon="6.043089916929603">
        <ele>72.8</ele>
      </trkpt>
      <trkpt lat="52.02464698813856" lon="6.044049980118871">
        <ele>69.7</ele>
      </trkpt>
      <trkpt lat="52.02432596124709" lon="6.0441269259899855">
        <ele>68.3</ele>
      </trkpt>
      <trkpt lat="52.02397492714226" lon="6.043798942118883">
        <ele>66.8</ele>
      </trkpt>
      <trkpt lat="52.023616936057806" lon="6.042734943330288">
        <ele>63.8</ele>
      </trkpt>
      <trkpt lat="52.023353995755315" lon="6.042612986639142">
        <ele>63.0</ele>
      </trkpt>
      <trkpt lat="52.0228869561106" lon="6.043748985975981">
        <ele>60.1</ele>
      </trkpt>
      <trkpt lat="52.022258983924985" lon="6.043308936059475">
        <ele>58.0</ele>
      </trkpt>
      <trkpt lat="52.021677950397134" lon="6.043221931904554">
        <ele>56.0</ele>
      </trkpt>
      <trkpt lat="52.02070497907698" lon="6.044381987303495">
        <ele>51.4</ele>
      </trkpt>
      <trkpt lat="52.01960192061961" lon="6.044890936464071">
        <ele>46.4</ele>
      </trkpt>
      <trkpt lat="52.01936496421695" lon="6.0448139905929565">
        <ele>45.4</ele>
      </trkpt>
      <trkpt lat="52.019226998090744" lon="6.044297916814685">
        <ele>44.1</ele>
      </trkpt>
      <trkpt lat="52.0189409237355" lon="6.044043945148587">
        <ele>43.4</ele>
      </trkpt>
      <trkpt lat="52.01835695654154" lon="6.045428970828652">
        <ele>43.0</ele>
      </trkpt>
      <trkpt lat="52.01856097206473" lon="6.046221982687712">
        <ele>44.8</ele>
      </trkpt>
      <trkpt lat="52.0191859267652" lon="6.046653985977173">
        <ele>48.0</ele>
      </trkpt>
      <trkpt lat="52.02001992613077" lon="6.046834951266646">
        <ele>52.8</ele>
      </trkpt>
      <trkpt lat="52.02046592719853" lon="6.047949995845556">
        <ele>56.4</ele>
      </trkpt>
      <trkpt lat="52.02074294909835" lon="6.048108916729689">
        <ele>57.6</ele>
      </trkpt>
      <trkpt lat="52.02098895795643" lon="6.047948990017176">
        <ele>58.5</ele>
      </trkpt>
      <trkpt lat="52.021396989002824" lon="6.046901922672987">
        <ele>60.5</ele>
      </trkpt>
      <trkpt lat="52.02256299555302" lon="6.04729394428432">
        <ele>61.0</ele>
      </trkpt>
      <trkpt lat="52.022428968921304" lon="6.049024974927306">
        <ele>59.5</ele>
      </trkpt>
      <trkpt lat="52.02284697443247" lon="6.051313988864422">
        <ele>54.1</ele>
      </trkpt>
      <trkpt lat="52.02282593585551" lon="6.052573956549168">
        <ele>51.3</ele>
      </trkpt>
      <trkpt lat="52.023399928584695" lon="6.053940961137414">
        <ele>49.0</ele>
      </trkpt>
      <trkpt lat="52.02596898190677" lon="6.051898961886764">
        <ele>54.5</ele>
      </trkpt>
      <trkpt lat="52.02751494012773" lon="6.050981981679797">
        <ele>62.5</ele>
      </trkpt>
      <trkpt lat="52.02811298891902" lon="6.05028091929853">
        <ele>65.7</ele>
      </trkpt>
      <trkpt lat="52.02855898998678" lon="6.050425926223397">
        <ele>67.1</ele>
      </trkpt>
      <trkpt lat="52.02873098663986" lon="6.050273962318897">
        <ele>67.8</ele>
      </trkpt>
      <trkpt lat="52.02991099096835" lon="6.047760983929038">
        <ele>67.8</ele>
      </trkpt>
      <trkpt lat="52.03006798401475" lon="6.046961937099695">
        <ele>67.1</ele>
      </trkpt>
      <trkpt lat="52.031046990305185" lon="6.048167925328016">
        <ele>66.9</ele>
      </trkpt>
      <trkpt lat="52.03147195279598" lon="6.048378981649876">
        <ele>67.4</ele>
      </trkpt>
      <trkpt lat="52.032656986266375" lon="6.0483139380812645">
        <ele>70.9</ele>
      </trkpt>
      <trkpt lat="52.033798936754465" lon="6.04759493842721">
        <ele>75.8</ele>
      </trkpt>
      <trkpt lat="52.03429992310703" lon="6.04701591655612">
        <ele>77.7</ele>
      </trkpt>
      <trkpt lat="52.03599994070828" lon="6.043895920738578">
        <ele>82.9</ele>
      </trkpt>
      <trkpt lat="52.03693091869354" lon="6.043939925730228">
        <ele>83.8</ele>
      </trkpt>
      <trkpt lat="52.037575989961624" lon="6.044164979830384">
        <ele>83.3</ele>
      </trkpt>
      <trkpt lat="52.038588942959905" lon="6.045791991055012">
        <ele>80.9</ele>
      </trkpt>
      <trkpt lat="52.03907693736255" lon="6.046093991026282">
        <ele>79.1</ele>
      </trkpt>
      <trkpt lat="52.03952997922897" lon="6.046129949390888">
        <ele>77.4</ele>
      </trkpt>
      <trkpt lat="52.040433967486024" lon="6.045556962490082">
        <ele>73.4</ele>
      </trkpt>
      <trkpt lat="52.04121893271804" lon="6.045633992180228">
        <ele>70.2</ele>
      </trkpt>
      <trkpt lat="52.04204295761883" lon="6.04630496352911">
        <ele>67.3</ele>
      </trkpt>
      <trkpt lat="52.042560959234834" lon="6.045773969963193">
        <ele>66.9</ele>
      </trkpt>
      <trkpt lat="52.043205946683884" lon="6.043815957382321">
        <ele>70.0</ele>
      </trkpt>
      <trkpt lat="52.043189937248826" lon="6.04110499843955">
        <ele>74.0</ele>
      </trkpt>
      <trkpt lat="52.0448559243232" lon="6.038529993966222">
        <ele>75.7</ele>
      </trkpt>
      <trkpt lat="52.04537199810147" lon="6.037031980231404">
        <ele>75.7</ele>
      </trkpt>
      <trkpt lat="52.04562596976757" lon="6.0324549581855536">
        <ele>86.6</ele>
      </trkpt>
      <trkpt lat="52.04416198655963" lon="6.029726983979344">
        <ele>95.6</ele>
      </trkpt>
      <trkpt lat="52.043873984366655" lon="6.029439987614751">
        <ele>96.0</ele>
      </trkpt>
      <trkpt lat="52.04490194097161" lon="6.0269049648195505">
        <ele>96.0</ele>
      </trkpt>
      <trkpt lat="52.045999970287085" lon="6.027990924194455">
        <ele>94.6</ele>
      </trkpt>
      <trkpt lat="52.04655191861093" lon="6.026134919375181">
        <ele>92.0</ele>
      </trkpt>
      <trkpt lat="52.04663397744298" lon="6.026577986776829">
        <ele>91.5</ele>
      </trkpt>
      <trkpt lat="52.047141920775175" lon="6.026371959596872">
        <ele>91.0</ele>
      </trkpt>
      <trkpt lat="52.04729899764061" lon="6.0266699362546206">
        <ele>91.0</ele>
      </trkpt>
      <trkpt lat="52.0479039195925" lon="6.0259949415922165">
        <ele>91.1</ele>
      </trkpt>
      <trkpt lat="52.048666924238205" lon="6.025788998231292">
        <ele>92.0</ele>
      </trkpt>
      <trkpt lat="52.04908492974937" lon="6.025942973792553">
        <ele>92.4</ele>
      </trkpt>
      <trkpt lat="52.04925793223083" lon="6.026706984266639">
        <ele>92.8</ele>
      </trkpt>
      <trkpt lat="52.04946496523917" lon="6.026208931580186">
        <ele>92.6</ele>
      </trkpt>
      <trkpt lat="52.0498709846288" lon="6.026488970965147">
        <ele>92.1</ele>
      </trkpt>
      <trkpt lat="52.05013794824481" lon="6.026279926300049">
        <ele>91.6</ele>
      </trkpt>
      <trkpt lat="52.05099692568183" lon="6.026156963780522">
        <ele>90.3</ele>
      </trkpt>
      <trkpt lat="52.05139992758632" lon="6.0255929455161095">
        <ele>89.5</ele>
      </trkpt>
      <trkpt lat="52.05353094264865" lon="6.027024993672967">
        <ele>88.1</ele>
      </trkpt>
      <trkpt lat="52.0544589869678" lon="6.026741936802864">
        <ele>88.8</ele>
      </trkpt>
      <trkpt lat="52.054707929492" lon="6.026845956221223">
        <ele>89.2</ele>
      </trkpt>
      <trkpt lat="52.05515795387328" lon="6.026442954316735">
        <ele>89.9</ele>
      </trkpt>
      <trkpt lat="52.055756924673915" lon="6.026977971196175">
        <ele>91.0</ele>
      </trkpt>
      <trkpt lat="52.05611592158675" lon="6.027992935851216">
        <ele>92.0</ele>
      </trkpt>
      <trkpt lat="52.05653199926019" lon="6.027942979708314">
        <ele>92.5</ele>
      </trkpt>
      <trkpt lat="52.05673593096435" lon="6.028376994654536">
        <ele>92.8</ele>
      </trkpt>
      <trkpt lat="52.057111943140626" lon="6.028499957174063">
        <ele>93.2</ele>
      </trkpt>
      <trkpt lat="52.057474963366985" lon="6.02804297581315">
        <ele>93.6</ele>
      </trkpt>
      <trkpt lat="52.05840895883739" lon="6.025539971888065">
        <ele>95.2</ele>
      </trkpt>
      <trkpt lat="52.05915595404804" lon="6.024934966117144">
        <ele>95.1</ele>
      </trkpt>
      <trkpt lat="52.06004099920392" lon="6.034110970795155">
        <ele>85.6</ele>
      </trkpt>
      <trkpt lat="52.06021098420024" lon="6.0346779227256775">
        <ele>85.0</ele>
      </trkpt>
      <trkpt lat="52.06016496755183" lon="6.0359269939363">
        <ele>83.8</ele>
      </trkpt>
      <trkpt lat="52.060546930879354" lon="6.038070917129517">
        <ele>82.0</ele>
      </trkpt>
      <trkpt lat="52.060332940891385" lon="6.039106920361519">
        <ele>81.4</ele>
      </trkpt>
      <trkpt lat="52.06024291925132" lon="6.0418259259313345">
        <ele>79.6</ele>
      </trkpt>
      <trkpt lat="52.05985299311578" lon="6.043226961046457">
        <ele>77.9</ele>
      </trkpt>
      <trkpt lat="52.06010394729674" lon="6.049623945727944">
        <ele>63.2</ele>
      </trkpt>
      <trkpt lat="52.06027896143496" lon="6.050057960674167">
        <ele>62.7</ele>
      </trkpt>
      <trkpt lat="52.06055296584964" lon="6.050139935687184">
        <ele>62.3</ele>
      </trkpt>
      <trkpt lat="52.060887990519404" lon="6.052108928561211">
        <ele>63.1</ele>
      </trkpt>
      <trkpt lat="52.061450919136405" lon="6.052647968754172">
        <ele>64.7</ele>
      </trkpt>
      <trkpt lat="52.06255992874503" lon="6.055925963446498">
        <ele>68.6</ele>
      </trkpt>
      <trkpt lat="52.06319494172931" lon="6.056527951732278">
        <ele>67.9</ele>
      </trkpt>
      <trkpt lat="52.06337096169591" lon="6.056905975565314">
        <ele>67.4</ele>
      </trkpt>
      <trkpt lat="52.063337936997414" lon="6.057448955252767">
        <ele>66.7</ele>
      </trkpt>
      <trkpt lat="52.063529966399074" lon="6.058021942153573">
        <ele>65.6</ele>
      </trkpt>
      <trkpt lat="52.06392793916166" lon="6.058489987626672">
        <ele>64.0</ele>
      </trkpt>
      <trkpt lat="52.06407395191491" lon="6.059135980904102">
        <ele>62.6</ele>
      </trkpt>
      <trkpt lat="52.06438098102808" lon="6.059488942846656">
        <ele>61.6</ele>
      </trkpt>
      <trkpt lat="52.06450394354761" lon="6.0605009738355875">
        <ele>59.9</ele>
      </trkpt>
      <trkpt lat="52.06483896821737" lon="6.060557970777154">
        <ele>59.0</ele>
      </trkpt>
      <trkpt lat="52.06534297205508" lon="6.0616289265453815">
        <ele>57.3</ele>
      </trkpt>
      <trkpt lat="52.06549099646509" lon="6.062030922621489">
        <ele>56.7</ele>
      </trkpt>
      <trkpt lat="52.06534791737795" lon="6.063021998852491">
        <ele>55.6</ele>
      </trkpt>
      <trkpt lat="52.06558093428612" lon="6.063595991581678">
        <ele>54.9</ele>
      </trkpt>
      <trkpt lat="52.06580892205238" lon="6.063716942444444">
        <ele>54.5</ele>
      </trkpt>
      <trkpt lat="52.06611595116556" lon="6.064809942618012">
        <ele>53.1</ele>
      </trkpt>
      <trkpt lat="52.06623396836221" lon="6.064807930961251">
        <ele>52.7</ele>
      </trkpt>
      <trkpt lat="52.066800920292735" lon="6.065904954448342">
        <ele>50.5</ele>
      </trkpt>
      <trkpt lat="52.06716192886233" lon="6.066086925566196">
        <ele>49.2</ele>
      </trkpt>
      <trkpt lat="52.06746191717684" lon="6.066040992736816">
        <ele>48.2</ele>
      </trkpt>
      <trkpt lat="52.0675989612937" lon="6.065572947263718">
        <ele>47.1</ele>
      </trkpt>
      <trkpt lat="52.067807922139764" lon="6.065518967807293">
        <ele>46.4</ele>
      </trkpt>
      <trkpt lat="52.068085949867964" lon="6.064883954823017">
        <ele>44.5</ele>
      </trkpt>
      <trkpt lat="52.06867293454707" lon="6.0644659493118525">
        <ele>42.4</ele>
      </trkpt>
      <trkpt lat="52.06895397976041" lon="6.0645439848303795">
        <ele>41.6</ele>
      </trkpt>
      <trkpt lat="52.06936192698777" lon="6.063652988523245">
        <ele>39.2</ele>
      </trkpt>
      <trkpt lat="52.06955496221781" lon="6.063673943281174">
        <ele>38.8</ele>
      </trkpt>
      <trkpt lat="52.07024797797203" lon="6.06261296197772">
        <ele>37.0</ele>
      </trkpt>
      <trkpt lat="52.07065693102777" lon="6.0629109386354685">
        <ele>36.6</ele>
      </trkpt>
      <trkpt lat="52.07092599011958" lon="6.06241799890995">
        <ele>36.4</ele>
      </trkpt>
      <trkpt lat="52.07129999063909" lon="6.0622229520231485">
        <ele>36.5</ele>
      </trkpt>
      <trkpt lat="52.0714929420501" lon="6.061272947117686">
        <ele>37.1</ele>
      </trkpt>
      <trkpt lat="52.07250296138227" lon="6.060272986069322">
        <ele>39.5</ele>
      </trkpt>
      <trkpt lat="52.0728399977088" lon="6.059551974758506">
        <ele>40.5</ele>
      </trkpt>
      <trkpt lat="52.073308965191245" lon="6.059559937566519">
        <ele>41.2</ele>
      </trkpt>
      <trkpt lat="52.07359998486936" lon="6.058978987857699">
        <ele>41.7</ele>
      </trkpt>
      <trkpt lat="52.07458393648267" lon="6.058213971555233">
        <ele>41.8</ele>
      </trkpt>
      <trkpt lat="52.07512197084725" lon="6.057446943596005">
        <ele>41.3</ele>
      </trkpt>
      <trkpt lat="52.0758689660579" lon="6.057344935834408">
        <ele>40.6</ele>
      </trkpt>
      <trkpt lat="52.07619493827224" lon="6.05661797337234">
        <ele>40.4</ele>
      </trkpt>
      <trkpt lat="52.076207930222154" lon="6.054934971034527">
        <ele>40.5</ele>
      </trkpt>
      <trkpt lat="52.0755129866302" lon="6.052334988489747">
        <ele>42.2</ele>
      </trkpt>
      <trkpt lat="52.07796796225011" lon="6.04959293268621">
        <ele>44.0</ele>
      </trkpt>
      <trkpt lat="52.07901997491717" lon="6.052728937938809">
        <ele>39.9</ele>
      </trkpt>
      <trkpt lat="52.08135793916881" lon="6.050478983670473">
        <ele>39.2</ele>
      </trkpt>
      <trkpt lat="52.08285494707525" lon="6.053733928129077">
        <ele>35.6</ele>
      </trkpt>
      <trkpt lat="52.08564595319331" lon="6.0493609216064215">
        <ele>44.8</ele>
      </trkpt>
      <trkpt lat="52.08579791709781" lon="6.049652947112918">
        <ele>44.8</ele>
      </trkpt>
      <trkpt lat="52.08904297091067" lon="6.045076930895448">
        <ele>38.4</ele>
      </trkpt>
      <trkpt lat="52.08776196464896" lon="6.043298961594701">
        <ele>39.2</ele>
      </trkpt>
      <trkpt lat="52.08690298721194" lon="6.044519953429699">
        <ele>41.6</ele>
      </trkpt>
      <trkpt lat="52.08439897745848" lon="6.040420951321721">
        <ele>47.4</ele>
      </trkpt>
      <trkpt lat="52.08423393778503" lon="6.039743945002556">
        <ele>47.4</ele>
      </trkpt>
      <trkpt lat="52.08229998126626" lon="6.036381963640451">
        <ele>49.0</ele>
      </trkpt>
      <trkpt lat="52.07976596429944" lon="6.040465962141752">
        <ele>57.1</ele>
      </trkpt>
      <trkpt lat="52.079152995720506" lon="6.042327918112278">
        <ele>56.7</ele>
      </trkpt>
      <trkpt lat="52.078720992431045" lon="6.043132999911904">
        <ele>56.5</ele>
      </trkpt>
      <trkpt lat="52.078382950276136" lon="6.04297692887485">
        <ele>56.7</ele>
      </trkpt>
      <trkpt lat="52.07722197286785" lon="6.041033919900656">
        <ele>57.5</ele>
      </trkpt>
      <trkpt lat="52.07527091726661" lon="6.038578944280744">
        <ele>58.4</ele>
      </trkpt>
      <trkpt lat="52.07505198195577" lon="6.03784192353487">
        <ele>58.6</ele>
      </trkpt>
      <trkpt lat="52.074555940926075" lon="6.037283940240741">
        <ele>58.9</ele>
      </trkpt>
      <trkpt lat="52.07421697676182" lon="6.0365209355950356">
        <ele>59.1</ele>
      </trkpt>
      <trkpt lat="52.07381095737219" lon="6.035253927111626">
        <ele>59.6</ele>
      </trkpt>
      <trkpt lat="52.073266971856356" lon="6.034836927428842">
        <ele>60.1</ele>
      </trkpt>
      <trkpt lat="52.07293697632849" lon="6.034331917762756">
        <ele>60.8</ele>
      </trkpt>
      <trkpt lat="52.07169394008815" lon="6.031610984355211">
        <ele>65.5</ele>
      </trkpt>
      <trkpt lat="52.070835968479514" lon="6.03044698946178">
        <ele>68.1</ele>
      </trkpt>
      <trkpt lat="52.07050899043679" lon="6.0295499581843615">
        <ele>69.3</ele>
      </trkpt>
      <trkpt lat="52.070194920524955" lon="6.029448956251144">
        <ele>69.8</ele>
      </trkpt>
      <trkpt lat="52.06992594525218" lon="6.02963293902576">
        <ele>70.4</ele>
      </trkpt>
      <trkpt lat="52.06955395638943" lon="6.029300931841135">
        <ele>71.2</ele>
      </trkpt>
      <trkpt lat="52.0696519408375" lon="6.028971942141652">
        <ele>71.7</ele>
      </trkpt>
      <trkpt lat="52.068839985877275" lon="6.027775928378105">
        <ele>73.1</ele>
      </trkpt>
      <trkpt lat="52.067895932123065" lon="6.025370992720127">
        <ele>72.1</ele>
      </trkpt>
      <trkpt lat="52.07478191703558" lon="6.015702970325947">
        <ele>57.3</ele>
      </trkpt>
      <trkpt lat="52.074401965364814" lon="6.01476495154202">
        <ele>56.9</ele>
      </trkpt>
      <trkpt lat="52.07398597151041" lon="6.014438979327679">
        <ele>56.6</ele>
      </trkpt>
      <trkpt lat="52.07383392378688" lon="6.013983925804496">
        <ele>56.0</ele>
      </trkpt>
      <trkpt lat="52.073631919920444" lon="6.013873955234885">
        <ele>55.6</ele>
      </trkpt>
      <trkpt lat="52.07335699349642" lon="6.013201978057623">
        <ele>54.5</ele>
      </trkpt>
      <trkpt lat="52.07298492081463" lon="6.012771986424923">
        <ele>53.7</ele>
      </trkpt>
      <trkpt lat="52.07284796051681" lon="6.012414917349815">
        <ele>53.1</ele>
      </trkpt>
      <trkpt lat="52.073005959391594" lon="6.012189947068691">
        <ele>52.7</ele>
      </trkpt>
      <trkpt lat="52.07090696319938" lon="6.008607940748334">
        <ele>50.7</ele>
      </trkpt>
      <trkpt lat="52.071570977568626" lon="6.008976995944977">
        <ele>50.0</ele>
      </trkpt>
      <trkpt lat="52.07417498342693" lon="6.008844980970025">
        <ele>45.9</ele>
      </trkpt>
      <trkpt lat="52.07413793541491" lon="6.00846997462213">
        <ele>45.7</ele>
      </trkpt>
      <trkpt lat="52.07449693232775" lon="6.007082937285304">
        <ele>45.0</ele>
      </trkpt>
      <trkpt lat="52.07499892450869" lon="6.007254933938384">
        <ele>44.9</ele>
      </trkpt>
      <trkpt lat="52.075390946120024" lon="6.007619965821505">
        <ele>44.7</ele>
      </trkpt>
      <trkpt lat="52.07636299543083" lon="6.008065966889262">
        <ele>44.2</ele>
      </trkpt>
      <trkpt lat="52.07759697921574" lon="6.009497931227088">
        <ele>44.2</ele>
      </trkpt>
      <trkpt lat="52.07829795777798" lon="6.010647928342223">
        <ele>43.9</ele>
      </trkpt>
      <trkpt lat="52.08234893158078" lon="6.012904923409224">
        <ele>39.1</ele>
      </trkpt>
      <trkpt lat="52.08286399953067" lon="6.013719979673624">
        <ele>39.2</ele>
      </trkpt>
      <trkpt lat="52.08465093746781" lon="6.014740979298949">
        <ele>40.9</ele>
      </trkpt>
      <trkpt lat="52.0869879797101" lon="6.017099982127547">
        <ele>43.4</ele>
      </trkpt>
      <trkpt lat="52.088111992925406" lon="6.017875978723168">
        <ele>44.4</ele>
      </trkpt>
      <trkpt lat="52.088156919926405" lon="6.017613960430026">
        <ele>44.6</ele>
      </trkpt>
      <trkpt lat="52.0916039776057" lon="6.0123359598219395">
        <ele>51.9</ele>
      </trkpt>
      <trkpt lat="52.091808998957276" lon="6.011717962101102">
        <ele>51.4</ele>
      </trkpt>
      <trkpt lat="52.09166298620403" lon="6.012146947905421">
        <ele>50.8</ele>
      </trkpt>
      <trkpt lat="52.092238990589976" lon="6.013393923640251">
        <ele>48.6</ele>
      </trkpt>
      <trkpt lat="52.092647943645716" lon="6.014841981232166">
        <ele>45.8</ele>
      </trkpt>
      <trkpt lat="52.09248592145741" lon="6.015818975865841">
        <ele>45.1</ele>
      </trkpt>
      <trkpt lat="52.09305999800563" lon="6.016928991302848">
        <ele>44.1</ele>
      </trkpt>
      <trkpt lat="52.09336895495653" lon="6.018060967326164">
        <ele>43.4</ele>
      </trkpt>
      <trkpt lat="52.09347398020327" lon="6.0181789845228195">
        <ele>43.1</ele>
      </trkpt>
      <trkpt lat="52.09343399852514" lon="6.017962982878089">
        <ele>43.5</ele>
      </trkpt>
      <trkpt lat="52.09347398020327" lon="6.0181789845228195">
        <ele>43.2</ele>
      </trkpt>
      <trkpt lat="52.09555696696043" lon="6.018517948687077">
        <ele>46.6</ele>
      </trkpt>
      <trkpt lat="52.09520895034075" lon="6.017449926584959">
        <ele>48.4</ele>
      </trkpt>
      <trkpt lat="52.09517198614776" lon="6.016557924449444">
        <ele>49.8</ele>
      </trkpt>
      <trkpt lat="52.096273954957724" lon="6.015013977885246">
        <ele>53.7</ele>
      </trkpt>
      <trkpt lat="52.09709697403014" lon="6.0130619164556265">
        <ele>56.1</ele>
      </trkpt>
      <trkpt lat="52.09846096113324" lon="6.01186397485435">
        <ele>56.5</ele>
      </trkpt>
      <trkpt lat="52.09961799904704" lon="6.01049093529582">
        <ele>58.5</ele>
      </trkpt>
      <trkpt lat="52.10035493597388" lon="6.011487962678075">
        <ele>59.9</ele>
      </trkpt>
      <trkpt lat="52.102116979658604" lon="6.01096099242568">
        <ele>57.5</ele>
      </trkpt>
      <trkpt lat="52.105514919385314" lon="6.009644949808717">
        <ele>50.2</ele>
      </trkpt>
      <trkpt lat="52.10559597238898" lon="6.00891899317503">
        <ele>50.3</ele>
      </trkpt>
      <trkpt lat="52.106011966243386" lon="6.00851196795702">
        <ele>50.6</ele>
      </trkpt>
      <trkpt lat="52.10663893260062" lon="6.008170992136002">
        <ele>51.7</ele>
      </trkpt>
      <trkpt lat="52.10770091973245" lon="6.008031936362386">
        <ele>54.1</ele>
      </trkpt>
      <trkpt lat="52.109146965667605" lon="6.007229955866933">
        <ele>55.7</ele>
      </trkpt>
      <trkpt lat="52.11148099042475" lon="6.010583974421024">
        <ele>50.9</ele>
      </trkpt>
      <trkpt lat="52.11160395294428" lon="6.010540975257754">
        <ele>51.0</ele>
      </trkpt>
      <trkpt lat="52.112648924812675" lon="6.007075980305672">
        <ele>53.8</ele>
      </trkpt>
      <trkpt lat="52.11277197115123" lon="6.005393983796239">
        <ele>55.6</ele>
      </trkpt>
      <trkpt lat="52.11268094368279" lon="6.004654951393604">
        <ele>56.4</ele>
      </trkpt>
      <trkpt lat="52.11298294365406" lon="6.003926983103156">
        <ele>57.3</ele>
      </trkpt>
      <trkpt lat="52.11255194619298" lon="6.0021639335900545">
        <ele>58.9</ele>
      </trkpt>
      <trkpt lat="52.11209999397397" lon="6.0025229305028915">
        <ele>59.3</ele>
      </trkpt>
      <trkpt lat="52.110779928043485" lon="5.9984139539301395">
        <ele>58.8</ele>
      </trkpt>
      <trkpt lat="52.109877951443195" lon="5.999182993546128">
        <ele>59.2</ele>
      </trkpt>
      <trkpt lat="52.10859292186797" lon="5.992774944752455">
        <ele>62.7</ele>
      </trkpt>
      <trkpt lat="52.10791097022593" lon="5.978369973599911">
        <ele>49.4</ele>
      </trkpt>
      <trkpt lat="52.106590988114476" lon="5.979206990450621">
        <ele>49.4</ele>
      </trkpt>
      <trkpt lat="52.10571792908013" lon="5.979306986555457">
        <ele>50.6</ele>
      </trkpt>
      <trkpt lat="52.10413198918104" lon="5.9784239530563354">
        <ele>54.6</ele>
      </trkpt>
      <trkpt lat="52.10383099503815" lon="5.978406937792897">
        <ele>55.4</ele>
      </trkpt>
      <trkpt lat="52.102935975417495" lon="5.979324923828244">
        <ele>58.6</ele>
      </trkpt>
      <trkpt lat="52.10264294408262" lon="5.979257952421904">
        <ele>59.5</ele>
      </trkpt>
      <trkpt lat="52.09982595406473" lon="5.977146970108151">
        <ele>70.3</ele>
      </trkpt>
      <trkpt lat="52.099220948293805" lon="5.975491963326931">
        <ele>73.8</ele>
      </trkpt>
      <trkpt lat="52.09951096214354" lon="5.972749991342425">
        <ele>77.9</ele>
      </trkpt>
      <trkpt lat="52.099285991862416" lon="5.971636958420277">
        <ele>79.9</ele>
      </trkpt>
      <trkpt lat="52.09761497564614" lon="5.968884928151965">
        <ele>86.0</ele>
      </trkpt>
      <trkpt lat="52.09568194113672" lon="5.965193957090378">
        <ele>92.9</ele>
      </trkpt>
      <trkpt lat="52.09132997319102" lon="5.960436975583434">
        <ele>85.6</ele>
      </trkpt>
      <trkpt lat="52.09098095074296" lon="5.960331950336695">
        <ele>85.1</ele>
      </trkpt>
      <trkpt lat="52.09015793167055" lon="5.960547951981425">
        <ele>85.2</ele>
      </trkpt>
      <trkpt lat="52.08648699335754" lon="5.957708917558193">
        <ele>93.9</ele>
      </trkpt>
      <trkpt lat="52.086305944249034" lon="5.959270969033241">
        <ele>94.1</ele>
      </trkpt>
      <trkpt lat="52.08543296903372" lon="5.962525997310877">
        <ele>91.3</ele>
      </trkpt>
      <trkpt lat="52.082158997654915" lon="5.9599989373236895">
        <ele>83.2</ele>
      </trkpt>
      <trkpt lat="52.081664968281984" lon="5.962128946557641">
        <ele>77.8</ele>
      </trkpt>
      <trkpt lat="52.07983293570578" lon="5.973829999566078">
        <ele>58.2</ele>
      </trkpt>
      <trkpt lat="52.07963294349611" lon="5.97392194904387">
        <ele>58.1</ele>
      </trkpt>
      <trkpt lat="52.07887697964907" lon="5.973604945465922">
        <ele>57.8</ele>
      </trkpt>
      <trkpt lat="52.077994951978326" lon="5.973679963499308">
        <ele>58.4</ele>
      </trkpt>
      <trkpt lat="52.07780996337533" lon="5.973888924345374">
        <ele>58.8</ele>
      </trkpt>
      <trkpt lat="52.07793896086514" lon="5.974915958940983">
        <ele>60.0</ele>
      </trkpt>
      <trkpt lat="52.077586920931935" lon="5.976838935166597">
        <ele>61.8</ele>
      </trkpt>
      <trkpt lat="52.078276919201016" lon="5.978441974148154">
        <ele>62.2</ele>
      </trkpt>
      <trkpt lat="52.0784919988364" lon="5.980413984507322">
        <ele>61.3</ele>
      </trkpt>
      <trkpt lat="52.07842997275293" lon="5.981022929772735">
        <ele>61.7</ele>
      </trkpt>
      <trkpt lat="52.07824096083641" lon="5.981182940304279">
        <ele>62.1</ele>
      </trkpt>
      <trkpt lat="52.07806997001171" lon="5.9812629874795675">
        <ele>62.5</ele>
      </trkpt>
      <trkpt lat="52.07428595982492" lon="5.979000963270664">
        <ele>81.2</ele>
      </trkpt>
      <trkpt lat="52.071679942309856" lon="5.979276979342103">
        <ele>88.8</ele>
      </trkpt>
      <trkpt lat="52.070837980136275" lon="5.979080926626921">
        <ele>92.3</ele>
      </trkpt>
      <trkpt lat="52.07016197964549" lon="5.979516953229904">
        <ele>95.2</ele>
      </trkpt>
      <trkpt lat="52.06925899721682" lon="5.979280918836594">
        <ele>96.8</ele>
      </trkpt>
      <trkpt lat="52.06854796037078" lon="5.979742929339409">
        <ele>97.0</ele>
      </trkpt>
      <trkpt lat="52.06467594020069" lon="5.980143919587135">
        <ele>94.0</ele>
      </trkpt>
      <trkpt lat="52.06094096414745" lon="5.978278946131468">
        <ele>91.0</ele>
      </trkpt>
      <trkpt lat="52.054508943110704" lon="5.977752981707454">
        <ele>75.8</ele>
      </trkpt>
      <trkpt lat="52.04782395623624" lon="5.981746958568692">
        <ele>89.6</ele>
      </trkpt>
      <trkpt lat="52.0473029371351" lon="5.982257919386029">
        <ele>90.0</ele>
      </trkpt>
      <trkpt lat="52.04636198468506" lon="5.984087940305471">
        <ele>90.9</ele>
      </trkpt>
      <trkpt lat="52.04426592215896" lon="5.985769936814904">
        <ele>94.9</ele>
      </trkpt>
      <trkpt lat="52.04375395551324" lon="5.985909998416901">
        <ele>95.8</ele>
      </trkpt>
      <trkpt lat="52.041620928794146" lon="5.987595934420824">
        <ele>99.1</ele>
      </trkpt>
      <trkpt lat="52.04011193476617" lon="5.988153917714953">
        <ele>99.5</ele>
      </trkpt>
      <trkpt lat="52.038482995703816" lon="5.989591917023063">
        <ele>100.0</ele>
      </trkpt>
      <trkpt lat="52.03760297968984" lon="5.989795932546258">
        <ele>101.6</ele>
      </trkpt>
      <trkpt lat="52.03700895421207" lon="5.9907849971205">
        <ele>102.7</ele>
      </trkpt>
      <trkpt lat="52.037278935313225" lon="5.991251952946186">
        <ele>103.1</ele>
      </trkpt>
      <trkpt lat="52.03691893257201" lon="5.9912149887532">
        <ele>103.3</ele>
      </trkpt>
      <trkpt lat="52.036373941227794" lon="5.991526963189244">
        <ele>103.5</ele>
      </trkpt>
      <trkpt lat="52.03623999841511" lon="5.991929965093732">
        <ele>103.2</ele>
      </trkpt>
      <trkpt lat="52.0355189871043" lon="5.992642929777503">
        <ele>101.7</ele>
      </trkpt>
      <trkpt lat="52.03547892160714" lon="5.9930509608238935">
        <ele>101.2</ele>
      </trkpt>
      <trkpt lat="52.03512394800782" lon="5.993276936933398">
        <ele>100.4</ele>
      </trkpt>
      <trkpt lat="52.03496695496142" lon="5.993940951302648">
        <ele>99.5</ele>
      </trkpt>
      <trkpt lat="52.034594966098666" lon="5.994318975135684">
        <ele>98.5</ele>
      </trkpt>
      <trkpt lat="52.03426396474242" lon="5.994215961545706">
        <ele>97.6</ele>
      </trkpt>
      <trkpt lat="52.03420897945762" lon="5.994767993688583">
        <ele>96.7</ele>
      </trkpt>
      <trkpt lat="52.0340009406209" lon="5.995036968961358">
        <ele>96.0</ele>
      </trkpt>
      <trkpt lat="52.03406296670437" lon="5.995279960334301">
        <ele>95.6</ele>
      </trkpt>
      <trkpt lat="52.03386599197984" lon="5.995217934250832">
        <ele>95.0</ele>
      </trkpt>
      <trkpt lat="52.033535996451974" lon="5.9954029228538275">
        <ele>94.1</ele>
      </trkpt>
      <trkpt lat="52.033325945958495" lon="5.995765943080187">
        <ele>93.4</ele>
      </trkpt>
      <trkpt lat="52.03300894238055" lon="5.995765943080187">
        <ele>92.4</ele>
      </trkpt>
      <trkpt lat="52.032532934099436" lon="5.996209932491183">
        <ele>90.5</ele>
      </trkpt>
      <trkpt lat="52.032420951873064" lon="5.996148996055126">
        <ele>90.0</ele>
      </trkpt>
      <trkpt lat="52.03229698352516" lon="5.996466921642423">
        <ele>89.3</ele>
      </trkpt>
      <trkpt lat="52.03160095028579" lon="5.996977966278791">
        <ele>87.0</ele>
      </trkpt>
      <trkpt lat="52.0311429630965" lon="5.996560966596007">
        <ele>85.5</ele>
      </trkpt>
      <trkpt lat="52.03077893704176" lon="5.996770933270454">
        <ele>84.7</ele>
      </trkpt>
      <trkpt lat="52.0303469337523" lon="5.996442949399352">
        <ele>83.8</ele>
      </trkpt>
      <trkpt lat="52.02947496436536" lon="5.9943759720772505">
        <ele>84.3</ele>
      </trkpt>
      <trkpt lat="52.027673944830894" lon="5.995634933933616">
        <ele>92.5</ele>
      </trkpt>
      <trkpt lat="52.02687095850706" lon="5.995581960305572">
        <ele>96.9</ele>
      </trkpt>
      <trkpt lat="52.02680096961558" lon="5.996170956641436">
        <ele>98.7</ele>
      </trkpt>
      <trkpt lat="52.02647399157286" lon="5.996635984629393">
        <ele>100.5</ele>
      </trkpt>
      <trkpt lat="52.02614592388272" lon="5.995939951390028">
        <ele>101.8</ele>
      </trkpt>
      <trkpt lat="52.02508997172117" lon="5.995257999747992">
        <ele>100.6</ele>
      </trkpt>
      <trkpt lat="52.0250279456377" lon="5.994780985638499">
        <ele>99.8</ele>
      </trkpt>
      <trkpt lat="52.02428296208382" lon="5.993957966566086">
        <ele>95.1</ele>
      </trkpt>
      <trkpt lat="52.024254966527224" lon="5.993323959410191">
        <ele>92.3</ele>
      </trkpt>
      <trkpt lat="52.02390795573592" lon="5.992674948647618">
        <ele>88.6</ele>
      </trkpt>
      <trkpt lat="52.02319691888988" lon="5.9904339630156755">
        <ele>78.4</ele>
      </trkpt>
      <trkpt lat="52.02257992699742" lon="5.989548917859793">
        <ele>74.6</ele>
      </trkpt>
      <trkpt lat="52.02237599529326" lon="5.989596946164966">
        <ele>73.7</ele>
      </trkpt>
      <trkpt lat="52.0222719758749" lon="5.990030961111188">
        <ele>72.6</ele>
      </trkpt>
      <trkpt lat="52.022369960322976" lon="5.99037797190249">
        <ele>71.5</ele>
      </trkpt>
      <trkpt lat="52.02201792038977" lon="5.99126192741096">
        <ele>69.4</ele>
      </trkpt>
      <trkpt lat="52.02145499177277" lon="5.992122916504741">
        <ele>66.1</ele>
      </trkpt>
      <trkpt lat="52.021290957927704" lon="5.991517994552851">
        <ele>64.1</ele>
      </trkpt>
      <trkpt lat="52.02115592546761" lon="5.991540960967541">
        <ele>63.7</ele>
      </trkpt>
      <trkpt lat="52.020754935219884" lon="5.991862993687391">
        <ele>62.4</ele>
      </trkpt>
      <trkpt lat="52.019940968602896" lon="5.992993963882327">
        <ele>61.6</ele>
      </trkpt>
      <trkpt lat="52.01938793063164" lon="5.9929299261420965">
        <ele>62.2</ele>
      </trkpt>
      <trkpt lat="52.019169917330146" lon="5.990525996312499">
        <ele>67.1</ele>
      </trkpt>
      <trkpt lat="52.0189649797976" lon="5.9898599702864885">
        <ele>68.7</ele>
      </trkpt>
      <trkpt lat="52.01908299699426" lon="5.989190926775336">
        <ele>70.2</ele>
      </trkpt>
      <trkpt lat="52.01862693764269" lon="5.987817971035838">
        <ele>71.9</ele>
      </trkpt>
      <trkpt lat="52.01802293770015" lon="5.983544960618019">
        <ele>79.5</ele>
      </trkpt>
      <trkpt lat="52.018113965168595" lon="5.981467925012112">
        <ele>88.1</ele>
      </trkpt>
      <trkpt lat="52.017960995435715" lon="5.980794942006469">
        <ele>90.7</ele>
      </trkpt>
      <trkpt lat="52.01795093715191" lon="5.978939943015575">
        <ele>95.4</ele>
      </trkpt>
      <trkpt lat="52.01831596903503" lon="5.977656925097108">
        <ele>97.3</ele>
      </trkpt>
      <trkpt lat="52.01833499595523" lon="5.976940942928195">
        <ele>97.7</ele>
      </trkpt>
      <trkpt lat="52.01808295212686" lon="5.97611197270453">
        <ele>97.9</ele>
      </trkpt>
      <trkpt lat="52.01655593700707" lon="5.97349195741117">
        <ele>95.5</ele>
      </trkpt>
      <trkpt lat="52.017620941624045" lon="5.972054963931441">
        <ele>93.1</ele>
      </trkpt>
      <trkpt lat="52.0163369178772" lon="5.968477986752987">
        <ele>86.2</ele>
      </trkpt>
      <trkpt lat="52.016072971746325" lon="5.968319987878203">
        <ele>85.6</ele>
      </trkpt>
      <trkpt lat="52.01620993204415" lon="5.967870969325304">
        <ele>85.1</ele>
      </trkpt>
      <trkpt lat="52.016953993588686" lon="5.966757936403155">
        <ele>83.3</ele>
      </trkpt>
      <trkpt lat="52.01548397541046" lon="5.964324921369553">
        <ele>78.9</ele>
      </trkpt>
      <trkpt lat="52.01565194875002" lon="5.963938934728503">
        <ele>78.2</ele>
      </trkpt>
      <trkpt lat="52.015000926330686" lon="5.962724983692169">
        <ele>76.1</ele>
      </trkpt>
      <trkpt lat="52.014522990211844" lon="5.961135942488909">
        <ele>74.5</ele>
      </trkpt>
      <trkpt lat="52.014612928032875" lon="5.9610379580408335">
        <ele>74.2</ele>
      </trkpt>
      <trkpt lat="52.01416994445026" lon="5.961522934958339">
        <ele>73.3</ele>
      </trkpt>
      <trkpt lat="52.014634972438216" lon="5.961013985797763">
        <ele>72.1</ele>
      </trkpt>
      <trkpt lat="52.01466497965157" lon="5.959480935707688">
        <ele>70.8</ele>
      </trkpt>
      <trkpt lat="52.01410993002355" lon="5.958003960549831">
        <ele>69.0</ele>
      </trkpt>
      <trkpt lat="52.01371598057449" lon="5.9580419305711985">
        <ele>68.7</ele>
      </trkpt>
      <trkpt lat="52.012980971485376" lon="5.957597941160202">
        <ele>69.0</ele>
      </trkpt>
      <trkpt lat="52.01255592517555" lon="5.954942973330617">
        <ele>70.9</ele>
      </trkpt>
      <trkpt lat="52.0123459585011" lon="5.954446932300925">
        <ele>71.1</ele>
      </trkpt>
      <trkpt lat="52.010918939486146" lon="5.95411098562181">
        <ele>69.2</ele>
      </trkpt>
      <trkpt lat="52.010528929531574" lon="5.9538269229233265">
        <ele>67.1</ele>
      </trkpt>
      <trkpt lat="52.01038492843509" lon="5.9539989195764065">
        <ele>66.3</ele>
      </trkpt>
      <trkpt lat="52.010014951229095" lon="5.953836981207132">
        <ele>64.2</ele>
      </trkpt>
      <trkpt lat="52.00949292629957" lon="5.952955959364772">
        <ele>60.2</ele>
      </trkpt>
      <trkpt lat="52.00907098129392" lon="5.953135918825865">
        <ele>58.1</ele>
      </trkpt>
      <trkpt lat="52.00815198943019" lon="5.952623952180147">
        <ele>54.3</ele>
      </trkpt>
      <trkpt lat="52.00655699707568" lon="5.950449937954545">
        <ele>49.0</ele>
      </trkpt>
      <trkpt lat="52.00635398738086" lon="5.950794937089086">
        <ele>48.0</ele>
      </trkpt>
      <trkpt lat="52.006017956882715" lon="5.950662922114134">
        <ele>47.0</ele>
      </trkpt>
      <trkpt lat="52.00398995541036" lon="5.949413934722543">
        <ele>42.4</ele>
      </trkpt>
      <trkpt lat="51.99968995526433" lon="5.9425899758934975">
        <ele>34.9</ele>
      </trkpt>
      <trkpt lat="51.99808297678828" lon="5.938734970986843">
        <ele>37.9</ele>
      </trkpt>
      <trkpt lat="51.9966799300164" lon="5.935869952663779">
        <ele>37.6</ele>
      </trkpt>
      <trkpt lat="51.994438944384456" lon="5.933032929897308">
        <ele>32.4</ele>
      </trkpt>
      <trkpt lat="51.9919169973582" lon="5.931376917287707">
        <ele>28.3</ele>
      </trkpt>
      <trkpt lat="51.991042932495475" lon="5.93271492049098">
        <ele>26.4</ele>
      </trkpt>
      <trkpt lat="51.9892109837383" lon="5.932462960481644">
        <ele>21.4</ele>
      </trkpt>
      <trkpt lat="51.98873296380043" lon="5.932171940803528">
        <ele>21.1</ele>
      </trkpt>
      <trkpt lat="51.987971970811486" lon="5.928146950900555">
        <ele>22.5</ele>
      </trkpt>
      <trkpt lat="51.98529093526304" lon="5.921510998159647">
        <ele>17.3</ele>
      </trkpt>
      <trkpt lat="51.98511893860996" lon="5.920732989907265">
        <ele>17.4</ele>
      </trkpt>
      <trkpt lat="51.98535195551813" lon="5.920085990801454">
        <ele>17.6</ele>
      </trkpt>
      <trkpt lat="51.985178953036666" lon="5.9200359508395195">
        <ele>17.7</ele>
      </trkpt>
      <trkpt lat="51.98503294028342" lon="5.920450938865542">
        <ele>17.8</ele>
      </trkpt>
      <trkpt lat="51.98514592833817" lon="5.919914999976754">
        <ele>17.9</ele>
      </trkpt>
    </trkseg>
  </trk>
</gpx>
