<?xml version="1.0" encoding="UTF-8"?>
<gpx creator="Garmin Connect" version="1.1"
  xsi:schemaLocation="http://www.topografix.com/GPX/1/1 http://www.topografix.com/GPX/11.xsd"
  xmlns:ns3="http://www.garmin.com/xmlschemas/TrackPointExtension/v1"
  xmlns="http://www.topografix.com/GPX/1/1"
  xmlns:xsi="http://www.w3.org/2001/XMLSchema-instance" xmlns:ns2="http://www.garmin.com/xmlschemas/GpxExtensions/v3">
  <metadata>
    <name>Radio Kootwijk – Radio Kootwijk loop from Arnhem Centraal</name>
    <link href="connect.garmin.com">
      <text>Garmin Connect</text>
    </link>
    <time>2025-05-13T07:10:49.000Z</time>
  </metadata>
  <trk>
    <name>Radio Kootwijk – Radio Kootwijk loop from Arnhem Centraal</name>
    <trkseg>
      <trkpt lat="51.9844329636544" lon="5.901159988716245">
        <ele>23.6</ele>
      </trkpt>
      <trkpt lat="51.98392191901803" lon="5.901566930115223">
        <ele>22.8</ele>
      </trkpt>
      <trkpt lat="51.98392694815993" lon="5.902174953371286">
        <ele>22.3</ele>
      </trkpt>
      <trkpt lat="51.98352696374059" lon="5.902817929163575">
        <ele>21.6</ele>
      </trkpt>
      <trkpt lat="51.983477929607034" lon="5.90460998006165">
        <ele>20.7</ele>
      </trkpt>
      <trkpt lat="51.98379292152822" lon="5.905526960268617">
        <ele>20.4</ele>
      </trkpt>
      <trkpt lat="51.98412794619799" lon="5.905599966645241">
        <ele>20.7</ele>
      </trkpt>
      <trkpt lat="51.98443396948278" lon="5.9059899765998125">
        <ele>20.9</ele>
      </trkpt>
      <trkpt lat="51.9850389752537" lon="5.90534096583724">
        <ele>20.8</ele>
      </trkpt>
      <trkpt lat="51.98514592833817" lon="5.90555596165359">
        <ele>20.8</ele>
      </trkpt>
      <trkpt lat="51.985261933878064" lon="5.905417995527387">
        <ele>20.9</ele>
      </trkpt>
      <trkpt lat="51.987883960828185" lon="5.908867986872792">
        <ele>30.1</ele>
      </trkpt>
      <trkpt lat="51.98916798457503" lon="5.90800398029387">
        <ele>36.5</ele>
      </trkpt>
      <trkpt lat="51.99006199836731" lon="5.908148987218738">
        <ele>41.3</ele>
      </trkpt>
      <trkpt lat="51.99278896674514" lon="5.909608947113156">
        <ele>55.0</ele>
      </trkpt>
      <trkpt lat="51.994476998224854" lon="5.910774953663349">
        <ele>59.2</ele>
      </trkpt>
      <trkpt lat="51.99565599672496" lon="5.911685982719064">
        <ele>61.4</ele>
      </trkpt>
      <trkpt lat="51.99759799987078" lon="5.913736950606108">
        <ele>63.2</ele>
      </trkpt>
      <trkpt lat="51.99814693070948" lon="5.914745964109898">
        <ele>64.5</ele>
      </trkpt>
      <trkpt lat="51.99911696836352" lon="5.917316945269704">
        <ele>69.6</ele>
      </trkpt>
      <trkpt lat="51.999616948887706" lon="5.916505996137857">
        <ele>72.3</ele>
      </trkpt>
      <trkpt lat="52.00089694932103" lon="5.917272940278053">
        <ele>77.4</ele>
      </trkpt>
      <trkpt lat="52.001353930681944" lon="5.917310994118452">
        <ele>79.1</ele>
      </trkpt>
      <trkpt lat="52.00436999090016" lon="5.915205962955952">
        <ele>83.0</ele>
      </trkpt>
      <trkpt lat="52.004559924826026" lon="5.915531935170293">
        <ele>82.9</ele>
      </trkpt>
      <trkpt lat="52.005628952756524" lon="5.914783934131265">
        <ele>81.8</ele>
      </trkpt>
      <trkpt lat="52.00761294923723" lon="5.914172977209091">
        <ele>80.1</ele>
      </trkpt>
      <trkpt lat="52.007868932560086" lon="5.914307925850153">
        <ele>80.1</ele>
      </trkpt>
      <trkpt lat="52.007931964471936" lon="5.914736995473504">
        <ele>80.2</ele>
      </trkpt>
      <trkpt lat="52.00813899748027" lon="5.91470698826015">
        <ele>80.3</ele>
      </trkpt>
      <trkpt lat="52.00813698582351" lon="5.914503978565335">
        <ele>80.4</ele>
      </trkpt>
      <trkpt lat="52.01512196101248" lon="5.91864095069468">
        <ele>63.0</ele>
      </trkpt>
      <trkpt lat="52.015881948173046" lon="5.918615972623229">
        <ele>59.5</ele>
      </trkpt>
      <trkpt lat="52.01608194038272" lon="5.91894093900919">
        <ele>58.4</ele>
      </trkpt>
      <trkpt lat="52.01672399416566" lon="5.921635972335935">
        <ele>52.7</ele>
      </trkpt>
      <trkpt lat="52.01687998138368" lon="5.9217979945242405">
        <ele>52.3</ele>
      </trkpt>
      <trkpt lat="52.01730796135962" lon="5.921629937365651">
        <ele>51.5</ele>
      </trkpt>
      <trkpt lat="52.0178459957242" lon="5.921015962958336">
        <ele>50.4</ele>
      </trkpt>
      <trkpt lat="52.0181739795953" lon="5.9196259919553995">
        <ele>49.2</ele>
      </trkpt>
      <trkpt lat="52.01833692379296" lon="5.921146972104907">
        <ele>48.4</ele>
      </trkpt>
      <trkpt lat="52.020990969613194" lon="5.92269997112453">
        <ele>47.3</ele>
      </trkpt>
      <trkpt lat="52.023267997428775" lon="5.9234419371932745">
        <ele>45.3</ele>
      </trkpt>
      <trkpt lat="52.024039970710874" lon="5.923397932201624">
        <ele>44.8</ele>
      </trkpt>
      <trkpt lat="52.027742927893996" lon="5.925382934510708">
        <ele>45.1</ele>
      </trkpt>
      <trkpt lat="52.0303659606725" lon="5.926455985754728">
        <ele>45.3</ele>
      </trkpt>
      <trkpt lat="52.03255598433316" lon="5.9271409548819065">
        <ele>48.0</ele>
      </trkpt>
      <trkpt lat="52.03374395146966" lon="5.9386709332466125">
        <ele>49.7</ele>
      </trkpt>
      <trkpt lat="52.03391091898084" lon="5.939012998715043">
        <ele>49.7</ele>
      </trkpt>
      <trkpt lat="52.03354999423027" lon="5.938918953761458">
        <ele>49.7</ele>
      </trkpt>
      <trkpt lat="52.031498942524195" lon="5.939144929870963">
        <ele>50.0</ele>
      </trkpt>
      <trkpt lat="52.031393917277455" lon="5.939471991732717">
        <ele>50.1</ele>
      </trkpt>
      <trkpt lat="52.03155694529414" lon="5.9414139948785305">
        <ele>51.2</ele>
      </trkpt>
      <trkpt lat="52.030054992064834" lon="5.943614998832345">
        <ele>53.7</ele>
      </trkpt>
      <trkpt lat="52.030036970973015" lon="5.944128977134824">
        <ele>54.0</ele>
      </trkpt>
      <trkpt lat="52.031864980235696" lon="5.947027942165732">
        <ele>53.8</ele>
      </trkpt>
      <trkpt lat="52.03216999769211" lon="5.947756916284561">
        <ele>53.1</ele>
      </trkpt>
      <trkpt lat="52.036698991432786" lon="5.9540689922869205">
        <ele>57.6</ele>
      </trkpt>
      <trkpt lat="52.03674995340407" lon="5.95522896386683">
        <ele>59.3</ele>
      </trkpt>
      <trkpt lat="52.038847943767905" lon="5.95757195726037">
        <ele>65.4</ele>
      </trkpt>
      <trkpt lat="52.03918095678091" lon="5.958214933052659">
        <ele>66.6</ele>
      </trkpt>
      <trkpt lat="52.040050998330116" lon="5.988114941865206">
        <ele>97.9</ele>
      </trkpt>
      <trkpt lat="52.04153995960951" lon="5.987530974671245">
        <ele>98.1</ele>
      </trkpt>
      <trkpt lat="52.043766947463155" lon="5.985783934593201">
        <ele>95.0</ele>
      </trkpt>
      <trkpt lat="52.044259971007705" lon="5.985662983730435">
        <ele>94.3</ele>
      </trkpt>
      <trkpt lat="52.04642694443464" lon="5.983880991116166">
        <ele>89.6</ele>
      </trkpt>
      <trkpt lat="52.04727695323527" lon="5.98212699405849">
        <ele>87.5</ele>
      </trkpt>
      <trkpt lat="52.04768599011004" lon="5.981717957183719">
        <ele>86.8</ele>
      </trkpt>
      <trkpt lat="52.054508943110704" lon="5.977752981707454">
        <ele>70.7</ele>
      </trkpt>
      <trkpt lat="52.06094096414745" lon="5.978278946131468">
        <ele>84.8</ele>
      </trkpt>
      <trkpt lat="52.06467594020069" lon="5.980143919587135">
        <ele>87.1</ele>
      </trkpt>
      <trkpt lat="52.06854796037078" lon="5.979742929339409">
        <ele>88.7</ele>
      </trkpt>
      <trkpt lat="52.06925899721682" lon="5.979280918836594">
        <ele>88.1</ele>
      </trkpt>
      <trkpt lat="52.07016197964549" lon="5.979516953229904">
        <ele>86.1</ele>
      </trkpt>
      <trkpt lat="52.070837980136275" lon="5.979080926626921">
        <ele>83.7</ele>
      </trkpt>
      <trkpt lat="52.071679942309856" lon="5.979276979342103">
        <ele>80.6</ele>
      </trkpt>
      <trkpt lat="52.07428595982492" lon="5.979000963270664">
        <ele>72.5</ele>
      </trkpt>
      <trkpt lat="52.07806997001171" lon="5.9812629874795675">
        <ele>55.0</ele>
      </trkpt>
      <trkpt lat="52.07842997275293" lon="5.981022929772735">
        <ele>54.4</ele>
      </trkpt>
      <trkpt lat="52.0784919988364" lon="5.980413984507322">
        <ele>54.2</ele>
      </trkpt>
      <trkpt lat="52.078276919201016" lon="5.978441974148154">
        <ele>54.6</ele>
      </trkpt>
      <trkpt lat="52.077586920931935" lon="5.976838935166597">
        <ele>53.9</ele>
      </trkpt>
      <trkpt lat="52.07789897918701" lon="5.97534092143178">
        <ele>52.9</ele>
      </trkpt>
      <trkpt lat="52.077886993065476" lon="5.973744923248887">
        <ele>51.5</ele>
      </trkpt>
      <trkpt lat="52.07887697964907" lon="5.973604945465922">
        <ele>50.4</ele>
      </trkpt>
      <trkpt lat="52.07963294349611" lon="5.97392194904387">
        <ele>49.7</ele>
      </trkpt>
      <trkpt lat="52.07983293570578" lon="5.973829999566078">
        <ele>49.5</ele>
      </trkpt>
      <trkpt lat="52.08161199465394" lon="5.977298934012651">
        <ele>49.1</ele>
      </trkpt>
      <trkpt lat="52.082587983459234" lon="5.977452993392944">
        <ele>49.8</ele>
      </trkpt>
      <trkpt lat="52.08339298143983" lon="5.9781339392066">
        <ele>51.4</ele>
      </trkpt>
      <trkpt lat="52.086802991107106" lon="5.9760599210858345">
        <ele>54.5</ele>
      </trkpt>
      <trkpt lat="52.08707498386502" lon="5.977109922096133">
        <ele>53.6</ele>
      </trkpt>
      <trkpt lat="52.08743297494948" lon="5.977493980899453">
        <ele>53.1</ele>
      </trkpt>
      <trkpt lat="52.087659956887364" lon="5.97763798199594">
        <ele>52.8</ele>
      </trkpt>
      <trkpt lat="52.08860392682254" lon="5.977576961740851">
        <ele>52.4</ele>
      </trkpt>
      <trkpt lat="52.08896795287728" lon="5.977325923740864">
        <ele>52.7</ele>
      </trkpt>
      <trkpt lat="52.0891519356519" lon="5.976918982341886">
        <ele>53.1</ele>
      </trkpt>
      <trkpt lat="52.089333990588784" lon="5.973135977983475">
        <ele>56.7</ele>
      </trkpt>
      <trkpt lat="52.090219957754016" lon="5.9718499425798655">
        <ele>59.6</ele>
      </trkpt>
      <trkpt lat="52.09096393547952" lon="5.97134493291378">
        <ele>62.3</ele>
      </trkpt>
      <trkpt lat="52.091596936807036" lon="5.9711819887161255">
        <ele>64.7</ele>
      </trkpt>
      <trkpt lat="52.09214796312153" lon="5.971182994544506">
        <ele>66.5</ele>
      </trkpt>
      <trkpt lat="52.09611595608294" lon="5.9751039650291204">
        <ele>71.8</ele>
      </trkpt>
      <trkpt lat="52.098124930635095" lon="5.978235946968198">
        <ele>72.8</ele>
      </trkpt>
      <trkpt lat="52.0998739823699" lon="5.97959297709167">
        <ele>67.8</ele>
      </trkpt>
      <trkpt lat="52.101940959692" lon="5.980616994202137">
        <ele>57.1</ele>
      </trkpt>
      <trkpt lat="52.10425897501409" lon="5.980521943420172">
        <ele>49.3</ele>
      </trkpt>
      <trkpt lat="52.10522297769785" lon="5.980811957269907">
        <ele>48.4</ele>
      </trkpt>
      <trkpt lat="52.1060199290514" lon="5.982813974842429">
        <ele>49.4</ele>
      </trkpt>
      <trkpt lat="52.10784399881959" lon="5.986175956204534">
        <ele>49.2</ele>
      </trkpt>
      <trkpt lat="52.109681982547045" lon="5.985640939325094">
        <ele>44.2</ele>
      </trkpt>
      <trkpt lat="52.10997995920479" lon="5.984476944431663">
        <ele>42.3</ele>
      </trkpt>
      <trkpt lat="52.110671969130635" lon="5.984305953606963">
        <ele>40.6</ele>
      </trkpt>
      <trkpt lat="52.110671969130635" lon="5.983898928388953">
        <ele>40.1</ele>
      </trkpt>
      <trkpt lat="52.116083996370435" lon="5.976752936840057">
        <ele>46.7</ele>
      </trkpt>
      <trkpt lat="52.11367193609476" lon="5.9691749420017">
        <ele>57.3</ele>
      </trkpt>
      <trkpt lat="52.115291990339756" lon="5.968722989782691">
        <ele>59.7</ele>
      </trkpt>
      <trkpt lat="52.116729989647865" lon="5.972906984388828">
        <ele>59.5</ele>
      </trkpt>
      <trkpt lat="52.11938294582069" lon="5.975911980494857">
        <ele>61.6</ele>
      </trkpt>
      <trkpt lat="52.120423978194594" lon="5.974962981417775">
        <ele>62.6</ele>
      </trkpt>
      <trkpt lat="52.121154963970184" lon="5.974621921777725">
        <ele>62.4</ele>
      </trkpt>
      <trkpt lat="52.12189491838217" lon="5.971382986754179">
        <ele>58.1</ele>
      </trkpt>
      <trkpt lat="52.12219691835344" lon="5.97087093628943">
        <ele>56.9</ele>
      </trkpt>
      <trkpt lat="52.12212894111872" lon="5.969789922237396">
        <ele>55.2</ele>
      </trkpt>
      <trkpt lat="52.12259095162153" lon="5.968844946473837">
        <ele>53.4</ele>
      </trkpt>
      <trkpt lat="52.12253797799349" lon="5.9650909435004">
        <ele>49.6</ele>
      </trkpt>
      <trkpt lat="52.1236979495734" lon="5.965609950944781">
        <ele>49.3</ele>
      </trkpt>
      <trkpt lat="52.123669954016805" lon="5.960510987788439">
        <ele>52.7</ele>
      </trkpt>
      <trkpt lat="52.12434494867921" lon="5.960431946441531">
        <ele>51.9</ele>
      </trkpt>
      <trkpt lat="52.12468894198537" lon="5.9615059196949005">
        <ele>50.7</ele>
      </trkpt>
      <trkpt lat="52.125129997730255" lon="5.961558977141976">
        <ele>49.9</ele>
      </trkpt>
      <trkpt lat="52.12735497392714" lon="5.958833936601877">
        <ele>51.2</ele>
      </trkpt>
      <trkpt lat="52.12826097384095" lon="5.958289951086044">
        <ele>51.8</ele>
      </trkpt>
      <trkpt lat="52.129252972081304" lon="5.958073949441314">
        <ele>52.0</ele>
      </trkpt>
      <trkpt lat="52.129344921559095" lon="5.956998970359564">
        <ele>51.5</ele>
      </trkpt>
      <trkpt lat="52.13216895237565" lon="5.957825928926468">
        <ele>47.7</ele>
      </trkpt>
      <trkpt lat="52.129901982843876" lon="5.947311921045184">
        <ele>62.3</ele>
      </trkpt>
      <trkpt lat="52.133249966427684" lon="5.94596897251904">
        <ele>66.9</ele>
      </trkpt>
      <trkpt lat="52.133273938670754" lon="5.945606958121061">
        <ele>67.5</ele>
      </trkpt>
      <trkpt lat="52.133464962244034" lon="5.945536969229579">
        <ele>68.1</ele>
      </trkpt>
      <trkpt lat="52.13327997364104" lon="5.944608924910426">
        <ele>69.8</ele>
      </trkpt>
      <trkpt lat="52.134927939623594" lon="5.943771991878748">
        <ele>71.5</ele>
      </trkpt>
      <trkpt lat="52.13685695081949" lon="5.945062972605228">
        <ele>68.1</ele>
      </trkpt>
      <trkpt lat="52.13963898830116" lon="5.944706993177533">
        <ele>69.9</ele>
      </trkpt>
      <trkpt lat="52.140427976846695" lon="5.944793997332454">
        <ele>70.1</ele>
      </trkpt>
      <trkpt lat="52.143826922401786" lon="5.942715955898166">
        <ele>62.5</ele>
      </trkpt>
      <trkpt lat="52.14132593013346" lon="5.931102996692061">
        <ele>70.7</ele>
      </trkpt>
      <trkpt lat="52.14705093763769" lon="5.927268946543336">
        <ele>73.1</ele>
      </trkpt>
      <trkpt lat="52.15180196799338" lon="5.931181954219937">
        <ele>65.7</ele>
      </trkpt>
      <trkpt lat="52.15373994782567" lon="5.932153919711709">
        <ele>63.8</ele>
      </trkpt>
      <trkpt lat="52.15385092422366" lon="5.931076928973198">
        <ele>65.1</ele>
      </trkpt>
      <trkpt lat="52.15350097976625" lon="5.929914945736527">
        <ele>67.8</ele>
      </trkpt>
      <trkpt lat="52.15349796228111" lon="5.928923953324556">
        <ele>70.5</ele>
      </trkpt>
      <trkpt lat="52.15363894589245" lon="5.928544923663139">
        <ele>71.7</ele>
      </trkpt>
      <trkpt lat="52.15323795564473" lon="5.927997920662165">
        <ele>73.8</ele>
      </trkpt>
      <trkpt lat="52.15344691649079" lon="5.927446978166699">
        <ele>75.0</ele>
      </trkpt>
      <trkpt lat="52.15346292592585" lon="5.926743987947702">
        <ele>76.2</ele>
      </trkpt>
      <trkpt lat="52.152971997857094" lon="5.925881993025541">
        <ele>77.4</ele>
      </trkpt>
      <trkpt lat="52.153038969263434" lon="5.9248399548232555">
        <ele>77.7</ele>
      </trkpt>
      <trkpt lat="52.15328296646476" lon="5.924011990427971">
        <ele>77.4</ele>
      </trkpt>
      <trkpt lat="52.15279798954725" lon="5.922116925939918">
        <ele>76.1</ele>
      </trkpt>
      <trkpt lat="52.15278893709183" lon="5.921466993167996">
        <ele>75.8</ele>
      </trkpt>
      <trkpt lat="52.15045692399144" lon="5.91883298009634">
        <ele>77.8</ele>
      </trkpt>
      <trkpt lat="52.1510789450258" lon="5.918092941865325">
        <ele>77.5</ele>
      </trkpt>
      <trkpt lat="52.15208393521607" lon="5.917486930266023">
        <ele>75.2</ele>
      </trkpt>
      <trkpt lat="52.15241493657231" lon="5.917609976604581">
        <ele>74.2</ele>
      </trkpt>
      <trkpt lat="52.15471995994449" lon="5.917609976604581">
        <ele>68.2</ele>
      </trkpt>
      <trkpt lat="52.15460395440459" lon="5.916889971122146">
        <ele>68.0</ele>
      </trkpt>
      <trkpt lat="52.15479598380625" lon="5.915679959580302">
        <ele>68.5</ele>
      </trkpt>
      <trkpt lat="52.1492709685117" lon="5.8962479420006275">
        <ele>82.0</ele>
      </trkpt>
      <trkpt lat="52.14959492906928" lon="5.896229920908809">
        <ele>82.1</ele>
      </trkpt>
      <trkpt lat="52.15019691735506" lon="5.89547798037529">
        <ele>81.8</ele>
      </trkpt>
      <trkpt lat="52.15086596086621" lon="5.895628938451409">
        <ele>81.1</ele>
      </trkpt>
      <trkpt lat="52.15115496888757" lon="5.895430957898498">
        <ele>80.7</ele>
      </trkpt>
      <trkpt lat="52.152736969292164" lon="5.893207993358374">
        <ele>79.7</ele>
      </trkpt>
      <trkpt lat="52.153728967532516" lon="5.888726944103837">
        <ele>82.9</ele>
      </trkpt>
      <trkpt lat="52.15681493282318" lon="5.88441495783627">
        <ele>81.5</ele>
      </trkpt>
      <trkpt lat="52.160276994109154" lon="5.880157956853509">
        <ele>86.6</ele>
      </trkpt>
      <trkpt lat="52.16259098611772" lon="5.876018973067403">
        <ele>85.0</ele>
      </trkpt>
      <trkpt lat="52.16600292362273" lon="5.872969971969724">
        <ele>81.6</ele>
      </trkpt>
      <trkpt lat="52.16588297858834" lon="5.872778948396444">
        <ele>81.3</ele>
      </trkpt>
      <trkpt lat="52.16804592870176" lon="5.869306996464729">
        <ele>78.4</ele>
      </trkpt>
      <trkpt lat="52.166705997660756" lon="5.867080930620432">
        <ele>78.5</ele>
      </trkpt>
      <trkpt lat="52.163827987387776" lon="5.863107992336154">
        <ele>74.2</ele>
      </trkpt>
      <trkpt lat="52.1639839746058" lon="5.862447917461395">
        <ele>74.0</ele>
      </trkpt>
      <trkpt lat="52.164383959025145" lon="5.862132925540209">
        <ele>73.8</ele>
      </trkpt>
      <trkpt lat="52.16486591845751" lon="5.862002922222018">
        <ele>73.8</ele>
      </trkpt>
      <trkpt lat="52.16534192673862" lon="5.862074922770262">
        <ele>73.8</ele>
      </trkpt>
      <trkpt lat="52.1677019353956" lon="5.861267996951938">
        <ele>72.7</ele>
      </trkpt>
      <trkpt lat="52.16720899567008" lon="5.856045987457037">
        <ele>67.8</ele>
      </trkpt>
      <trkpt lat="52.170292949303985" lon="5.855934927240014">
        <ele>62.6</ele>
      </trkpt>
      <trkpt lat="52.17112292535603" lon="5.854797922074795">
        <ele>60.0</ele>
      </trkpt>
      <trkpt lat="52.17198399826884" lon="5.853963922709227">
        <ele>58.3</ele>
      </trkpt>
      <trkpt lat="52.1728219371289" lon="5.85377692244947">
        <ele>57.4</ele>
      </trkpt>
      <trkpt lat="52.17312494292855" lon="5.854373965412378">
        <ele>57.0</ele>
      </trkpt>
      <trkpt lat="52.17144596390426" lon="5.848680976778269">
        <ele>55.1</ele>
      </trkpt>
      <trkpt lat="52.17111496254802" lon="5.846872916445136">
        <ele>56.3</ele>
      </trkpt>
      <trkpt lat="52.172269988805056" lon="5.846420964226127">
        <ele>58.2</ele>
      </trkpt>
      <trkpt lat="52.17227493412793" lon="5.844529923051596">
        <ele>59.5</ele>
      </trkpt>
      <trkpt lat="52.17305797152221" lon="5.841809995472431">
        <ele>58.9</ele>
      </trkpt>
      <trkpt lat="52.1729619987309" lon="5.841325940564275">
        <ele>58.7</ele>
      </trkpt>
      <trkpt lat="52.173169953748584" lon="5.839205989614129">
        <ele>56.4</ele>
      </trkpt>
      <trkpt lat="52.17142894864082" lon="5.83607099018991">
        <ele>50.6</ele>
      </trkpt>
      <trkpt lat="52.169925989583135" lon="5.832285974174738">
        <ele>46.8</ele>
      </trkpt>
      <trkpt lat="52.16923096217215" lon="5.829500919207931">
        <ele>45.6</ele>
      </trkpt>
      <trkpt lat="52.168682953342795" lon="5.825293958187103">
        <ele>43.5</ele>
      </trkpt>
      <trkpt lat="52.16989095322788" lon="5.823992919176817">
        <ele>42.5</ele>
      </trkpt>
      <trkpt lat="52.170079965144396" lon="5.823988979682326">
        <ele>42.4</ele>
      </trkpt>
      <trkpt lat="52.170745991170406" lon="5.824821973219514">
        <ele>42.4</ele>
      </trkpt>
      <trkpt lat="52.17180797830224" lon="5.824884921312332">
        <ele>43.1</ele>
      </trkpt>
      <trkpt lat="52.17254298739135" lon="5.826007928699255">
        <ele>44.3</ele>
      </trkpt>
      <trkpt lat="52.17303793877363" lon="5.827115932479501">
        <ele>45.2</ele>
      </trkpt>
      <trkpt lat="52.1735249273479" lon="5.826967991888523">
        <ele>45.6</ele>
      </trkpt>
      <trkpt lat="52.17417092062533" lon="5.827276948839426">
        <ele>45.7</ele>
      </trkpt>
      <trkpt lat="52.17449295334518" lon="5.827205954119563">
        <ele>45.6</ele>
      </trkpt>
      <trkpt lat="52.17355594038963" lon="5.820065997540951">
        <ele>41.0</ele>
      </trkpt>
      <trkpt lat="52.17359399423003" lon="5.820351988077164">
        <ele>40.9</ele>
      </trkpt>
      <trkpt lat="52.1733539365232" lon="5.82043094560504">
        <ele>40.8</ele>
      </trkpt>
      <trkpt lat="52.17312091961503" lon="5.818764958530664">
        <ele>40.0</ele>
      </trkpt>
      <trkpt lat="52.173192920163274" lon="5.817592917010188">
        <ele>39.3</ele>
      </trkpt>
      <trkpt lat="52.173619978129864" lon="5.816702926531434">
        <ele>38.5</ele>
      </trkpt>
      <trkpt lat="52.172806933522224" lon="5.81585593521595">
        <ele>37.1</ele>
      </trkpt>
      <trkpt lat="52.17264197766781" lon="5.814305953681469">
        <ele>36.1</ele>
      </trkpt>
      <trkpt lat="52.171085961163044" lon="5.80970898270607">
        <ele>36.0</ele>
      </trkpt>
      <trkpt lat="52.170980935916305" lon="5.809605969116092">
        <ele>36.0</ele>
      </trkpt>
      <trkpt lat="52.17017694376409" lon="5.809925990179181">
        <ele>36.4</ele>
      </trkpt>
      <trkpt lat="52.16860399581492" lon="5.807312931865454">
        <ele>37.9</ele>
      </trkpt>
      <trkpt lat="52.16687296517193" lon="5.810991916805506">
        <ele>38.3</ele>
      </trkpt>
      <trkpt lat="52.166704991832376" lon="5.809653997421265">
        <ele>38.2</ele>
      </trkpt>
      <trkpt lat="52.15601596981287" lon="5.7774109952151775">
        <ele>30.1</ele>
      </trkpt>
      <trkpt lat="52.150937961414456" lon="5.75421491637826">
        <ele>25.4</ele>
      </trkpt>
      <trkpt lat="52.15095296502113" lon="5.754091953858733">
        <ele>25.4</ele>
      </trkpt>
      <trkpt lat="52.152435975149274" lon="5.754418931901455">
        <ele>25.4</ele>
      </trkpt>
      <trkpt lat="52.15440295636654" lon="5.75380495749414">
        <ele>24.6</ele>
      </trkpt>
      <trkpt lat="52.15651695616543" lon="5.755274975672364">
        <ele>24.8</ele>
      </trkpt>
      <trkpt lat="52.15971892699599" lon="5.7559039536863565">
        <ele>26.3</ele>
      </trkpt>
      <trkpt lat="52.16166294179857" lon="5.7559669855982065">
        <ele>26.6</ele>
      </trkpt>
      <trkpt lat="52.161616925150156" lon="5.75382792390883">
        <ele>26.6</ele>
      </trkpt>
      <trkpt lat="52.160109942778945" lon="5.752599975094199">
        <ele>26.2</ele>
      </trkpt>
      <trkpt lat="52.15959998778999" lon="5.751609988510609">
        <ele>25.9</ele>
      </trkpt>
      <trkpt lat="52.15756997466087" lon="5.748829962685704">
        <ele>25.0</ele>
      </trkpt>
      <trkpt lat="52.15661192312837" lon="5.745972990989685">
        <ele>23.8</ele>
      </trkpt>
      <trkpt lat="52.15816693380475" lon="5.7450339663773775">
        <ele>23.7</ele>
      </trkpt>
      <trkpt lat="52.15859793126583" lon="5.744392918422818">
        <ele>23.8</ele>
      </trkpt>
      <trkpt lat="52.16142397373915" lon="5.738561963662505">
        <ele>22.7</ele>
      </trkpt>
      <trkpt lat="52.16168498620391" lon="5.737402997910976">
        <ele>22.3</ele>
      </trkpt>
      <trkpt lat="52.16083497740328" lon="5.735914958640933">
        <ele>22.0</ele>
      </trkpt>
      <trkpt lat="52.16072592884302" lon="5.735966926440597">
        <ele>22.0</ele>
      </trkpt>
      <trkpt lat="52.15992193669081" lon="5.734813995659351">
        <ele>22.2</ele>
      </trkpt>
      <trkpt lat="52.159634940326214" lon="5.734675945714116">
        <ele>22.3</ele>
      </trkpt>
      <trkpt lat="52.15880597010255" lon="5.737068979069591">
        <ele>22.8</ele>
      </trkpt>
      <trkpt lat="52.1574529632926" lon="5.7385539170354605">
        <ele>22.6</ele>
      </trkpt>
      <trkpt lat="52.1566759608686" lon="5.73983995243907">
        <ele>22.3</ele>
      </trkpt>
      <trkpt lat="52.15614194981754" lon="5.739168981090188">
        <ele>22.1</ele>
      </trkpt>
      <trkpt lat="52.15528791770339" lon="5.740538919344544">
        <ele>21.7</ele>
      </trkpt>
      <trkpt lat="52.153790993615985" lon="5.741907935589552">
        <ele>21.3</ele>
      </trkpt>
      <trkpt lat="52.152418959885836" lon="5.739973979070783">
        <ele>21.8</ele>
      </trkpt>
      <trkpt lat="52.151406928896904" lon="5.7397219352424145">
        <ele>22.0</ele>
      </trkpt>
      <trkpt lat="52.148508969694376" lon="5.741073936223984">
        <ele>22.7</ele>
      </trkpt>
      <trkpt lat="52.147301975637674" lon="5.7368819788098335">
        <ele>22.5</ele>
      </trkpt>
      <trkpt lat="52.143972935155034" lon="5.741774998605251">
        <ele>22.4</ele>
      </trkpt>
      <trkpt lat="52.14503492228687" lon="5.745137985795736">
        <ele>23.2</ele>
      </trkpt>
      <trkpt lat="52.14277993887663" lon="5.7473499700427055">
        <ele>23.2</ele>
      </trkpt>
      <trkpt lat="52.14073995128274" lon="5.748999947682023">
        <ele>23.5</ele>
      </trkpt>
      <trkpt lat="52.138451943174005" lon="5.749294990673661">
        <ele>23.5</ele>
      </trkpt>
      <trkpt lat="52.137699918821454" lon="5.75305393896997">
        <ele>23.7</ele>
      </trkpt>
      <trkpt lat="52.13713891804218" lon="5.753292990848422">
        <ele>23.9</ele>
      </trkpt>
      <trkpt lat="52.13714696466923" lon="5.757014974951744">
        <ele>24.6</ele>
      </trkpt>
      <trkpt lat="52.13635797612369" lon="5.759677989408374">
        <ele>25.4</ele>
      </trkpt>
      <trkpt lat="52.13578096590936" lon="5.7604349590837955">
        <ele>25.6</ele>
      </trkpt>
      <trkpt lat="52.135699996724725" lon="5.761128980666399">
        <ele>25.7</ele>
      </trkpt>
      <trkpt lat="52.135249972343445" lon="5.761637929826975">
        <ele>25.6</ele>
      </trkpt>
      <trkpt lat="52.13489893823862" lon="5.762403951957822">
        <ele>25.5</ele>
      </trkpt>
      <trkpt lat="52.13438596576452" lon="5.762839978560805">
        <ele>25.4</ele>
      </trkpt>
      <trkpt lat="52.13253398425877" lon="5.763746984302998">
        <ele>25.1</ele>
      </trkpt>
      <trkpt lat="52.13148691691458" lon="5.764810983091593">
        <ele>25.2</ele>
      </trkpt>
      <trkpt lat="52.1298039983958" lon="5.764929922297597">
        <ele>26.0</ele>
      </trkpt>
      <trkpt lat="52.12894493713975" lon="5.763535927981138">
        <ele>26.5</ele>
      </trkpt>
      <trkpt lat="52.12836499325931" lon="5.763155976310372">
        <ele>26.6</ele>
      </trkpt>
      <trkpt lat="52.12756896391511" lon="5.7581899501383305">
        <ele>25.5</ele>
      </trkpt>
      <trkpt lat="52.125945976004004" lon="5.751394992694259">
        <ele>23.9</ele>
      </trkpt>
      <trkpt lat="52.124058958142996" lon="5.751875946298242">
        <ele>23.8</ele>
      </trkpt>
      <trkpt lat="52.1239429526031" lon="5.7523969653993845">
        <ele>23.7</ele>
      </trkpt>
      <trkpt lat="52.11491899564862" lon="5.756584983319044">
        <ele>23.8</ele>
      </trkpt>
      <trkpt lat="52.108542965725064" lon="5.7599949929863214">
        <ele>25.3</ele>
      </trkpt>
      <trkpt lat="52.10674496367574" lon="5.759838921949267">
        <ele>25.3</ele>
      </trkpt>
      <trkpt lat="52.10567694157362" lon="5.75947598554194">
        <ele>25.3</ele>
      </trkpt>
      <trkpt lat="52.10539497435093" lon="5.760618941858411">
        <ele>25.2</ele>
      </trkpt>
      <trkpt lat="52.104056971147656" lon="5.761313969269395">
        <ele>25.3</ele>
      </trkpt>
      <trkpt lat="52.102873949334025" lon="5.761234927922487">
        <ele>25.2</ele>
      </trkpt>
      <trkpt lat="52.10223097354174" lon="5.761564923450351">
        <ele>25.2</ele>
      </trkpt>
      <trkpt lat="52.10090495646" lon="5.763220936059952">
        <ele>25.4</ele>
      </trkpt>
      <trkpt lat="52.100722985342145" lon="5.763270976021886">
        <ele>25.5</ele>
      </trkpt>
      <trkpt lat="52.099583968520164" lon="5.764890946447849">
        <ele>25.6</ele>
      </trkpt>
      <trkpt lat="52.09511197172105" lon="5.764189967885613">
        <ele>25.9</ele>
      </trkpt>
      <trkpt lat="52.088565956801176" lon="5.759373977780342">
        <ele>24.2</ele>
      </trkpt>
      <trkpt lat="52.08744999021292" lon="5.764327934011817">
        <ele>24.7</ele>
      </trkpt>
      <trkpt lat="52.08745493553579" lon="5.764802936464548">
        <ele>24.9</ele>
      </trkpt>
      <trkpt lat="52.083449978381395" lon="5.7637319806963205">
        <ele>25.4</ele>
      </trkpt>
      <trkpt lat="52.08307597786188" lon="5.762371933087707">
        <ele>25.1</ele>
      </trkpt>
      <trkpt lat="52.080699959769845" lon="5.760756991803646">
        <ele>24.6</ele>
      </trkpt>
      <trkpt lat="52.0799389667809" lon="5.760397994890809">
        <ele>24.5</ele>
      </trkpt>
      <trkpt lat="52.0774419978261" lon="5.760921947658062">
        <ele>24.5</ele>
      </trkpt>
      <trkpt lat="52.07379595376551" lon="5.758344931527972">
        <ele>25.8</ele>
      </trkpt>
      <trkpt lat="52.07274092361331" lon="5.75791091658175">
        <ele>26.8</ele>
      </trkpt>
      <trkpt lat="52.07168597728014" lon="5.757783930748701">
        <ele>28.0</ele>
      </trkpt>
      <trkpt lat="52.07108692266047" lon="5.757469944655895">
        <ele>28.8</ele>
      </trkpt>
      <trkpt lat="52.07021092996001" lon="5.757581926882267">
        <ele>30.0</ele>
      </trkpt>
      <trkpt lat="52.06876597367227" lon="5.757488971576095">
        <ele>31.3</ele>
      </trkpt>
      <trkpt lat="52.06596599891782" lon="5.760198924690485">
        <ele>30.8</ele>
      </trkpt>
      <trkpt lat="52.064584996551275" lon="5.76132494956255">
        <ele>32.5</ele>
      </trkpt>
      <trkpt lat="52.06382492557168" lon="5.761648993939161">
        <ele>34.2</ele>
      </trkpt>
      <trkpt lat="52.06261591985822" lon="5.761569952592254">
        <ele>36.6</ele>
      </trkpt>
      <trkpt lat="52.06223898567259" lon="5.761361997574568">
        <ele>37.3</ele>
      </trkpt>
      <trkpt lat="52.06216296181083" lon="5.761107942089438">
        <ele>37.6</ele>
      </trkpt>
      <trkpt lat="52.06141395494342" lon="5.756461936980486">
        <ele>42.5</ele>
      </trkpt>
      <trkpt lat="52.06065799109638" lon="5.754553964361548">
        <ele>41.9</ele>
      </trkpt>
      <trkpt lat="52.05976992845535" lon="5.756461936980486">
        <ele>38.2</ele>
      </trkpt>
      <trkpt lat="52.059404980391264" lon="5.756929982453585">
        <ele>37.0</ele>
      </trkpt>
      <trkpt lat="52.058634934946895" lon="5.757439937442541">
        <ele>35.0</ele>
      </trkpt>
      <trkpt lat="52.056938940659165" lon="5.759632978588343">
        <ele>30.8</ele>
      </trkpt>
      <trkpt lat="52.05569892190397" lon="5.762194991111755">
        <ele>27.9</ele>
      </trkpt>
      <trkpt lat="52.05308091826737" lon="5.765852937474847">
        <ele>24.4</ele>
      </trkpt>
      <trkpt lat="52.05136396922171" lon="5.768963964655995">
        <ele>26.1</ele>
      </trkpt>
      <trkpt lat="52.04935792833567" lon="5.771584985777736">
        <ele>31.8</ele>
      </trkpt>
      <trkpt lat="52.048344975337386" lon="5.772483944892883">
        <ele>34.0</ele>
      </trkpt>
      <trkpt lat="52.047138987109065" lon="5.774872954934835">
        <ele>35.9</ele>
      </trkpt>
      <trkpt lat="52.04459097236395" lon="5.776246916502714">
        <ele>34.8</ele>
      </trkpt>
      <trkpt lat="52.043657982721925" lon="5.777163980528712">
        <ele>35.0</ele>
      </trkpt>
      <trkpt lat="52.04403894022107" lon="5.779740996658802">
        <ele>37.1</ele>
      </trkpt>
      <trkpt lat="52.04345497302711" lon="5.783496927469969">
        <ele>38.2</ele>
      </trkpt>
      <trkpt lat="52.04261192120612" lon="5.78734396956861">
        <ele>38.0</ele>
      </trkpt>
      <trkpt lat="52.04243699088693" lon="5.787382945418358">
        <ele>38.0</ele>
      </trkpt>
      <trkpt lat="52.04186492599547" lon="5.792064992710948">
        <ele>35.2</ele>
      </trkpt>
      <trkpt lat="52.041184986010194" lon="5.7921649888157845">
        <ele>34.0</ele>
      </trkpt>
      <trkpt lat="52.040844932198524" lon="5.793029917404056">
        <ele>33.0</ele>
      </trkpt>
      <trkpt lat="52.040372947230935" lon="5.797716993838549">
        <ele>31.5</ele>
      </trkpt>
      <trkpt lat="52.04044494777918" lon="5.797864934429526">
        <ele>31.6</ele>
      </trkpt>
      <trkpt lat="52.04137491993606" lon="5.798039948567748">
        <ele>31.7</ele>
      </trkpt>
      <trkpt lat="52.0414939429611" lon="5.79819593578577">
        <ele>31.8</ele>
      </trkpt>
      <trkpt lat="52.041425965726376" lon="5.800507999956608">
        <ele>32.4</ele>
      </trkpt>
      <trkpt lat="52.041834918782115" lon="5.804866924881935">
        <ele>34.3</ele>
      </trkpt>
      <trkpt lat="52.02878094278276" lon="5.791612956672907">
        <ele>37.4</ele>
      </trkpt>
      <trkpt lat="52.02433694154024" lon="5.798204988241196">
        <ele>37.1</ele>
      </trkpt>
      <trkpt lat="52.02231799252331" lon="5.801805937662721">
        <ele>34.7</ele>
      </trkpt>
      <trkpt lat="52.02210693620145" lon="5.801771990954876">
        <ele>34.7</ele>
      </trkpt>
      <trkpt lat="52.0217349473387" lon="5.8013559971004725">
        <ele>34.7</ele>
      </trkpt>
      <trkpt lat="52.021273942664266" lon="5.801793951541185">
        <ele>34.9</ele>
      </trkpt>
      <trkpt lat="52.02127696014941" lon="5.802802965044975">
        <ele>34.8</ele>
      </trkpt>
      <trkpt lat="52.02050398103893" lon="5.804385971277952">
        <ele>33.5</ele>
      </trkpt>
      <trkpt lat="52.01858293265104" lon="5.807390967383981">
        <ele>29.6</ele>
      </trkpt>
      <trkpt lat="52.01693798415363" lon="5.810981942340732">
        <ele>31.9</ele>
      </trkpt>
      <trkpt lat="52.01516596600413" lon="5.816706949844956">
        <ele>31.0</ele>
      </trkpt>
      <trkpt lat="52.014307994395494" lon="5.820167921483517">
        <ele>34.1</ele>
      </trkpt>
      <trkpt lat="52.01299094595015" lon="5.824223924428225">
        <ele>37.3</ele>
      </trkpt>
      <trkpt lat="52.012507980689406" lon="5.826225942000747">
        <ele>38.1</ele>
      </trkpt>
      <trkpt lat="52.01122395694256" lon="5.830024955794215">
        <ele>37.9</ele>
      </trkpt>
      <trkpt lat="52.00672295875847" lon="5.845019929111004">
        <ele>33.1</ele>
      </trkpt>
      <trkpt lat="52.00323692522943" lon="5.855704927816987">
        <ele>54.6</ele>
      </trkpt>
      <trkpt lat="51.996263936161995" lon="5.870723957195878">
        <ele>69.1</ele>
      </trkpt>
      <trkpt lat="51.99260297231376" lon="5.879218932241201">
        <ele>66.4</ele>
      </trkpt>
      <trkpt lat="51.9910659827292" lon="5.885998969897628">
        <ele>53.3</ele>
      </trkpt>
      <trkpt lat="51.990379923954606" lon="5.887942984700203">
        <ele>53.3</ele>
      </trkpt>
      <trkpt lat="51.98933394625783" lon="5.8900329284369946">
        <ele>51.1</ele>
      </trkpt>
      <trkpt lat="51.98891292326152" lon="5.8915069699287415">
        <ele>47.0</ele>
      </trkpt>
      <trkpt lat="51.986744944006205" lon="5.892023965716362">
        <ele>36.7</ele>
      </trkpt>
      <trkpt lat="51.98647496290505" lon="5.892745982855558">
        <ele>34.6</ele>
      </trkpt>
      <trkpt lat="51.98576593771577" lon="5.896327989175916">
        <ele>30.9</ele>
      </trkpt>
      <trkpt lat="51.98583693243563" lon="5.896843979135156">
        <ele>30.6</ele>
      </trkpt>
      <trkpt lat="51.98379694484174" lon="5.897023938596249">
        <ele>27.2</ele>
      </trkpt>
      <trkpt lat="51.983628971502185" lon="5.899081947281957">
        <ele>25.6</ele>
      </trkpt>
      <trkpt lat="51.984470933675766" lon="5.899283951148391">
        <ele>25.5</ele>
      </trkpt>
      <trkpt lat="51.9844329636544" lon="5.901159988716245">
        <ele>25.1</ele>
      </trkpt>
    </trkseg>
  </trk>
</gpx>
