<?xml version="1.0" encoding="UTF-8"?>
<gpx creator="Garmin Connect" version="1.1"
  xsi:schemaLocation="http://www.topografix.com/GPX/1/1 http://www.topografix.com/GPX/11.xsd"
  xmlns:ns3="http://www.garmin.com/xmlschemas/TrackPointExtension/v1"
  xmlns="http://www.topografix.com/GPX/1/1"
  xmlns:xsi="http://www.w3.org/2001/XMLSchema-instance" xmlns:ns2="http://www.garmin.com/xmlschemas/GpxExtensions/v3">
  <metadata>
    <name>MTB Ede - Kronkelend Veluwedal – MTB Ede - Double track path Circuit à partir de Lunteren</name>
    <link href="connect.garmin.com">
      <text>Garmin Connect</text>
    </link>
    <time>2025-05-13T07:10:48.000Z</time>
  </metadata>
  <trk>
    <name>MTB Ede - Kronkelend Veluwedal – MTB Ede - Double track path Circuit à partir de Lunteren</name>
    <trkseg>
      <trkpt lat="52.08513096906245" lon="5.624361969530582">
        <ele>18.8</ele>
      </trkpt>
      <trkpt lat="52.084201918914914" lon="5.624971920624375">
        <ele>19.2</ele>
      </trkpt>
      <trkpt lat="52.085084952414036" lon="5.626568924635649">
        <ele>20.6</ele>
      </trkpt>
      <trkpt lat="52.084807930514216" lon="5.6281619891524315">
        <ele>21.7</ele>
      </trkpt>
      <trkpt lat="52.08479795604944" lon="5.630125952884555">
        <ele>22.2</ele>
      </trkpt>
      <trkpt lat="52.08457893691957" lon="5.6307239178568125">
        <ele>22.2</ele>
      </trkpt>
      <trkpt lat="52.083860943093896" lon="5.631780959665775">
        <ele>22.5</ele>
      </trkpt>
      <trkpt lat="52.083942918106914" lon="5.633520958945155">
        <ele>21.2</ele>
      </trkpt>
      <trkpt lat="52.08312291651964" lon="5.63550696708262">
        <ele>21.3</ele>
      </trkpt>
      <trkpt lat="52.083450984209776" lon="5.637492975220084">
        <ele>22.7</ele>
      </trkpt>
      <trkpt lat="52.082887971773744" lon="5.638775993138552">
        <ele>23.8</ele>
      </trkpt>
      <trkpt lat="52.082846984267235" lon="5.63974192366004">
        <ele>23.9</ele>
      </trkpt>
      <trkpt lat="52.0831769797951" lon="5.640326980501413">
        <ele>24.1</ele>
      </trkpt>
      <trkpt lat="52.083275970071554" lon="5.640283981338143">
        <ele>24.3</ele>
      </trkpt>
      <trkpt lat="52.08333497866988" lon="5.641088979318738">
        <ele>25.2</ele>
      </trkpt>
      <trkpt lat="52.08376094698906" lon="5.642499988898635">
        <ele>27.2</ele>
      </trkpt>
      <trkpt lat="52.08333699032664" lon="5.643603969365358">
        <ele>29.2</ele>
      </trkpt>
      <trkpt lat="52.08336699754" lon="5.645243972539902">
        <ele>30.7</ele>
      </trkpt>
      <trkpt lat="52.082591922953725" lon="5.645923996344209">
        <ele>31.7</ele>
      </trkpt>
      <trkpt lat="52.08213192410767" lon="5.646687922999263">
        <ele>33.0</ele>
      </trkpt>
      <trkpt lat="52.081537982448936" lon="5.648378971964121">
        <ele>36.4</ele>
      </trkpt>
      <trkpt lat="52.08152691833675" lon="5.649310955777764">
        <ele>38.3</ele>
      </trkpt>
      <trkpt lat="52.081301948055625" lon="5.649783946573734">
        <ele>39.0</ele>
      </trkpt>
      <trkpt lat="52.0802759192884" lon="5.650748955085874">
        <ele>39.6</ele>
      </trkpt>
      <trkpt lat="52.07991692237556" lon="5.650593973696232">
        <ele>39.2</ele>
      </trkpt>
      <trkpt lat="52.07960997708142" lon="5.6507969833910465">
        <ele>38.9</ele>
      </trkpt>
      <trkpt lat="52.07940093241632" lon="5.651291934773326">
        <ele>38.4</ele>
      </trkpt>
      <trkpt lat="52.07939992658794" lon="5.652104979380965">
        <ele>37.8</ele>
      </trkpt>
      <trkpt lat="52.08049493841827" lon="5.655346931889653">
        <ele>35.3</ele>
      </trkpt>
      <trkpt lat="52.0805399492383" lon="5.655971970409155">
        <ele>34.8</ele>
      </trkpt>
      <trkpt lat="52.07999998703599" lon="5.656644953414798">
        <ele>33.9</ele>
      </trkpt>
      <trkpt lat="52.08094093948603" lon="5.659353984519839">
        <ele>34.1</ele>
      </trkpt>
      <trkpt lat="52.081276969984174" lon="5.660844957455993">
        <ele>34.4</ele>
      </trkpt>
      <trkpt lat="52.08289995789528" lon="5.665009925141931">
        <ele>33.3</ele>
      </trkpt>
      <trkpt lat="52.084181969985366" lon="5.663062976673245">
        <ele>32.9</ele>
      </trkpt>
      <trkpt lat="52.088995948433876" lon="5.686487965285778">
        <ele>40.0</ele>
      </trkpt>
      <trkpt lat="52.09229892119765" lon="5.693833949044347">
        <ele>38.8</ele>
      </trkpt>
      <trkpt lat="52.091979989781976" lon="5.698345927521586">
        <ele>37.7</ele>
      </trkpt>
      <trkpt lat="52.08896594122052" lon="5.71302498690784">
        <ele>32.0</ele>
      </trkpt>
      <trkpt lat="52.089742943644524" lon="5.714908987283707">
        <ele>31.8</ele>
      </trkpt>
      <trkpt lat="52.090950943529606" lon="5.7204619981348515">
        <ele>34.3</ele>
      </trkpt>
      <trkpt lat="52.09075899794698" lon="5.722957961261272">
        <ele>34.5</ele>
      </trkpt>
      <trkpt lat="52.090107975527644" lon="5.727136926725507">
        <ele>32.3</ele>
      </trkpt>
      <trkpt lat="52.086500991135836" lon="5.723909977823496">
        <ele>35.2</ele>
      </trkpt>
      <trkpt lat="52.08520892076194" lon="5.722485976293683">
        <ele>35.9</ele>
      </trkpt>
      <trkpt lat="52.08457692526281" lon="5.723908971995115">
        <ele>36.8</ele>
      </trkpt>
      <trkpt lat="52.08311394788325" lon="5.724352961406112">
        <ele>37.0</ele>
      </trkpt>
      <trkpt lat="52.082224963232875" lon="5.725240940228105">
        <ele>36.6</ele>
      </trkpt>
      <trkpt lat="52.081346958875656" lon="5.726572992280126">
        <ele>36.2</ele>
      </trkpt>
      <trkpt lat="52.076829951256514" lon="5.72899091988802">
        <ele>45.4</ele>
      </trkpt>
      <trkpt lat="52.07598295994103" lon="5.729748979210854">
        <ele>47.5</ele>
      </trkpt>
      <trkpt lat="52.07588095217943" lon="5.7295469753444195">
        <ele>47.8</ele>
      </trkpt>
      <trkpt lat="52.075713984668255" lon="5.72957094758749">
        <ele>48.1</ele>
      </trkpt>
      <trkpt lat="52.07564692944288" lon="5.729340948164463">
        <ele>48.2</ele>
      </trkpt>
      <trkpt lat="52.07622393965721" lon="5.729248998686671">
        <ele>48.8</ele>
      </trkpt>
      <trkpt lat="52.07633592188358" lon="5.728248953819275">
        <ele>49.1</ele>
      </trkpt>
      <trkpt lat="52.07583694718778" lon="5.726204942911863">
        <ele>49.6</ele>
      </trkpt>
      <trkpt lat="52.07566193304956" lon="5.7259719260036945">
        <ele>49.7</ele>
      </trkpt>
      <trkpt lat="52.07575195468962" lon="5.725579988211393">
        <ele>49.8</ele>
      </trkpt>
      <trkpt lat="52.0755129866302" lon="5.725158965215087">
        <ele>50.0</ele>
      </trkpt>
      <trkpt lat="52.07559194415808" lon="5.7243709824979305">
        <ele>50.4</ele>
      </trkpt>
      <trkpt lat="52.07546797581017" lon="5.723760947585106">
        <ele>50.6</ele>
      </trkpt>
      <trkpt lat="52.073289938271046" lon="5.71938693523407">
        <ele>52.8</ele>
      </trkpt>
      <trkpt lat="52.073435951024294" lon="5.719140926375985">
        <ele>52.8</ele>
      </trkpt>
      <trkpt lat="52.07338792271912" lon="5.7185659278184175">
        <ele>52.6</ele>
      </trkpt>
      <trkpt lat="52.07286698743701" lon="5.718136942014098">
        <ele>51.7</ele>
      </trkpt>
      <trkpt lat="52.072944939136505" lon="5.717264972627163">
        <ele>50.8</ele>
      </trkpt>
      <trkpt lat="52.072493992745876" lon="5.7167349848896265">
        <ele>48.9</ele>
      </trkpt>
      <trkpt lat="52.072687949985266" lon="5.716228969395161">
        <ele>47.7</ele>
      </trkpt>
      <trkpt lat="52.07039893604815" lon="5.711636943742633">
        <ele>35.6</ele>
      </trkpt>
      <trkpt lat="52.070129960775375" lon="5.711850933730602">
        <ele>34.9</ele>
      </trkpt>
      <trkpt lat="52.06964791752398" lon="5.713527984917164">
        <ele>33.5</ele>
      </trkpt>
      <trkpt lat="52.06946795806289" lon="5.713578946888447">
        <ele>33.3</ele>
      </trkpt>
      <trkpt lat="52.0691529661417" lon="5.7133089657872915">
        <ele>33.2</ele>
      </trkpt>
      <trkpt lat="52.069095969200134" lon="5.712883919477463">
        <ele>33.2</ele>
      </trkpt>
      <trkpt lat="52.06943795084953" lon="5.711749931797385">
        <ele>33.0</ele>
      </trkpt>
      <trkpt lat="52.069313982501626" lon="5.710539920255542">
        <ele>32.9</ele>
      </trkpt>
      <trkpt lat="52.06942898221314" lon="5.709046935662627">
        <ele>32.1</ele>
      </trkpt>
      <trkpt lat="52.06726795993745" lon="5.710154939442873">
        <ele>28.9</ele>
      </trkpt>
      <trkpt lat="52.06355192698538" lon="5.693559944629669">
        <ele>38.2</ele>
      </trkpt>
      <trkpt lat="52.06332796253264" lon="5.693167923018336">
        <ele>39.3</ele>
      </trkpt>
      <trkpt lat="52.06272999756038" lon="5.693152919411659">
        <ele>41.2</ele>
      </trkpt>
      <trkpt lat="52.062608962878585" lon="5.692542968317866">
        <ele>42.4</ele>
      </trkpt>
      <trkpt lat="52.0621729362756" lon="5.692061930894852">
        <ele>43.5</ele>
      </trkpt>
      <trkpt lat="52.061433987692" lon="5.690232999622822">
        <ele>44.7</ele>
      </trkpt>
      <trkpt lat="52.061042971909046" lon="5.690232999622822">
        <ele>44.9</ele>
      </trkpt>
      <trkpt lat="52.06075496971607" lon="5.6907249335199594">
        <ele>44.7</ele>
      </trkpt>
      <trkpt lat="52.059944942593575" lon="5.694025978446007">
        <ele>40.8</ele>
      </trkpt>
      <trkpt lat="52.059709997847676" lon="5.693919947370887">
        <ele>40.3</ele>
      </trkpt>
      <trkpt lat="52.059364998713136" lon="5.695483926683664">
        <ele>37.5</ele>
      </trkpt>
      <trkpt lat="52.05887499265373" lon="5.695667993277311">
        <ele>36.5</ele>
      </trkpt>
      <trkpt lat="52.058825958520174" lon="5.696116928011179">
        <ele>36.0</ele>
      </trkpt>
      <trkpt lat="52.053158953785896" lon="5.696061942726374">
        <ele>40.4</ele>
      </trkpt>
      <trkpt lat="52.05290297046304" lon="5.69472192786634">
        <ele>43.3</ele>
      </trkpt>
      <trkpt lat="52.052036952227354" lon="5.694740954786539">
        <ele>46.3</ele>
      </trkpt>
      <trkpt lat="52.05183997750282" lon="5.694218929857016">
        <ele>47.5</ele>
      </trkpt>
      <trkpt lat="52.05170092172921" lon="5.692605916410685">
        <ele>49.5</ele>
      </trkpt>
      <trkpt lat="52.05119792371988" lon="5.690513961017132">
        <ele>48.9</ele>
      </trkpt>
      <trkpt lat="52.05099591985345" lon="5.690238950774074">
        <ele>48.4</ele>
      </trkpt>
      <trkpt lat="52.050599958747625" lon="5.690361997112632">
        <ele>47.6</ele>
      </trkpt>
      <trkpt lat="52.050187988206744" lon="5.690163932740688">
        <ele>46.4</ele>
      </trkpt>
      <trkpt lat="52.0498379599303" lon="5.690292930230498">
        <ele>45.4</ele>
      </trkpt>
      <trkpt lat="52.049610977992415" lon="5.689988918602467">
        <ele>44.6</ele>
      </trkpt>
      <trkpt lat="52.04953495413065" lon="5.690192934125662">
        <ele>44.4</ele>
      </trkpt>
      <trkpt lat="52.04937796108425" lon="5.68988892249763">
        <ele>43.7</ele>
      </trkpt>
      <trkpt lat="52.049227925017476" lon="5.689946925267577">
        <ele>43.5</ele>
      </trkpt>
      <trkpt lat="52.04878896474838" lon="5.68769596517086">
        <ele>41.3</ele>
      </trkpt>
      <trkpt lat="52.0481869764626" lon="5.687558921054006">
        <ele>41.0</ele>
      </trkpt>
      <trkpt lat="52.04793895594776" lon="5.687590939924121">
        <ele>41.0</ele>
      </trkpt>
      <trkpt lat="52.0479039195925" lon="5.687777940183878">
        <ele>41.1</ele>
      </trkpt>
      <trkpt lat="52.04775597900152" lon="5.687390947714448">
        <ele>41.3</ele>
      </trkpt>
      <trkpt lat="52.04733093269169" lon="5.686960956081748">
        <ele>41.8</ele>
      </trkpt>
      <trkpt lat="52.04715692438185" lon="5.686250925064087">
        <ele>42.4</ele>
      </trkpt>
      <trkpt lat="52.0472389832139" lon="5.684698931872845">
        <ele>43.4</ele>
      </trkpt>
      <trkpt lat="52.04643893055618" lon="5.6847449485212564">
        <ele>44.3</ele>
      </trkpt>
      <trkpt lat="52.04525297507644" lon="5.685564950108528">
        <ele>45.9</ele>
      </trkpt>
      <trkpt lat="52.043742975220084" lon="5.687830997630954">
        <ele>48.4</ele>
      </trkpt>
      <trkpt lat="52.04323695972562" lon="5.689226919785142">
        <ele>50.0</ele>
      </trkpt>
      <trkpt lat="52.042689956724644" lon="5.690167956054211">
        <ele>51.7</ele>
      </trkpt>
      <trkpt lat="52.04282398335636" lon="5.690626949071884">
        <ele>52.3</ele>
      </trkpt>
      <trkpt lat="52.04272197559476" lon="5.691028945147991">
        <ele>52.9</ele>
      </trkpt>
      <trkpt lat="52.042886931449175" lon="5.69128492847085">
        <ele>53.3</ele>
      </trkpt>
      <trkpt lat="52.04261896200478" lon="5.691441921517253">
        <ele>53.7</ele>
      </trkpt>
      <trkpt lat="52.04272792674601" lon="5.691901920363307">
        <ele>54.2</ele>
      </trkpt>
      <trkpt lat="52.04257193952799" lon="5.692191934213042">
        <ele>54.5</ele>
      </trkpt>
      <trkpt lat="52.042820965871215" lon="5.692663919180632">
        <ele>54.3</ele>
      </trkpt>
      <trkpt lat="52.042543943971395" lon="5.6931189727038145">
        <ele>54.0</ele>
      </trkpt>
      <trkpt lat="52.04238493926823" lon="5.692539950832725">
        <ele>53.7</ele>
      </trkpt>
      <trkpt lat="52.04194396734238" lon="5.692295953631401">
        <ele>53.1</ele>
      </trkpt>
      <trkpt lat="52.04194991849363" lon="5.691911978647113">
        <ele>52.7</ele>
      </trkpt>
      <trkpt lat="52.041749926283956" lon="5.691768983379006">
        <ele>52.3</ele>
      </trkpt>
      <trkpt lat="52.04139495268464" lon="5.691964952275157">
        <ele>51.5</ele>
      </trkpt>
      <trkpt lat="52.039831979200244" lon="5.691736964508891">
        <ele>48.4</ele>
      </trkpt>
      <trkpt lat="52.039532996714115" lon="5.6915059592574835">
        <ele>48.0</ele>
      </trkpt>
      <trkpt lat="52.03922395594418" lon="5.690815960988402">
        <ele>47.2</ele>
      </trkpt>
      <trkpt lat="52.0388759393245" lon="5.686808992177248">
        <ele>44.5</ele>
      </trkpt>
      <trkpt lat="52.03829096630216" lon="5.686959950253367">
        <ele>44.4</ele>
      </trkpt>
      <trkpt lat="52.0380159560591" lon="5.68674998357892">
        <ele>44.5</ele>
      </trkpt>
      <trkpt lat="52.0377429574728" lon="5.687140999361873">
        <ele>44.9</ele>
      </trkpt>
      <trkpt lat="52.037554951384664" lon="5.687026921659708">
        <ele>45.2</ele>
      </trkpt>
      <trkpt lat="52.03494591638446" lon="5.691891945898533">
        <ele>56.4</ele>
      </trkpt>
      <trkpt lat="52.03498397022486" lon="5.694932984188199">
        <ele>57.3</ele>
      </trkpt>
      <trkpt lat="52.035490991547704" lon="5.697609996423125">
        <ele>57.1</ele>
      </trkpt>
      <trkpt lat="52.03573691658676" lon="5.700442995876074">
        <ele>56.7</ele>
      </trkpt>
      <trkpt lat="52.03499495051801" lon="5.708994967862964">
        <ele>43.8</ele>
      </trkpt>
      <trkpt lat="52.03398099169135" lon="5.712129967287183">
        <ele>40.9</ele>
      </trkpt>
      <trkpt lat="52.03378393314779" lon="5.71261796168983">
        <ele>40.5</ele>
      </trkpt>
      <trkpt lat="52.03087097033858" lon="5.716079939156771">
        <ele>36.9</ele>
      </trkpt>
      <trkpt lat="52.021593963727355" lon="5.723461965098977">
        <ele>33.3</ele>
      </trkpt>
      <trkpt lat="52.01987097971141" lon="5.741079971194267">
        <ele>31.2</ele>
      </trkpt>
      <trkpt lat="52.02053398825228" lon="5.746894916519523">
        <ele>27.7</ele>
      </trkpt>
      <trkpt lat="52.022067960351706" lon="5.745757995173335">
        <ele>26.4</ele>
      </trkpt>
      <trkpt lat="52.02229695394635" lon="5.745912976562977">
        <ele>26.2</ele>
      </trkpt>
      <trkpt lat="52.02249996364117" lon="5.746432989835739">
        <ele>25.9</ele>
      </trkpt>
      <trkpt lat="52.022772962227464" lon="5.746254958212376">
        <ele>25.8</ele>
      </trkpt>
      <trkpt lat="52.022988963872194" lon="5.746719986200333">
        <ele>25.7</ele>
      </trkpt>
      <trkpt lat="52.02341593801975" lon="5.7467409409582615">
        <ele>25.8</ele>
      </trkpt>
      <trkpt lat="52.02438094653189" lon="5.7457269821316">
        <ele>25.9</ele>
      </trkpt>
      <trkpt lat="52.024685963988304" lon="5.746067957952619">
        <ele>25.9</ele>
      </trkpt>
      <trkpt lat="52.02512299641967" lon="5.746010961011052">
        <ele>26.0</ele>
      </trkpt>
      <trkpt lat="52.02573194168508" lon="5.7468849420547485">
        <ele>26.3</ele>
      </trkpt>
      <trkpt lat="52.026041988283396" lon="5.74688795953989">
        <ele>26.4</ele>
      </trkpt>
      <trkpt lat="52.02605196274817" lon="5.747555997222662">
        <ele>26.6</ele>
      </trkpt>
      <trkpt lat="52.02701697126031" lon="5.749007994309068">
        <ele>27.0</ele>
      </trkpt>
      <trkpt lat="52.02734696678817" lon="5.749108996242285">
        <ele>27.1</ele>
      </trkpt>
      <trkpt lat="52.02783697284758" lon="5.748897939920425">
        <ele>27.1</ele>
      </trkpt>
      <trkpt lat="52.02867398969829" lon="5.749282920733094">
        <ele>26.7</ele>
      </trkpt>
      <trkpt lat="52.02931897714734" lon="5.748730972409248">
        <ele>27.0</ele>
      </trkpt>
      <trkpt lat="52.02976891770959" lon="5.748077938333154">
        <ele>27.2</ele>
      </trkpt>
      <trkpt lat="52.030787989497185" lon="5.748003926128149">
        <ele>27.5</ele>
      </trkpt>
      <trkpt lat="52.0313969347626" lon="5.747686922550201">
        <ele>28.3</ele>
      </trkpt>
      <trkpt lat="52.03184997662902" lon="5.746726943179965">
        <ele>28.6</ele>
      </trkpt>
      <trkpt lat="52.032381976023316" lon="5.746918972581625">
        <ele>28.9</ele>
      </trkpt>
      <trkpt lat="52.032960997894406" lon="5.74658595956862">
        <ele>29.2</ele>
      </trkpt>
      <trkpt lat="52.03332192264497" lon="5.747957993298769">
        <ele>29.6</ele>
      </trkpt>
      <trkpt lat="52.032274939119816" lon="5.748833985999227">
        <ele>29.8</ele>
      </trkpt>
      <trkpt lat="52.030832916498184" lon="5.751696992665529">
        <ele>31.0</ele>
      </trkpt>
      <trkpt lat="52.0315039716661" lon="5.7529279589653015">
        <ele>30.6</ele>
      </trkpt>
      <trkpt lat="52.03084196895361" lon="5.754221957176924">
        <ele>29.7</ele>
      </trkpt>
      <trkpt lat="52.03288799151778" lon="5.757081946358085">
        <ele>30.2</ele>
      </trkpt>
      <trkpt lat="52.034310987219214" lon="5.760033968836069">
        <ele>32.4</ele>
      </trkpt>
      <trkpt lat="52.03421995975077" lon="5.760128935799003">
        <ele>32.5</ele>
      </trkpt>
      <trkpt lat="52.034310987219214" lon="5.760033968836069">
        <ele>32.6</ele>
      </trkpt>
      <trkpt lat="52.034357925876975" lon="5.760151986032724">
        <ele>32.7</ele>
      </trkpt>
      <trkpt lat="52.03354395925999" lon="5.761054968461394">
        <ele>33.5</ele>
      </trkpt>
      <trkpt lat="52.03351194038987" lon="5.761378929018974">
        <ele>33.7</ele>
      </trkpt>
      <trkpt lat="52.03284993767738" lon="5.761686963960528">
        <ele>34.5</ele>
      </trkpt>
      <trkpt lat="52.03282697126269" lon="5.761827947571874">
        <ele>34.6</ele>
      </trkpt>
      <trkpt lat="52.033046996220946" lon="5.762264980003238">
        <ele>34.9</ele>
      </trkpt>
      <trkpt lat="52.03301497735083" lon="5.763093950226903">
        <ele>35.6</ele>
      </trkpt>
      <trkpt lat="52.033195942640305" lon="5.763483960181475">
        <ele>35.9</ele>
      </trkpt>
      <trkpt lat="52.03275899402797" lon="5.764580983668566">
        <ele>36.7</ele>
      </trkpt>
      <trkpt lat="52.03316492959857" lon="5.765953939408064">
        <ele>36.6</ele>
      </trkpt>
      <trkpt lat="52.03286091797054" lon="5.76637395657599">
        <ele>36.4</ele>
      </trkpt>
      <trkpt lat="52.03264298848808" lon="5.767236957326531">
        <ele>36.1</ele>
      </trkpt>
      <trkpt lat="52.03275899402797" lon="5.76843598857522">
        <ele>35.9</ele>
      </trkpt>
      <trkpt lat="52.033112961798906" lon="5.768863968551159">
        <ele>35.9</ele>
      </trkpt>
      <trkpt lat="52.03316794708371" lon="5.7706059794873">
        <ele>36.5</ele>
      </trkpt>
      <trkpt lat="52.0326419826597" lon="5.7720989640802145">
        <ele>37.5</ele>
      </trkpt>
      <trkpt lat="52.03265195712447" lon="5.772208934649825">
        <ele>37.6</ele>
      </trkpt>
      <trkpt lat="52.03293593600392" lon="5.772191919386387">
        <ele>37.8</ele>
      </trkpt>
      <trkpt lat="52.03299796208739" lon="5.772003997117281">
        <ele>37.9</ele>
      </trkpt>
      <trkpt lat="52.03310692682862" lon="5.772107932716608">
        <ele>38.0</ele>
      </trkpt>
      <trkpt lat="52.03337498009205" lon="5.771877933293581">
        <ele>38.3</ele>
      </trkpt>
      <trkpt lat="52.033479921519756" lon="5.772077925503254">
        <ele>38.4</ele>
      </trkpt>
      <trkpt lat="52.03372391872108" lon="5.771714989095926">
        <ele>38.4</ele>
      </trkpt>
      <trkpt lat="52.03366197645664" lon="5.772393923252821">
        <ele>38.3</ele>
      </trkpt>
      <trkpt lat="52.033280935138464" lon="5.7736339420080185">
        <ele>37.6</ele>
      </trkpt>
      <trkpt lat="52.033047918230295" lon="5.775175960734487">
        <ele>36.5</ele>
      </trkpt>
      <trkpt lat="52.03262999653816" lon="5.776304919272661">
        <ele>35.8</ele>
      </trkpt>
      <trkpt lat="52.03237191773951" lon="5.778237953782082">
        <ele>36.5</ele>
      </trkpt>
      <trkpt lat="52.03210797160864" lon="5.77864296734333">
        <ele>37.0</ele>
      </trkpt>
      <trkpt lat="52.03095596283674" lon="5.77909491956234">
        <ele>39.0</ele>
      </trkpt>
      <trkpt lat="52.030398985370994" lon="5.781874945387244">
        <ele>41.6</ele>
      </trkpt>
      <trkpt lat="52.03015297651291" lon="5.781968990340829">
        <ele>41.8</ele>
      </trkpt>
      <trkpt lat="52.029971927404404" lon="5.781822977587581">
        <ele>41.9</ele>
      </trkpt>
      <trkpt lat="52.029670933261514" lon="5.782475927844644">
        <ele>42.2</ele>
      </trkpt>
      <trkpt lat="52.029267931357026" lon="5.782871972769499">
        <ele>42.5</ele>
      </trkpt>
      <trkpt lat="52.02931998297572" lon="5.783077999949455">
        <ele>42.5</ele>
      </trkpt>
      <trkpt lat="52.028880938887596" lon="5.783711923286319">
        <ele>42.8</ele>
      </trkpt>
      <trkpt lat="52.02869796194136" lon="5.784469982609153">
        <ele>43.0</ele>
      </trkpt>
      <trkpt lat="52.02803193591535" lon="5.785652920603752">
        <ele>43.1</ele>
      </trkpt>
      <trkpt lat="52.02786999754608" lon="5.78560296446085">
        <ele>43.1</ele>
      </trkpt>
      <trkpt lat="52.02752994373441" lon="5.786048965528607">
        <ele>43.0</ele>
      </trkpt>
      <trkpt lat="52.026704996824265" lon="5.786193972453475">
        <ele>42.8</ele>
      </trkpt>
      <trkpt lat="52.02570998109877" lon="5.788479968905449">
        <ele>41.9</ele>
      </trkpt>
      <trkpt lat="52.02905394136906" lon="5.791966924443841">
        <ele>45.8</ele>
      </trkpt>
      <trkpt lat="52.02711897902191" lon="5.795074934139848">
        <ele>48.2</ele>
      </trkpt>
      <trkpt lat="52.02622999437153" lon="5.7961249351501465">
        <ele>48.1</ele>
      </trkpt>
      <trkpt lat="52.02489794231951" lon="5.798208927735686">
        <ele>45.9</ele>
      </trkpt>
      <trkpt lat="52.02482895925641" lon="5.798585945740342">
        <ele>45.4</ele>
      </trkpt>
      <trkpt lat="52.02493599615991" lon="5.798919964581728">
        <ele>45.0</ele>
      </trkpt>
      <trkpt lat="52.027354929596186" lon="5.80182496458292">
        <ele>41.6</ele>
      </trkpt>
      <trkpt lat="52.02653291635215" lon="5.804227972403169">
        <ele>39.7</ele>
      </trkpt>
      <trkpt lat="52.02617894858122" lon="5.8048049826174974">
        <ele>39.2</ele>
      </trkpt>
      <trkpt lat="52.024601977318525" lon="5.808896943926811">
        <ele>35.3</ele>
      </trkpt>
      <trkpt lat="52.02422797679901" lon="5.810207957401872">
        <ele>34.6</ele>
      </trkpt>
      <trkpt lat="52.02439595013857" lon="5.811440935358405">
        <ele>34.7</ele>
      </trkpt>
      <trkpt lat="52.02484396286309" lon="5.812237970530987">
        <ele>35.2</ele>
      </trkpt>
      <trkpt lat="52.02549892477691" lon="5.816407967358828">
        <ele>38.8</ele>
      </trkpt>
      <trkpt lat="52.02564694918692" lon="5.816589938476682">
        <ele>39.0</ele>
      </trkpt>
      <trkpt lat="52.02630694024265" lon="5.816794959828258">
        <ele>39.6</ele>
      </trkpt>
      <trkpt lat="52.02654196880758" lon="5.817133923992515">
        <ele>39.6</ele>
      </trkpt>
      <trkpt lat="52.02693097293377" lon="5.81703694537282">
        <ele>39.6</ele>
      </trkpt>
      <trkpt lat="52.027244959026575" lon="5.816288944333792">
        <ele>39.4</ele>
      </trkpt>
      <trkpt lat="52.02654498629272" lon="5.815607998520136">
        <ele>38.9</ele>
      </trkpt>
      <trkpt lat="52.02650399878621" lon="5.814688922837377">
        <ele>38.5</ele>
      </trkpt>
      <trkpt lat="52.02751795761287" lon="5.81171091645956">
        <ele>38.6</ele>
      </trkpt>
      <trkpt lat="52.03097398392856" lon="5.805461956188083">
        <ele>45.6</ele>
      </trkpt>
      <trkpt lat="52.032164968550205" lon="5.802839929237962">
        <ele>45.9</ele>
      </trkpt>
      <trkpt lat="52.03261197544634" lon="5.801295982673764">
        <ele>44.7</ele>
      </trkpt>
      <trkpt lat="52.03301296569407" lon="5.800788961350918">
        <ele>43.9</ele>
      </trkpt>
      <trkpt lat="52.03279696404934" lon="5.799923948943615">
        <ele>42.8</ele>
      </trkpt>
      <trkpt lat="52.032616920769215" lon="5.795248942449689">
        <ele>43.2</ele>
      </trkpt>
      <trkpt lat="52.036374947056174" lon="5.788904931396246">
        <ele>38.2</ele>
      </trkpt>
      <trkpt lat="52.036376958712935" lon="5.78487591817975">
        <ele>36.4</ele>
      </trkpt>
      <trkpt lat="52.03660192899406" lon="5.7838209718465805">
        <ele>36.8</ele>
      </trkpt>
      <trkpt lat="52.03534095548093" lon="5.784130934625864">
        <ele>37.6</ele>
      </trkpt>
      <trkpt lat="52.0353289693594" lon="5.77754694968462">
        <ele>36.5</ele>
      </trkpt>
      <trkpt lat="52.03468699939549" lon="5.777765968814492">
        <ele>36.7</ele>
      </trkpt>
      <trkpt lat="52.03499595634639" lon="5.772428959608078">
        <ele>37.1</ele>
      </trkpt>
      <trkpt lat="52.03601997345686" lon="5.7721929252147675">
        <ele>36.5</ele>
      </trkpt>
      <trkpt lat="52.035989966243505" lon="5.7702509220689535">
        <ele>36.2</ele>
      </trkpt>
      <trkpt lat="52.0359299518168" lon="5.76996099203825">
        <ele>36.2</ele>
      </trkpt>
      <trkpt lat="52.03496695496142" lon="5.7699039950966835">
        <ele>36.5</ele>
      </trkpt>
      <trkpt lat="52.03461994417012" lon="5.768807977437973">
        <ele>36.5</ele>
      </trkpt>
      <trkpt lat="52.034789929166436" lon="5.768746957182884">
        <ele>36.5</ele>
      </trkpt>
      <trkpt lat="52.034895960241556" lon="5.768424924463034">
        <ele>36.5</ele>
      </trkpt>
      <trkpt lat="52.03476193360984" lon="5.7678059209138155">
        <ele>36.4</ele>
      </trkpt>
      <trkpt lat="52.03493393026292" lon="5.767758982256055">
        <ele>36.4</ele>
      </trkpt>
      <trkpt lat="52.03477098606527" lon="5.766977956518531">
        <ele>36.2</ele>
      </trkpt>
      <trkpt lat="52.034789929166436" lon="5.765636935830116">
        <ele>36.1</ele>
      </trkpt>
      <trkpt lat="52.03527096658945" lon="5.764687936753035">
        <ele>36.0</ele>
      </trkpt>
      <trkpt lat="52.034979946911335" lon="5.763791995123029">
        <ele>36.0</ele>
      </trkpt>
      <trkpt lat="52.035494931042194" lon="5.762415938079357">
        <ele>35.4</ele>
      </trkpt>
      <trkpt lat="52.03526996076107" lon="5.761548997834325">
        <ele>34.5</ele>
      </trkpt>
      <trkpt lat="52.03555293381214" lon="5.761425951495767">
        <ele>34.0</ele>
      </trkpt>
      <trkpt lat="52.03565091826022" lon="5.761054968461394">
        <ele>33.6</ele>
      </trkpt>
      <trkpt lat="52.03552493825555" lon="5.760197918862104">
        <ele>32.9</ele>
      </trkpt>
      <trkpt lat="52.035663994029164" lon="5.75958495028317">
        <ele>32.3</ele>
      </trkpt>
      <trkpt lat="52.0354169793427" lon="5.75917499139905">
        <ele>31.7</ele>
      </trkpt>
      <trkpt lat="52.03576197847724" lon="5.758390948176384">
        <ele>31.2</ele>
      </trkpt>
      <trkpt lat="52.03561797738075" lon="5.757512943819165">
        <ele>30.9</ele>
      </trkpt>
      <trkpt lat="52.03572694212198" lon="5.756526980549097">
        <ele>30.6</ele>
      </trkpt>
      <trkpt lat="52.035922994837165" lon="5.756157925352454">
        <ele>30.5</ele>
      </trkpt>
      <trkpt lat="52.035836996510625" lon="5.754668964073062">
        <ele>29.6</ele>
      </trkpt>
      <trkpt lat="52.036033971235156" lon="5.754538960754871">
        <ele>29.5</ele>
      </trkpt>
      <trkpt lat="52.03629892319441" lon="5.754700982943177">
        <ele>29.4</ele>
      </trkpt>
      <trkpt lat="52.03690594062209" lon="5.754624959081411">
        <ele>29.3</ele>
      </trkpt>
      <trkpt lat="52.037101993337274" lon="5.754776922985911">
        <ele>29.4</ele>
      </trkpt>
      <trkpt lat="52.03749996609986" lon="5.754534937441349">
        <ele>29.4</ele>
      </trkpt>
      <trkpt lat="52.03729293309152" lon="5.75294598005712">
        <ele>30.0</ele>
      </trkpt>
      <trkpt lat="52.03743894584477" lon="5.7526899967342615">
        <ele>30.2</ele>
      </trkpt>
      <trkpt lat="52.037534918636084" lon="5.7529629953205585">
        <ele>30.4</ele>
      </trkpt>
      <trkpt lat="52.03760993666947" lon="5.7528499234467745">
        <ele>30.5</ele>
      </trkpt>
      <trkpt lat="52.03736996278167" lon="5.751976948231459">
        <ele>30.8</ele>
      </trkpt>
      <trkpt lat="52.03750692307949" lon="5.7512869499623775">
        <ele>31.3</ele>
      </trkpt>
      <trkpt lat="52.037384966388345" lon="5.751015963032842">
        <ele>31.4</ele>
      </trkpt>
      <trkpt lat="52.03763692639768" lon="5.750704994425178">
        <ele>31.5</ele>
      </trkpt>
      <trkpt lat="52.03761697746813" lon="5.750529980286956">
        <ele>31.6</ele>
      </trkpt>
      <trkpt lat="52.03741991892457" lon="5.750527968630195">
        <ele>31.7</ele>
      </trkpt>
      <trkpt lat="52.03742394223809" lon="5.749893961474299">
        <ele>31.9</ele>
      </trkpt>
      <trkpt lat="52.037617983296514" lon="5.749460952356458">
        <ele>32.0</ele>
      </trkpt>
      <trkpt lat="52.037728959694505" lon="5.749363973736763">
        <ele>32.1</ele>
      </trkpt>
      <trkpt lat="52.0380159560591" lon="5.749869989231229">
        <ele>32.3</ele>
      </trkpt>
      <trkpt lat="52.03870796598494" lon="5.750062940642238">
        <ele>32.4</ele>
      </trkpt>
      <trkpt lat="52.038786923512816" lon="5.750403916463256">
        <ele>32.4</ele>
      </trkpt>
      <trkpt lat="52.03887895680964" lon="5.750071993097663">
        <ele>32.3</ele>
      </trkpt>
      <trkpt lat="52.03865599818528" lon="5.749439997598529">
        <ele>32.3</ele>
      </trkpt>
      <trkpt lat="52.03801796771586" lon="5.749439997598529">
        <ele>32.0</ele>
      </trkpt>
      <trkpt lat="52.038009921088815" lon="5.749114947393537">
        <ele>32.0</ele>
      </trkpt>
      <trkpt lat="52.03771797940135" lon="5.748855946585536">
        <ele>31.9</ele>
      </trkpt>
      <trkpt lat="52.03778595663607" lon="5.748370969668031">
        <ele>31.6</ele>
      </trkpt>
      <trkpt lat="52.03762896358967" lon="5.748126972466707">
        <ele>31.4</ele>
      </trkpt>
      <trkpt lat="52.03801394440234" lon="5.747719947248697">
        <ele>31.2</ele>
      </trkpt>
      <trkpt lat="52.037772964686155" lon="5.747432950884104">
        <ele>31.1</ele>
      </trkpt>
      <trkpt lat="52.03793398104608" lon="5.747011927887797">
        <ele>31.0</ele>
      </trkpt>
      <trkpt lat="52.0378119405359" lon="5.746721997857094">
        <ele>31.0</ele>
      </trkpt>
      <trkpt lat="52.037965999916196" lon="5.746466936543584">
        <ele>31.0</ele>
      </trkpt>
      <trkpt lat="52.038030959665775" lon="5.745050981640816">
        <ele>31.0</ele>
      </trkpt>
      <trkpt lat="52.03842298127711" lon="5.744148921221495">
        <ele>31.0</ele>
      </trkpt>
      <trkpt lat="52.038631942123175" lon="5.744261993095279">
        <ele>31.0</ele>
      </trkpt>
      <trkpt lat="52.03877099789679" lon="5.744031993672252">
        <ele>30.9</ele>
      </trkpt>
      <trkpt lat="52.039338955655694" lon="5.744677986949682">
        <ele>30.6</ele>
      </trkpt>
      <trkpt lat="52.040007999166846" lon="5.744187980890274">
        <ele>30.1</ele>
      </trkpt>
      <trkpt lat="52.04039993695915" lon="5.743671990931034">
        <ele>29.6</ele>
      </trkpt>
      <trkpt lat="52.04059791751206" lon="5.743675930425525">
        <ele>29.5</ele>
      </trkpt>
      <trkpt lat="52.04079992137849" lon="5.743350964039564">
        <ele>29.3</ele>
      </trkpt>
      <trkpt lat="52.04091793857515" lon="5.743642989546061">
        <ele>29.2</ele>
      </trkpt>
      <trkpt lat="52.041037967428565" lon="5.743508962914348">
        <ele>29.2</ele>
      </trkpt>
      <trkpt lat="52.041239971295" lon="5.743862930685282">
        <ele>29.0</ele>
      </trkpt>
      <trkpt lat="52.04134499654174" lon="5.743772992864251">
        <ele>29.0</ele>
      </trkpt>
      <trkpt lat="52.042133985087276" lon="5.74420097284019">
        <ele>28.8</ele>
      </trkpt>
      <trkpt lat="52.04422594048083" lon="5.742519982159138">
        <ele>27.9</ele>
      </trkpt>
      <trkpt lat="52.044476978480816" lon="5.743130939081311">
        <ele>27.5</ele>
      </trkpt>
      <trkpt lat="52.04476196318865" lon="5.74338692240417">
        <ele>27.3</ele>
      </trkpt>
      <trkpt lat="52.045531924813986" lon="5.742480922490358">
        <ele>26.8</ele>
      </trkpt>
      <trkpt lat="52.045849934220314" lon="5.741144930943847">
        <ele>26.5</ele>
      </trkpt>
      <trkpt lat="52.04689993523061" lon="5.740302968770266">
        <ele>26.1</ele>
      </trkpt>
      <trkpt lat="52.05412999726832" lon="5.742551917210221">
        <ele>35.4</ele>
      </trkpt>
      <trkpt lat="52.05417299643159" lon="5.748920990154147">
        <ele>38.4</ele>
      </trkpt>
      <trkpt lat="52.05486592836678" lon="5.749219972640276">
        <ele>38.9</ele>
      </trkpt>
      <trkpt lat="52.05689996480942" lon="5.746769942343235">
        <ele>42.7</ele>
      </trkpt>
      <trkpt lat="52.05798491835594" lon="5.750170983374119">
        <ele>48.5</ele>
      </trkpt>
      <trkpt lat="52.0585329271853" lon="5.75077498331666">
        <ele>48.8</ele>
      </trkpt>
      <trkpt lat="52.06066293641925" lon="5.754544995725155">
        <ele>44.8</ele>
      </trkpt>
      <trkpt lat="52.06033998169005" lon="5.753898918628693">
        <ele>44.4</ele>
      </trkpt>
      <trkpt lat="52.06066293641925" lon="5.754544995725155">
        <ele>44.1</ele>
      </trkpt>
      <trkpt lat="52.06372995860875" lon="5.748175922781229">
        <ele>46.4</ele>
      </trkpt>
      <trkpt lat="52.064155926927924" lon="5.746616972610354">
        <ele>48.6</ele>
      </trkpt>
      <trkpt lat="52.065616976469755" lon="5.745020974427462">
        <ele>50.6</ele>
      </trkpt>
      <trkpt lat="52.06706293858588" lon="5.744245983660221">
        <ele>48.8</ele>
      </trkpt>
      <trkpt lat="52.06926293671131" lon="5.73955999687314">
        <ele>50.5</ele>
      </trkpt>
      <trkpt lat="52.07065491937101" lon="5.737677924335003">
        <ele>53.4</ele>
      </trkpt>
      <trkpt lat="52.07208193838596" lon="5.734547954052687">
        <ele>54.6</ele>
      </trkpt>
      <trkpt lat="52.073891926556826" lon="5.731165939942002">
        <ele>54.3</ele>
      </trkpt>
      <trkpt lat="52.074424931779504" lon="5.730617931112647">
        <ele>53.1</ele>
      </trkpt>
      <trkpt lat="52.07555095665157" lon="5.730124991387129">
        <ele>50.9</ele>
      </trkpt>
      <trkpt lat="52.07598295994103" lon="5.729748979210854">
        <ele>49.9</ele>
      </trkpt>
      <trkpt lat="52.07564692944288" lon="5.729340948164463">
        <ele>49.2</ele>
      </trkpt>
      <trkpt lat="52.07622393965721" lon="5.729248998686671">
        <ele>49.0</ele>
      </trkpt>
      <trkpt lat="52.076290994882584" lon="5.727891968563199">
        <ele>49.1</ele>
      </trkpt>
      <trkpt lat="52.07566193304956" lon="5.7259719260036945">
        <ele>49.7</ele>
      </trkpt>
      <trkpt lat="52.07575195468962" lon="5.725579988211393">
        <ele>49.8</ele>
      </trkpt>
      <trkpt lat="52.0755129866302" lon="5.725158965215087">
        <ele>50.0</ele>
      </trkpt>
      <trkpt lat="52.07559194415808" lon="5.7243709824979305">
        <ele>50.4</ele>
      </trkpt>
      <trkpt lat="52.07546797581017" lon="5.723760947585106">
        <ele>50.6</ele>
      </trkpt>
      <trkpt lat="52.073289938271046" lon="5.71938693523407">
        <ele>52.7</ele>
      </trkpt>
      <trkpt lat="52.073435951024294" lon="5.719140926375985">
        <ele>52.7</ele>
      </trkpt>
      <trkpt lat="52.07338792271912" lon="5.7185659278184175">
        <ele>52.5</ele>
      </trkpt>
      <trkpt lat="52.07301199436188" lon="5.718324948102236">
        <ele>52.1</ele>
      </trkpt>
      <trkpt lat="52.07284594886005" lon="5.717811975628138">
        <ele>51.7</ele>
      </trkpt>
      <trkpt lat="52.07288593053818" lon="5.7170509826391935">
        <ele>50.3</ele>
      </trkpt>
      <trkpt lat="52.07258594222367" lon="5.716950986534357">
        <ele>49.4</ele>
      </trkpt>
      <trkpt lat="52.072493992745876" lon="5.7167349848896265">
        <ele>48.9</ele>
      </trkpt>
      <trkpt lat="52.072687949985266" lon="5.716228969395161">
        <ele>47.7</ele>
      </trkpt>
      <trkpt lat="52.06940593197942" lon="5.709747998043895">
        <ele>33.1</ele>
      </trkpt>
      <trkpt lat="52.06942898221314" lon="5.709046935662627">
        <ele>32.4</ele>
      </trkpt>
      <trkpt lat="52.06726795993745" lon="5.710154939442873">
        <ele>28.9</ele>
      </trkpt>
      <trkpt lat="52.06715094856918" lon="5.7098599802702665">
        <ele>28.7</ele>
      </trkpt>
      <trkpt lat="52.0634959358722" lon="5.6933339685201645">
        <ele>37.9</ele>
      </trkpt>
      <trkpt lat="52.06455993466079" lon="5.691746938973665">
        <ele>44.4</ele>
      </trkpt>
      <trkpt lat="52.06365192309022" lon="5.689840978011489">
        <ele>49.8</ele>
      </trkpt>
      <trkpt lat="52.06317792646587" lon="5.689417943358421">
        <ele>50.7</ele>
      </trkpt>
      <trkpt lat="52.063167952001095" lon="5.688744960352778">
        <ele>50.9</ele>
      </trkpt>
      <trkpt lat="52.06362694501877" lon="5.688388980925083">
        <ele>50.8</ele>
      </trkpt>
      <trkpt lat="52.06382098607719" lon="5.688745966181159">
        <ele>50.7</ele>
      </trkpt>
      <trkpt lat="52.06411695107818" lon="5.688830958679318">
        <ele>50.3</ele>
      </trkpt>
      <trkpt lat="52.06474492326379" lon="5.6897409819066525">
        <ele>47.8</ele>
      </trkpt>
      <trkpt lat="52.064974922686815" lon="5.689843995496631">
        <ele>46.8</ele>
      </trkpt>
      <trkpt lat="52.065337942913175" lon="5.690875975415111">
        <ele>43.4</ele>
      </trkpt>
      <trkpt lat="52.06562896259129" lon="5.690455958247185">
        <ele>42.3</ele>
      </trkpt>
      <trkpt lat="52.06575594842434" lon="5.690679922699928">
        <ele>42.0</ele>
      </trkpt>
      <trkpt lat="52.065979996696115" lon="5.690541956573725">
        <ele>41.5</ele>
      </trkpt>
      <trkpt lat="52.066263975575566" lon="5.689859921112657">
        <ele>40.7</ele>
      </trkpt>
      <trkpt lat="52.06535194069147" lon="5.688432985916734">
        <ele>43.6</ele>
      </trkpt>
      <trkpt lat="52.06543399952352" lon="5.688287978991866">
        <ele>43.9</ele>
      </trkpt>
      <trkpt lat="52.06512998789549" lon="5.687358928844333">
        <ele>46.3</ele>
      </trkpt>
      <trkpt lat="52.063982924446464" lon="5.68619292229414">
        <ele>48.5</ele>
      </trkpt>
      <trkpt lat="52.06385996192694" lon="5.6857989728450775">
        <ele>48.6</ele>
      </trkpt>
      <trkpt lat="52.06345293670893" lon="5.685686990618706">
        <ele>48.5</ele>
      </trkpt>
      <trkpt lat="52.06262094900012" lon="5.6844819243997335">
        <ele>48.1</ele>
      </trkpt>
      <trkpt lat="52.062566969543695" lon="5.6837179977446795">
        <ele>48.2</ele>
      </trkpt>
      <trkpt lat="52.06202298402786" lon="5.682480996474624">
        <ele>48.6</ele>
      </trkpt>
      <trkpt lat="52.06260192207992" lon="5.680219978094101">
        <ele>48.8</ele>
      </trkpt>
      <trkpt lat="52.062239991500974" lon="5.679842960089445">
        <ele>48.6</ele>
      </trkpt>
      <trkpt lat="52.06194092519581" lon="5.679824938997626">
        <ele>48.3</ele>
      </trkpt>
      <trkpt lat="52.061318987980485" lon="5.6789089646190405">
        <ele>47.2</ele>
      </trkpt>
      <trkpt lat="52.06081498414278" lon="5.67849799990654">
        <ele>46.3</ele>
      </trkpt>
      <trkpt lat="52.060311986133456" lon="5.677569955587387">
        <ele>44.8</ele>
      </trkpt>
      <trkpt lat="52.05949894152582" lon="5.677346996963024">
        <ele>42.6</ele>
      </trkpt>
      <trkpt lat="52.05855497159064" lon="5.676663955673575">
        <ele>39.4</ele>
      </trkpt>
      <trkpt lat="52.058032946661115" lon="5.676558930426836">
        <ele>38.2</ele>
      </trkpt>
      <trkpt lat="52.05767897889018" lon="5.6759559363126755">
        <ele>37.7</ele>
      </trkpt>
      <trkpt lat="52.05705997534096" lon="5.675719985738397">
        <ele>37.3</ele>
      </trkpt>
      <trkpt lat="52.05711294896901" lon="5.675282953307033">
        <ele>37.4</ele>
      </trkpt>
      <trkpt lat="52.056914968416095" lon="5.674883974716067">
        <ele>37.7</ele>
      </trkpt>
      <trkpt lat="52.05654691904783" lon="5.674939965829253">
        <ele>38.0</ele>
      </trkpt>
      <trkpt lat="52.056290935724974" lon="5.674750953912735">
        <ele>38.3</ele>
      </trkpt>
      <trkpt lat="52.0563639421016" lon="5.674105966463685">
        <ele>39.0</ele>
      </trkpt>
      <trkpt lat="52.05622396431863" lon="5.6734399404376745">
        <ele>39.5</ele>
      </trkpt>
      <trkpt lat="52.05637592822313" lon="5.673091923817992">
        <ele>39.7</ele>
      </trkpt>
      <trkpt lat="52.056552954018116" lon="5.673135928809643">
        <ele>39.8</ele>
      </trkpt>
      <trkpt lat="52.057085959240794" lon="5.673702964559197">
        <ele>40.3</ele>
      </trkpt>
      <trkpt lat="52.05732794478536" lon="5.674434956163168">
        <ele>40.4</ele>
      </trkpt>
      <trkpt lat="52.05756397917867" lon="5.674472926184535">
        <ele>40.6</ele>
      </trkpt>
      <trkpt lat="52.05780697055161" lon="5.6748029217123985">
        <ele>40.8</ele>
      </trkpt>
      <trkpt lat="52.058524964377284" lon="5.67420395091176">
        <ele>40.6</ele>
      </trkpt>
      <trkpt lat="52.058551954105496" lon="5.672374935820699">
        <ele>39.6</ele>
      </trkpt>
      <trkpt lat="52.05908194184303" lon="5.672209979966283">
        <ele>38.7</ele>
      </trkpt>
      <trkpt lat="52.05934697762132" lon="5.672287931665778">
        <ele>38.1</ele>
      </trkpt>
      <trkpt lat="52.05959692597389" lon="5.671857940033078">
        <ele>37.2</ele>
      </trkpt>
      <trkpt lat="52.059533977881074" lon="5.671375980600715">
        <ele>36.4</ele>
      </trkpt>
      <trkpt lat="52.059322921559215" lon="5.671120919287205">
        <ele>35.7</ele>
      </trkpt>
      <trkpt lat="52.05957194790244" lon="5.6705419812351465">
        <ele>34.6</ele>
      </trkpt>
      <trkpt lat="52.05935494042933" lon="5.669736983254552">
        <ele>33.4</ele>
      </trkpt>
      <trkpt lat="52.05997193232179" lon="5.6677099876105785">
        <ele>33.7</ele>
      </trkpt>
      <trkpt lat="52.06289897672832" lon="5.665448969230056">
        <ele>35.0</ele>
      </trkpt>
      <trkpt lat="52.0634959358722" lon="5.665207989513874">
        <ele>34.6</ele>
      </trkpt>
      <trkpt lat="52.065487978979945" lon="5.6650719512254">
        <ele>32.4</ele>
      </trkpt>
      <trkpt lat="52.0653279684484" lon="5.664441967383027">
        <ele>31.8</ele>
      </trkpt>
      <trkpt lat="52.0657529309392" lon="5.664002923294902">
        <ele>31.2</ele>
      </trkpt>
      <trkpt lat="52.06673193722963" lon="5.663489950820804">
        <ele>30.8</ele>
      </trkpt>
      <trkpt lat="52.06696294248104" lon="5.6630429439246655">
        <ele>30.8</ele>
      </trkpt>
      <trkpt lat="52.06693796440959" lon="5.662899948656559">
        <ele>30.9</ele>
      </trkpt>
      <trkpt lat="52.06672397442162" lon="5.66305291838944">
        <ele>31.0</ele>
      </trkpt>
      <trkpt lat="52.0667059533298" lon="5.662775980308652">
        <ele>31.2</ele>
      </trkpt>
      <trkpt lat="52.06711499020457" lon="5.66274899058044">
        <ele>31.5</ele>
      </trkpt>
      <trkpt lat="52.06719394773245" lon="5.662598954513669">
        <ele>31.6</ele>
      </trkpt>
      <trkpt lat="52.06716796383262" lon="5.661879954859614">
        <ele>31.8</ele>
      </trkpt>
      <trkpt lat="52.06748094409704" lon="5.6619019992649555">
        <ele>31.8</ele>
      </trkpt>
      <trkpt lat="52.06784698180854" lon="5.6621909234672785">
        <ele>31.1</ele>
      </trkpt>
      <trkpt lat="52.06794295459986" lon="5.661777947098017">
        <ele>30.8</ele>
      </trkpt>
      <trkpt lat="52.06867494620383" lon="5.662813950330019">
        <ele>30.8</ele>
      </trkpt>
      <trkpt lat="52.06942697055638" lon="5.662134932354093">
        <ele>30.9</ele>
      </trkpt>
      <trkpt lat="52.06951799802482" lon="5.662401979789138">
        <ele>31.0</ele>
      </trkpt>
      <trkpt lat="52.07058794796467" lon="5.661281989887357">
        <ele>32.4</ele>
      </trkpt>
      <trkpt lat="52.07099497318268" lon="5.661131953820586">
        <ele>32.6</ele>
      </trkpt>
      <trkpt lat="52.071136962622404" lon="5.661480976268649">
        <ele>32.7</ele>
      </trkpt>
      <trkpt lat="52.07134592346847" lon="5.660949982702732">
        <ele>32.9</ele>
      </trkpt>
      <trkpt lat="52.07164297811687" lon="5.660949982702732">
        <ele>33.0</ele>
      </trkpt>
      <trkpt lat="52.07227396778762" lon="5.6601449847221375">
        <ele>33.9</ele>
      </trkpt>
      <trkpt lat="52.07257395610213" lon="5.660063931718469">
        <ele>34.4</ele>
      </trkpt>
      <trkpt lat="52.07270094193518" lon="5.65974491648376">
        <ele>34.7</ele>
      </trkpt>
      <trkpt lat="52.07292792387307" lon="5.6598469242453575">
        <ele>35.1</ele>
      </trkpt>
      <trkpt lat="52.07301392219961" lon="5.659537967294455">
        <ele>35.5</ele>
      </trkpt>
      <trkpt lat="52.07343092188239" lon="5.6596089620143175">
        <ele>36.1</ele>
      </trkpt>
      <trkpt lat="52.07386292517185" lon="5.660002995282412">
        <ele>36.6</ele>
      </trkpt>
      <trkpt lat="52.07452199421823" lon="5.660661980509758">
        <ele>37.6</ele>
      </trkpt>
      <trkpt lat="52.07480094395578" lon="5.661420961841941">
        <ele>38.0</ele>
      </trkpt>
      <trkpt lat="52.075200928375125" lon="5.661515928804874">
        <ele>38.5</ele>
      </trkpt>
      <trkpt lat="52.07595898769796" lon="5.662368955090642">
        <ele>39.0</ele>
      </trkpt>
      <trkpt lat="52.07963998429477" lon="5.659038992598653">
        <ele>37.5</ele>
      </trkpt>
      <trkpt lat="52.078485963866115" lon="5.65546696074307">
        <ele>37.2</ele>
      </trkpt>
      <trkpt lat="52.079240921884775" lon="5.65477897413075">
        <ele>37.6</ele>
      </trkpt>
      <trkpt lat="52.079109996557236" lon="5.654459958896041">
        <ele>37.7</ele>
      </trkpt>
      <trkpt lat="52.07986797206104" lon="5.653580948710442">
        <ele>37.4</ele>
      </trkpt>
      <trkpt lat="52.07939992658794" lon="5.652104979380965">
        <ele>37.7</ele>
      </trkpt>
      <trkpt lat="52.07940093241632" lon="5.651291934773326">
        <ele>38.4</ele>
      </trkpt>
      <trkpt lat="52.07960997708142" lon="5.6507969833910465">
        <ele>38.9</ele>
      </trkpt>
      <trkpt lat="52.07991692237556" lon="5.650593973696232">
        <ele>39.2</ele>
      </trkpt>
      <trkpt lat="52.0802759192884" lon="5.650748955085874">
        <ele>39.6</ele>
      </trkpt>
      <trkpt lat="52.081301948055625" lon="5.649783946573734">
        <ele>39.0</ele>
      </trkpt>
      <trkpt lat="52.08152691833675" lon="5.649310955777764">
        <ele>38.3</ele>
      </trkpt>
      <trkpt lat="52.081537982448936" lon="5.648378971964121">
        <ele>36.4</ele>
      </trkpt>
      <trkpt lat="52.08213192410767" lon="5.646687922999263">
        <ele>33.0</ele>
      </trkpt>
      <trkpt lat="52.082591922953725" lon="5.645923996344209">
        <ele>31.7</ele>
      </trkpt>
      <trkpt lat="52.08336699754" lon="5.645243972539902">
        <ele>30.7</ele>
      </trkpt>
      <trkpt lat="52.08333699032664" lon="5.643603969365358">
        <ele>29.2</ele>
      </trkpt>
      <trkpt lat="52.08376094698906" lon="5.642499988898635">
        <ele>27.2</ele>
      </trkpt>
      <trkpt lat="52.08333497866988" lon="5.641088979318738">
        <ele>25.2</ele>
      </trkpt>
      <trkpt lat="52.083275970071554" lon="5.640283981338143">
        <ele>24.3</ele>
      </trkpt>
      <trkpt lat="52.0831769797951" lon="5.640326980501413">
        <ele>24.1</ele>
      </trkpt>
      <trkpt lat="52.082846984267235" lon="5.63974192366004">
        <ele>23.9</ele>
      </trkpt>
      <trkpt lat="52.082887971773744" lon="5.638775993138552">
        <ele>23.8</ele>
      </trkpt>
      <trkpt lat="52.083450984209776" lon="5.637492975220084">
        <ele>22.7</ele>
      </trkpt>
      <trkpt lat="52.08312291651964" lon="5.63550696708262">
        <ele>21.3</ele>
      </trkpt>
      <trkpt lat="52.083942918106914" lon="5.633520958945155">
        <ele>21.2</ele>
      </trkpt>
      <trkpt lat="52.083860943093896" lon="5.631780959665775">
        <ele>22.5</ele>
      </trkpt>
      <trkpt lat="52.08457893691957" lon="5.6307239178568125">
        <ele>22.2</ele>
      </trkpt>
      <trkpt lat="52.08479795604944" lon="5.630125952884555">
        <ele>22.2</ele>
      </trkpt>
      <trkpt lat="52.084807930514216" lon="5.6281619891524315">
        <ele>21.7</ele>
      </trkpt>
      <trkpt lat="52.085084952414036" lon="5.626568924635649">
        <ele>20.6</ele>
      </trkpt>
      <trkpt lat="52.084201918914914" lon="5.624971920624375">
        <ele>19.2</ele>
      </trkpt>
      <trkpt lat="52.08513096906245" lon="5.624361969530582">
        <ele>18.8</ele>
      </trkpt>
    </trkseg>
  </trk>
</gpx>
