<?xml version="1.0" encoding="UTF-8"?>
<gpx creator="Garmin Connect" version="1.1"
  xsi:schemaLocation="http://www.topografix.com/GPX/1/1 http://www.topografix.com/GPX/11.xsd"
  xmlns:ns3="http://www.garmin.com/xmlschemas/TrackPointExtension/v1"
  xmlns="http://www.topografix.com/GPX/1/1"
  xmlns:xsi="http://www.w3.org/2001/XMLSchema-instance" xmlns:ns2="http://www.garmin.com/xmlschemas/GpxExtensions/v3">
  <metadata>
    <name>Single track Italiaanse weg – Muur van Mariëndaal Circuit à partir de Ede Centrum</name>
    <link href="connect.garmin.com">
      <text>Garmin Connect</text>
    </link>
    <time>2025-05-13T07:10:48.000Z</time>
  </metadata>
  <trk>
    <name>Single track Italiaanse weg – Muur van Mariëndaal Circuit à partir de Ede Centrum</name>
    <trkseg>
      <trkpt lat="52.03820999711752" lon="5.735629973933101">
        <ele>25.4</ele>
      </trkpt>
      <trkpt lat="52.03797295689583" lon="5.735348928719759">
        <ele>25.3</ele>
      </trkpt>
      <trkpt lat="52.03729092143476" lon="5.7359519228339195">
        <ele>24.9</ele>
      </trkpt>
      <trkpt lat="52.03690795227885" lon="5.735982935875654">
        <ele>24.9</ele>
      </trkpt>
      <trkpt lat="52.03631996177137" lon="5.743020968511701">
        <ele>27.6</ele>
      </trkpt>
      <trkpt lat="52.03542393632233" lon="5.742176994681358">
        <ele>27.3</ele>
      </trkpt>
      <trkpt lat="52.035344978794456" lon="5.743907941505313">
        <ele>27.0</ele>
      </trkpt>
      <trkpt lat="52.034787917509675" lon="5.7444819342345">
        <ele>27.5</ele>
      </trkpt>
      <trkpt lat="52.034677946940064" lon="5.745028937235475">
        <ele>27.8</ele>
      </trkpt>
      <trkpt lat="52.03398392535746" lon="5.745304953306913">
        <ele>28.4</ele>
      </trkpt>
      <trkpt lat="52.03380497172475" lon="5.7459089532494545">
        <ele>28.7</ele>
      </trkpt>
      <trkpt lat="52.032960997894406" lon="5.74658595956862">
        <ele>29.3</ele>
      </trkpt>
      <trkpt lat="52.03333198092878" lon="5.7480759266763926">
        <ele>29.6</ele>
      </trkpt>
      <trkpt lat="52.032274939119816" lon="5.748833985999227">
        <ele>29.8</ele>
      </trkpt>
      <trkpt lat="52.030832916498184" lon="5.751696992665529">
        <ele>31.0</ele>
      </trkpt>
      <trkpt lat="52.0315039716661" lon="5.7529279589653015">
        <ele>30.6</ele>
      </trkpt>
      <trkpt lat="52.030319944024086" lon="5.7553499937057495">
        <ele>29.3</ele>
      </trkpt>
      <trkpt lat="52.03054893761873" lon="5.756266973912716">
        <ele>29.1</ele>
      </trkpt>
      <trkpt lat="52.030680952593684" lon="5.756005961447954">
        <ele>29.1</ele>
      </trkpt>
      <trkpt lat="52.03088094480336" lon="5.756107969209552">
        <ele>29.2</ele>
      </trkpt>
      <trkpt lat="52.03093199059367" lon="5.756639968603849">
        <ele>29.1</ele>
      </trkpt>
      <trkpt lat="52.03121496364474" lon="5.756939956918359">
        <ele>29.1</ele>
      </trkpt>
      <trkpt lat="52.03129199333489" lon="5.757284956052899">
        <ele>29.2</ele>
      </trkpt>
      <trkpt lat="52.03149198554456" lon="5.757129974663258">
        <ele>29.4</ele>
      </trkpt>
      <trkpt lat="52.03205198049545" lon="5.758503936231136">
        <ele>29.8</ele>
      </trkpt>
      <trkpt lat="52.03288799151778" lon="5.757081946358085">
        <ele>30.4</ele>
      </trkpt>
      <trkpt lat="52.034310987219214" lon="5.760033968836069">
        <ele>32.4</ele>
      </trkpt>
      <trkpt lat="52.03421995975077" lon="5.760128935799003">
        <ele>32.5</ele>
      </trkpt>
      <trkpt lat="52.034310987219214" lon="5.760033968836069">
        <ele>32.6</ele>
      </trkpt>
      <trkpt lat="52.034357925876975" lon="5.760151986032724">
        <ele>32.7</ele>
      </trkpt>
      <trkpt lat="52.03354395925999" lon="5.761054968461394">
        <ele>33.5</ele>
      </trkpt>
      <trkpt lat="52.03351194038987" lon="5.761378929018974">
        <ele>33.7</ele>
      </trkpt>
      <trkpt lat="52.03284993767738" lon="5.761686963960528">
        <ele>34.5</ele>
      </trkpt>
      <trkpt lat="52.03282697126269" lon="5.761827947571874">
        <ele>34.6</ele>
      </trkpt>
      <trkpt lat="52.033046996220946" lon="5.762264980003238">
        <ele>34.9</ele>
      </trkpt>
      <trkpt lat="52.03301497735083" lon="5.763093950226903">
        <ele>35.6</ele>
      </trkpt>
      <trkpt lat="52.033195942640305" lon="5.763483960181475">
        <ele>35.9</ele>
      </trkpt>
      <trkpt lat="52.03275899402797" lon="5.764580983668566">
        <ele>36.7</ele>
      </trkpt>
      <trkpt lat="52.03316492959857" lon="5.765953939408064">
        <ele>36.6</ele>
      </trkpt>
      <trkpt lat="52.03286091797054" lon="5.76637395657599">
        <ele>36.4</ele>
      </trkpt>
      <trkpt lat="52.03264298848808" lon="5.767236957326531">
        <ele>36.1</ele>
      </trkpt>
      <trkpt lat="52.03275899402797" lon="5.76843598857522">
        <ele>35.9</ele>
      </trkpt>
      <trkpt lat="52.033112961798906" lon="5.768863968551159">
        <ele>35.9</ele>
      </trkpt>
      <trkpt lat="52.03316794708371" lon="5.7706059794873">
        <ele>36.5</ele>
      </trkpt>
      <trkpt lat="52.03265195712447" lon="5.772208934649825">
        <ele>37.6</ele>
      </trkpt>
      <trkpt lat="52.03293593600392" lon="5.772191919386387">
        <ele>37.8</ele>
      </trkpt>
      <trkpt lat="52.03299796208739" lon="5.772003997117281">
        <ele>37.9</ele>
      </trkpt>
      <trkpt lat="52.03310692682862" lon="5.772107932716608">
        <ele>38.0</ele>
      </trkpt>
      <trkpt lat="52.03337498009205" lon="5.771877933293581">
        <ele>38.3</ele>
      </trkpt>
      <trkpt lat="52.033479921519756" lon="5.772077925503254">
        <ele>38.4</ele>
      </trkpt>
      <trkpt lat="52.03372391872108" lon="5.771714989095926">
        <ele>38.4</ele>
      </trkpt>
      <trkpt lat="52.03373699449003" lon="5.771951945498586">
        <ele>38.4</ele>
      </trkpt>
      <trkpt lat="52.033047918230295" lon="5.775175960734487">
        <ele>36.5</ele>
      </trkpt>
      <trkpt lat="52.03262999653816" lon="5.776304919272661">
        <ele>35.8</ele>
      </trkpt>
      <trkpt lat="52.03237191773951" lon="5.778237953782082">
        <ele>36.5</ele>
      </trkpt>
      <trkpt lat="52.03210797160864" lon="5.77864296734333">
        <ele>37.0</ele>
      </trkpt>
      <trkpt lat="52.03095596283674" lon="5.77909491956234">
        <ele>39.0</ele>
      </trkpt>
      <trkpt lat="52.030398985370994" lon="5.781874945387244">
        <ele>41.6</ele>
      </trkpt>
      <trkpt lat="52.03015297651291" lon="5.781968990340829">
        <ele>41.8</ele>
      </trkpt>
      <trkpt lat="52.029971927404404" lon="5.781822977587581">
        <ele>41.9</ele>
      </trkpt>
      <trkpt lat="52.029670933261514" lon="5.782475927844644">
        <ele>42.2</ele>
      </trkpt>
      <trkpt lat="52.029267931357026" lon="5.782871972769499">
        <ele>42.5</ele>
      </trkpt>
      <trkpt lat="52.02931998297572" lon="5.783077999949455">
        <ele>42.5</ele>
      </trkpt>
      <trkpt lat="52.028880938887596" lon="5.783711923286319">
        <ele>42.8</ele>
      </trkpt>
      <trkpt lat="52.02869796194136" lon="5.784469982609153">
        <ele>43.0</ele>
      </trkpt>
      <trkpt lat="52.02803193591535" lon="5.785652920603752">
        <ele>43.1</ele>
      </trkpt>
      <trkpt lat="52.02786999754608" lon="5.78560296446085">
        <ele>43.1</ele>
      </trkpt>
      <trkpt lat="52.02752994373441" lon="5.786048965528607">
        <ele>43.0</ele>
      </trkpt>
      <trkpt lat="52.026704996824265" lon="5.786193972453475">
        <ele>42.8</ele>
      </trkpt>
      <trkpt lat="52.02570998109877" lon="5.788479968905449">
        <ele>41.9</ele>
      </trkpt>
      <trkpt lat="52.02878094278276" lon="5.791612956672907">
        <ele>44.0</ele>
      </trkpt>
      <trkpt lat="52.024194952100515" lon="5.798434987664223">
        <ele>40.7</ele>
      </trkpt>
      <trkpt lat="52.02231799252331" lon="5.801805937662721">
        <ele>36.8</ele>
      </trkpt>
      <trkpt lat="52.02210693620145" lon="5.801771990954876">
        <ele>37.1</ele>
      </trkpt>
      <trkpt lat="52.0217349473387" lon="5.8013559971004725">
        <ele>37.9</ele>
      </trkpt>
      <trkpt lat="52.021316941827536" lon="5.801722956821322">
        <ele>38.8</ele>
      </trkpt>
      <trkpt lat="52.02127696014941" lon="5.802802965044975">
        <ele>39.5</ele>
      </trkpt>
      <trkpt lat="52.020500963553786" lon="5.804392928257585">
        <ele>38.4</ele>
      </trkpt>
      <trkpt lat="52.01822795905173" lon="5.8080539759248495">
        <ele>32.7</ele>
      </trkpt>
      <trkpt lat="52.01694695279002" lon="5.8109799306839705">
        <ele>34.4</ele>
      </trkpt>
      <trkpt lat="52.01463899575174" lon="5.818684995174408">
        <ele>36.4</ele>
      </trkpt>
      <trkpt lat="52.013839948922396" lon="5.818163976073265">
        <ele>38.0</ele>
      </trkpt>
      <trkpt lat="52.013962995260954" lon="5.817413963377476">
        <ele>39.0</ele>
      </trkpt>
      <trkpt lat="52.01113494113088" lon="5.815537925809622">
        <ele>40.6</ele>
      </trkpt>
      <trkpt lat="52.01128992252052" lon="5.81480392254889">
        <ele>40.1</ele>
      </trkpt>
      <trkpt lat="52.01047495007515" lon="5.81458599306643">
        <ele>38.6</ele>
      </trkpt>
      <trkpt lat="52.01034997589886" lon="5.814891932532191">
        <ele>38.2</ele>
      </trkpt>
      <trkpt lat="52.010013945400715" lon="5.814901990815997">
        <ele>37.6</ele>
      </trkpt>
      <trkpt lat="52.009260999038815" lon="5.81394393928349">
        <ele>35.9</ele>
      </trkpt>
      <trkpt lat="52.00842993333936" lon="5.813726931810379">
        <ele>34.7</ele>
      </trkpt>
      <trkpt lat="52.00790296308696" lon="5.813395930454135">
        <ele>34.5</ele>
      </trkpt>
      <trkpt lat="52.007735995575786" lon="5.813450999557972">
        <ele>34.5</ele>
      </trkpt>
      <trkpt lat="52.00751395896077" lon="5.8140539936721325">
        <ele>34.2</ele>
      </trkpt>
      <trkpt lat="52.00688598677516" lon="5.813950980082154">
        <ele>33.8</ele>
      </trkpt>
      <trkpt lat="52.006424982100725" lon="5.814212998375297">
        <ele>33.3</ele>
      </trkpt>
      <trkpt lat="52.005675975233316" lon="5.813827933743596">
        <ele>32.3</ele>
      </trkpt>
      <trkpt lat="52.00521597638726" lon="5.8138669934123755">
        <ele>31.7</ele>
      </trkpt>
      <trkpt lat="52.003367934376" lon="5.8127419743686914">
        <ele>30.6</ele>
      </trkpt>
      <trkpt lat="52.00316794216633" lon="5.813173977658153">
        <ele>30.6</ele>
      </trkpt>
      <trkpt lat="52.002319945022464" lon="5.8127829618752">
        <ele>31.0</ele>
      </trkpt>
      <trkpt lat="52.004122976213694" lon="5.803242931142449">
        <ele>28.2</ele>
      </trkpt>
      <trkpt lat="52.00321194715798" lon="5.802734987810254">
        <ele>28.7</ele>
      </trkpt>
      <trkpt lat="52.002577940002084" lon="5.806654952466488">
        <ele>34.3</ele>
      </trkpt>
      <trkpt lat="52.002344923093915" lon="5.80652897246182">
        <ele>34.7</ele>
      </trkpt>
      <trkpt lat="52.00228993780911" lon="5.80534896813333">
        <ele>35.2</ele>
      </trkpt>
      <trkpt lat="52.00074599124491" lon="5.802451930940151">
        <ele>31.8</ele>
      </trkpt>
      <trkpt lat="52.00029294937849" lon="5.802155965939164">
        <ele>31.0</ele>
      </trkpt>
      <trkpt lat="51.9996449444443" lon="5.800727941095829">
        <ele>29.6</ele>
      </trkpt>
      <trkpt lat="51.999658942222595" lon="5.800207927823067">
        <ele>29.2</ele>
      </trkpt>
      <trkpt lat="51.99859293177724" lon="5.798049923032522">
        <ele>27.4</ele>
      </trkpt>
      <trkpt lat="51.999210929498076" lon="5.797404935583472">
        <ele>26.9</ele>
      </trkpt>
      <trkpt lat="51.998366955667734" lon="5.795138971880078">
        <ele>27.3</ele>
      </trkpt>
      <trkpt lat="51.99880097061396" lon="5.79443397000432">
        <ele>27.8</ele>
      </trkpt>
      <trkpt lat="51.99820593930781" lon="5.7919379230588675">
        <ele>29.1</ele>
      </trkpt>
      <trkpt lat="51.99517998844385" lon="5.786562943831086">
        <ele>25.9</ele>
      </trkpt>
      <trkpt lat="51.99409897439182" lon="5.7832699455320835">
        <ele>25.1</ele>
      </trkpt>
      <trkpt lat="51.99137896299362" lon="5.777178984135389">
        <ele>24.4</ele>
      </trkpt>
      <trkpt lat="51.98849592357874" lon="5.771899977698922">
        <ele>23.9</ele>
      </trkpt>
      <trkpt lat="51.98544197715819" lon="5.767058925703168">
        <ele>21.0</ele>
      </trkpt>
      <trkpt lat="51.98411596007645" lon="5.7632519491016865">
        <ele>17.9</ele>
      </trkpt>
      <trkpt lat="51.98275398463011" lon="5.761952921748161">
        <ele>17.2</ele>
      </trkpt>
      <trkpt lat="51.98209499940276" lon="5.761753935366869">
        <ele>17.2</ele>
      </trkpt>
      <trkpt lat="51.98189894668758" lon="5.761877987533808">
        <ele>17.3</ele>
      </trkpt>
      <trkpt lat="51.98157498613" lon="5.763369966298342">
        <ele>17.6</ele>
      </trkpt>
      <trkpt lat="51.98072095401585" lon="5.762925976887345">
        <ele>18.8</ele>
      </trkpt>
      <trkpt lat="51.980535965412855" lon="5.762594975531101">
        <ele>19.3</ele>
      </trkpt>
      <trkpt lat="51.97959995828569" lon="5.761869940906763">
        <ele>20.7</ele>
      </trkpt>
      <trkpt lat="51.977959955111146" lon="5.759449917823076">
        <ele>22.3</ele>
      </trkpt>
      <trkpt lat="51.97669395245612" lon="5.758732929825783">
        <ele>22.4</ele>
      </trkpt>
      <trkpt lat="51.97588099166751" lon="5.759453941136599">
        <ele>22.6</ele>
      </trkpt>
      <trkpt lat="51.974820932373405" lon="5.759508926421404">
        <ele>23.1</ele>
      </trkpt>
      <trkpt lat="51.974839959293604" lon="5.757669936865568">
        <ele>23.9</ele>
      </trkpt>
      <trkpt lat="51.97344998829067" lon="5.757977971807122">
        <ele>23.9</ele>
      </trkpt>
      <trkpt lat="51.97090691886842" lon="5.757913934066892">
        <ele>20.6</ele>
      </trkpt>
      <trkpt lat="51.97012094780803" lon="5.767083987593651">
        <ele>15.4</ele>
      </trkpt>
      <trkpt lat="51.96851698681712" lon="5.768190985545516">
        <ele>13.8</ele>
      </trkpt>
      <trkpt lat="51.96845697239041" lon="5.768949966877699">
        <ele>13.8</ele>
      </trkpt>
      <trkpt lat="51.96865897625685" lon="5.769225982949138">
        <ele>14.4</ele>
      </trkpt>
      <trkpt lat="51.969812996685505" lon="5.768832955509424">
        <ele>16.5</ele>
      </trkpt>
      <trkpt lat="51.9699979852885" lon="5.769024984911084">
        <ele>17.3</ele>
      </trkpt>
      <trkpt lat="51.96974392980337" lon="5.7746959291398525">
        <ele>19.7</ele>
      </trkpt>
      <trkpt lat="51.97011994197965" lon="5.7751689199358225">
        <ele>21.2</ele>
      </trkpt>
      <trkpt lat="51.96977796033025" lon="5.775597989559174">
        <ele>25.0</ele>
      </trkpt>
      <trkpt lat="51.970667950809" lon="5.775860929861665">
        <ele>32.0</ele>
      </trkpt>
      <trkpt lat="51.970608942210674" lon="5.776062933728099">
        <ele>33.9</ele>
      </trkpt>
      <trkpt lat="51.97106298990548" lon="5.7759779412299395">
        <ele>37.1</ele>
      </trkpt>
      <trkpt lat="51.97164796292782" lon="5.776314977556467">
        <ele>41.7</ele>
      </trkpt>
      <trkpt lat="51.97307598777115" lon="5.776220932602882">
        <ele>45.8</ele>
      </trkpt>
      <trkpt lat="51.971643939614296" lon="5.77918091788888">
        <ele>45.4</ele>
      </trkpt>
      <trkpt lat="51.97167696431279" lon="5.779407983645797">
        <ele>45.7</ele>
      </trkpt>
      <trkpt lat="51.972201922908425" lon="5.779912993311882">
        <ele>46.1</ele>
      </trkpt>
      <trkpt lat="51.97253594174981" lon="5.78064096160233">
        <ele>46.7</ele>
      </trkpt>
      <trkpt lat="51.9741649646312" lon="5.7818439323455095">
        <ele>47.0</ele>
      </trkpt>
      <trkpt lat="51.974244927987456" lon="5.782283982262015">
        <ele>47.3</ele>
      </trkpt>
      <trkpt lat="51.972972974181175" lon="5.78805492259562">
        <ele>55.3</ele>
      </trkpt>
      <trkpt lat="51.968870954588056" lon="5.785170961171389">
        <ele>18.1</ele>
      </trkpt>
      <trkpt lat="51.968869948759675" lon="5.784020964056253">
        <ele>13.9</ele>
      </trkpt>
      <trkpt lat="51.96873298846185" lon="5.783868916332722">
        <ele>13.3</ele>
      </trkpt>
      <trkpt lat="51.968118930235505" lon="5.784081984311342">
        <ele>11.9</ele>
      </trkpt>
      <trkpt lat="51.96793293580413" lon="5.784342996776104">
        <ele>11.8</ele>
      </trkpt>
      <trkpt lat="51.96636895649135" lon="5.787657955661416">
        <ele>11.3</ele>
      </trkpt>
      <trkpt lat="51.966853933408856" lon="5.78820395283401">
        <ele>11.7</ele>
      </trkpt>
      <trkpt lat="51.96720496751368" lon="5.788313923403621">
        <ele>11.9</ele>
      </trkpt>
      <trkpt lat="51.9669949170202" lon="5.789486970752478">
        <ele>12.3</ele>
      </trkpt>
      <trkpt lat="51.967149982228875" lon="5.790493972599506">
        <ele>12.6</ele>
      </trkpt>
      <trkpt lat="51.968267960473895" lon="5.7907969783991575">
        <ele>13.2</ele>
      </trkpt>
      <trkpt lat="51.96887296624482" lon="5.790744926780462">
        <ele>13.6</ele>
      </trkpt>
      <trkpt lat="51.96886399760842" lon="5.792894968762994">
        <ele>21.3</ele>
      </trkpt>
      <trkpt lat="51.96916197426617" lon="5.793279949575663">
        <ele>24.4</ele>
      </trkpt>
      <trkpt lat="51.96975792758167" lon="5.793564934283495">
        <ele>30.0</ele>
      </trkpt>
      <trkpt lat="51.969836968928576" lon="5.794031973928213">
        <ele>32.8</ele>
      </trkpt>
      <trkpt lat="51.97031197138131" lon="5.7945389952510595">
        <ele>37.4</ele>
      </trkpt>
      <trkpt lat="51.97104999795556" lon="5.79477796331048">
        <ele>39.8</ele>
      </trkpt>
      <trkpt lat="51.971059972420335" lon="5.795001927763224">
        <ele>39.7</ele>
      </trkpt>
      <trkpt lat="51.96993595920503" lon="5.794759942218661">
        <ele>40.5</ele>
      </trkpt>
      <trkpt lat="51.96967394091189" lon="5.794884916394949">
        <ele>40.9</ele>
      </trkpt>
      <trkpt lat="51.969665978103876" lon="5.795218935236335">
        <ele>41.4</ele>
      </trkpt>
      <trkpt lat="51.96991592645645" lon="5.795619925484061">
        <ele>42.6</ele>
      </trkpt>
      <trkpt lat="51.97144092991948" lon="5.796717954799533">
        <ele>51.9</ele>
      </trkpt>
      <trkpt lat="51.97157193906605" lon="5.797501998022199">
        <ele>54.0</ele>
      </trkpt>
      <trkpt lat="51.97145492769778" lon="5.797681957483292">
        <ele>54.6</ele>
      </trkpt>
      <trkpt lat="51.97182993404567" lon="5.798283945769072">
        <ele>56.1</ele>
      </trkpt>
      <trkpt lat="51.97178098373115" lon="5.7984759751707315">
        <ele>56.4</ele>
      </trkpt>
      <trkpt lat="51.971984999254346" lon="5.79858192242682">
        <ele>56.8</ele>
      </trkpt>
      <trkpt lat="51.97188198566437" lon="5.7990349642932415">
        <ele>57.4</ele>
      </trkpt>
      <trkpt lat="51.97197997011244" lon="5.799564952030778">
        <ele>57.9</ele>
      </trkpt>
      <trkpt lat="51.97247399948537" lon="5.800267942249775">
        <ele>58.7</ele>
      </trkpt>
      <trkpt lat="51.972695952281356" lon="5.800219997763634">
        <ele>59.0</ele>
      </trkpt>
      <trkpt lat="51.97302896529436" lon="5.800415966659784">
        <ele>59.7</ele>
      </trkpt>
      <trkpt lat="51.97296492755413" lon="5.801230939105153">
        <ele>60.7</ele>
      </trkpt>
      <trkpt lat="51.973255947232246" lon="5.801771990954876">
        <ele>60.9</ele>
      </trkpt>
      <trkpt lat="51.973106916993856" lon="5.8026329800486565">
        <ele>60.2</ele>
      </trkpt>
      <trkpt lat="51.97332493029535" lon="5.802619988098741">
        <ele>59.9</ele>
      </trkpt>
      <trkpt lat="51.97386397048831" lon="5.803546942770481">
        <ele>58.4</ele>
      </trkpt>
      <trkpt lat="51.974112996831536" lon="5.803700918331742">
        <ele>57.7</ele>
      </trkpt>
      <trkpt lat="51.97413093410432" lon="5.804091934114695">
        <ele>57.1</ele>
      </trkpt>
      <trkpt lat="51.97438892908394" lon="5.804183967411518">
        <ele>56.3</ele>
      </trkpt>
      <trkpt lat="51.97425892576575" lon="5.804528966546059">
        <ele>55.5</ele>
      </trkpt>
      <trkpt lat="51.97450099512935" lon="5.805387943983078">
        <ele>53.8</ele>
      </trkpt>
      <trkpt lat="51.97495998814702" lon="5.805772924795747">
        <ele>50.8</ele>
      </trkpt>
      <trkpt lat="51.97542794980109" lon="5.805662954226136">
        <ele>48.2</ele>
      </trkpt>
      <trkpt lat="51.97549492120743" lon="5.805946933105588">
        <ele>46.7</ele>
      </trkpt>
      <trkpt lat="51.976090958341956" lon="5.806324956938624">
        <ele>43.2</ele>
      </trkpt>
      <trkpt lat="51.976236971095204" lon="5.807551983743906">
        <ele>39.2</ele>
      </trkpt>
      <trkpt lat="51.97659596800804" lon="5.808603996410966">
        <ele>37.1</ele>
      </trkpt>
      <trkpt lat="51.976797971874475" lon="5.812152978032827">
        <ele>42.7</ele>
      </trkpt>
      <trkpt lat="51.97742694988847" lon="5.812342995777726">
        <ele>45.4</ele>
      </trkpt>
      <trkpt lat="51.9779849331826" lon="5.8127569779753685">
        <ele>48.0</ele>
      </trkpt>
      <trkpt lat="51.978948935866356" lon="5.813888953998685">
        <ele>52.6</ele>
      </trkpt>
      <trkpt lat="51.97935998439789" lon="5.81355594098568">
        <ele>54.5</ele>
      </trkpt>
      <trkpt lat="51.98089496232569" lon="5.809928923845291">
        <ele>62.1</ele>
      </trkpt>
      <trkpt lat="51.98114298284054" lon="5.810273922979832">
        <ele>62.6</ele>
      </trkpt>
      <trkpt lat="51.98780198581517" lon="5.813091918826103">
        <ele>53.1</ele>
      </trkpt>
      <trkpt lat="51.98804296553135" lon="5.815959954634309">
        <ele>52.7</ele>
      </trkpt>
      <trkpt lat="51.98793391697109" lon="5.816904930397868">
        <ele>53.0</ele>
      </trkpt>
      <trkpt lat="51.98819995857775" lon="5.816844999790192">
        <ele>53.1</ele>
      </trkpt>
      <trkpt lat="51.988119995221496" lon="5.81359994597733">
        <ele>51.4</ele>
      </trkpt>
      <trkpt lat="51.98930997401476" lon="5.813026959076524">
        <ele>54.2</ele>
      </trkpt>
      <trkpt lat="51.989622954279184" lon="5.813132990151644">
        <ele>55.6</ele>
      </trkpt>
      <trkpt lat="51.99021798558533" lon="5.814267983660102">
        <ele>59.8</ele>
      </trkpt>
      <trkpt lat="51.99038595892489" lon="5.815008943900466">
        <ele>61.5</ele>
      </trkpt>
      <trkpt lat="51.99553596787155" lon="5.810652952641249">
        <ele>42.6</ele>
      </trkpt>
      <trkpt lat="51.997100953012705" lon="5.812410973012447">
        <ele>37.4</ele>
      </trkpt>
      <trkpt lat="51.99723992496729" lon="5.812391946092248">
        <ele>37.0</ele>
      </trkpt>
      <trkpt lat="51.998603995889425" lon="5.813916949555278">
        <ele>33.7</ele>
      </trkpt>
      <trkpt lat="51.99932098388672" lon="5.814471999183297">
        <ele>32.1</ele>
      </trkpt>
      <trkpt lat="51.99992598965764" lon="5.812134956941009">
        <ele>28.1</ele>
      </trkpt>
      <trkpt lat="52.000281969085336" lon="5.811919961124659">
        <ele>27.9</ele>
      </trkpt>
      <trkpt lat="52.00142299756408" lon="5.811776965856552">
        <ele>28.9</ele>
      </trkpt>
      <trkpt lat="52.00155895203352" lon="5.812042923644185">
        <ele>29.4</ele>
      </trkpt>
      <trkpt lat="52.00205692090094" lon="5.8097959868609905">
        <ele>33.3</ele>
      </trkpt>
      <trkpt lat="52.002344923093915" lon="5.80652897246182">
        <ele>34.5</ele>
      </trkpt>
      <trkpt lat="52.002577940002084" lon="5.806654952466488">
        <ele>34.0</ele>
      </trkpt>
      <trkpt lat="52.00321194715798" lon="5.802734987810254">
        <ele>28.5</ele>
      </trkpt>
      <trkpt lat="52.004122976213694" lon="5.803242931142449">
        <ele>27.1</ele>
      </trkpt>
      <trkpt lat="52.004083916544914" lon="5.803422974422574">
        <ele>27.1</ele>
      </trkpt>
      <trkpt lat="52.005138946697116" lon="5.804130993783474">
        <ele>26.7</ele>
      </trkpt>
      <trkpt lat="52.0074519328773" lon="5.806611953303218">
        <ele>30.0</ele>
      </trkpt>
      <trkpt lat="52.007001992315054" lon="5.809211935847998">
        <ele>32.5</ele>
      </trkpt>
      <trkpt lat="52.00725797563791" lon="5.809750976040959">
        <ele>33.0</ele>
      </trkpt>
      <trkpt lat="52.0076369214803" lon="5.809959936887026">
        <ele>33.3</ele>
      </trkpt>
      <trkpt lat="52.007823921740055" lon="5.810320945456624">
        <ele>33.5</ele>
      </trkpt>
      <trkpt lat="52.0118089299649" lon="5.81213696859777">
        <ele>35.8</ele>
      </trkpt>
      <trkpt lat="52.01266396790743" lon="5.812704926356673">
        <ele>35.7</ele>
      </trkpt>
      <trkpt lat="52.01371296308935" lon="5.813081944361329">
        <ele>35.6</ele>
      </trkpt>
      <trkpt lat="52.016132986173034" lon="5.813504979014397">
        <ele>36.3</ele>
      </trkpt>
      <trkpt lat="52.01457898132503" lon="5.8188889268785715">
        <ele>34.6</ele>
      </trkpt>
      <trkpt lat="52.014931943267584" lon="5.819343980401754">
        <ele>34.6</ele>
      </trkpt>
      <trkpt lat="52.01594799757004" lon="5.815747976303101">
        <ele>36.3</ele>
      </trkpt>
      <trkpt lat="52.01671393588185" lon="5.813523922115564">
        <ele>37.5</ele>
      </trkpt>
      <trkpt lat="52.01719899661839" lon="5.8126759249717">
        <ele>37.0</ele>
      </trkpt>
      <trkpt lat="52.01730494387448" lon="5.811270950362086">
        <ele>35.5</ele>
      </trkpt>
      <trkpt lat="52.01797599904239" lon="5.809495998546481">
        <ele>33.3</ele>
      </trkpt>
      <trkpt lat="52.022865917533636" lon="5.801289947703481">
        <ele>36.1</ele>
      </trkpt>
      <trkpt lat="52.02306096442044" lon="5.801074951887131">
        <ele>36.2</ele>
      </trkpt>
      <trkpt lat="52.02360394410789" lon="5.801289947703481">
        <ele>36.7</ele>
      </trkpt>
      <trkpt lat="52.02383696101606" lon="5.801122980192304">
        <ele>37.2</ele>
      </trkpt>
      <trkpt lat="52.02400694601238" lon="5.800765994936228">
        <ele>37.9</ele>
      </trkpt>
      <trkpt lat="52.02386395074427" lon="5.799879943951964">
        <ele>39.5</ele>
      </trkpt>
      <trkpt lat="52.024622932076454" lon="5.798445967957377">
        <ele>42.2</ele>
      </trkpt>
      <trkpt lat="52.027354929596186" lon="5.80182496458292">
        <ele>41.5</ele>
      </trkpt>
      <trkpt lat="52.02653291635215" lon="5.804227972403169">
        <ele>39.7</ele>
      </trkpt>
      <trkpt lat="52.02617894858122" lon="5.8048049826174974">
        <ele>39.2</ele>
      </trkpt>
      <trkpt lat="52.024601977318525" lon="5.808896943926811">
        <ele>35.3</ele>
      </trkpt>
      <trkpt lat="52.02422797679901" lon="5.810207957401872">
        <ele>34.6</ele>
      </trkpt>
      <trkpt lat="52.02439595013857" lon="5.811440935358405">
        <ele>34.7</ele>
      </trkpt>
      <trkpt lat="52.02484396286309" lon="5.812237970530987">
        <ele>35.2</ele>
      </trkpt>
      <trkpt lat="52.02549892477691" lon="5.816407967358828">
        <ele>38.8</ele>
      </trkpt>
      <trkpt lat="52.02564694918692" lon="5.816589938476682">
        <ele>39.0</ele>
      </trkpt>
      <trkpt lat="52.02630694024265" lon="5.816794959828258">
        <ele>39.6</ele>
      </trkpt>
      <trkpt lat="52.02654196880758" lon="5.817133923992515">
        <ele>39.6</ele>
      </trkpt>
      <trkpt lat="52.02693097293377" lon="5.81703694537282">
        <ele>39.6</ele>
      </trkpt>
      <trkpt lat="52.027244959026575" lon="5.816288944333792">
        <ele>39.4</ele>
      </trkpt>
      <trkpt lat="52.02654498629272" lon="5.815607998520136">
        <ele>38.9</ele>
      </trkpt>
      <trkpt lat="52.02650399878621" lon="5.814688922837377">
        <ele>38.5</ele>
      </trkpt>
      <trkpt lat="52.02751795761287" lon="5.81171091645956">
        <ele>38.6</ele>
      </trkpt>
      <trkpt lat="52.03097398392856" lon="5.805461956188083">
        <ele>45.6</ele>
      </trkpt>
      <trkpt lat="52.032164968550205" lon="5.802839929237962">
        <ele>45.9</ele>
      </trkpt>
      <trkpt lat="52.03261197544634" lon="5.801295982673764">
        <ele>44.7</ele>
      </trkpt>
      <trkpt lat="52.03301296569407" lon="5.800788961350918">
        <ele>43.9</ele>
      </trkpt>
      <trkpt lat="52.03279696404934" lon="5.799923948943615">
        <ele>42.8</ele>
      </trkpt>
      <trkpt lat="52.032616920769215" lon="5.795248942449689">
        <ele>43.2</ele>
      </trkpt>
      <trkpt lat="52.036374947056174" lon="5.788904931396246">
        <ele>38.2</ele>
      </trkpt>
      <trkpt lat="52.036376958712935" lon="5.78487591817975">
        <ele>36.4</ele>
      </trkpt>
      <trkpt lat="52.03660192899406" lon="5.7838209718465805">
        <ele>36.8</ele>
      </trkpt>
      <trkpt lat="52.03534095548093" lon="5.784130934625864">
        <ele>37.6</ele>
      </trkpt>
      <trkpt lat="52.0353289693594" lon="5.77754694968462">
        <ele>36.5</ele>
      </trkpt>
      <trkpt lat="52.03468699939549" lon="5.777765968814492">
        <ele>36.7</ele>
      </trkpt>
      <trkpt lat="52.03499595634639" lon="5.772428959608078">
        <ele>37.1</ele>
      </trkpt>
      <trkpt lat="52.03601997345686" lon="5.7721929252147675">
        <ele>36.5</ele>
      </trkpt>
      <trkpt lat="52.035989966243505" lon="5.7702509220689535">
        <ele>36.2</ele>
      </trkpt>
      <trkpt lat="52.0359299518168" lon="5.76996099203825">
        <ele>36.2</ele>
      </trkpt>
      <trkpt lat="52.03496695496142" lon="5.7699039950966835">
        <ele>36.5</ele>
      </trkpt>
      <trkpt lat="52.034613993018866" lon="5.768953990191221">
        <ele>36.5</ele>
      </trkpt>
      <trkpt lat="52.034895960241556" lon="5.768424924463034">
        <ele>36.5</ele>
      </trkpt>
      <trkpt lat="52.03476193360984" lon="5.7678059209138155">
        <ele>36.4</ele>
      </trkpt>
      <trkpt lat="52.03493393026292" lon="5.767758982256055">
        <ele>36.4</ele>
      </trkpt>
      <trkpt lat="52.03477098606527" lon="5.766977956518531">
        <ele>36.2</ele>
      </trkpt>
      <trkpt lat="52.034789929166436" lon="5.765636935830116">
        <ele>36.1</ele>
      </trkpt>
      <trkpt lat="52.03527096658945" lon="5.764687936753035">
        <ele>36.0</ele>
      </trkpt>
      <trkpt lat="52.034979946911335" lon="5.763791995123029">
        <ele>36.0</ele>
      </trkpt>
      <trkpt lat="52.035494931042194" lon="5.762415938079357">
        <ele>35.4</ele>
      </trkpt>
      <trkpt lat="52.03526996076107" lon="5.761548997834325">
        <ele>34.5</ele>
      </trkpt>
      <trkpt lat="52.03555293381214" lon="5.761425951495767">
        <ele>34.0</ele>
      </trkpt>
      <trkpt lat="52.03565091826022" lon="5.761054968461394">
        <ele>33.6</ele>
      </trkpt>
      <trkpt lat="52.03552493825555" lon="5.760197918862104">
        <ele>32.9</ele>
      </trkpt>
      <trkpt lat="52.035663994029164" lon="5.75958495028317">
        <ele>32.3</ele>
      </trkpt>
      <trkpt lat="52.0354169793427" lon="5.75917499139905">
        <ele>31.7</ele>
      </trkpt>
      <trkpt lat="52.03576197847724" lon="5.758390948176384">
        <ele>31.2</ele>
      </trkpt>
      <trkpt lat="52.03561797738075" lon="5.757512943819165">
        <ele>30.9</ele>
      </trkpt>
      <trkpt lat="52.03572694212198" lon="5.756526980549097">
        <ele>30.6</ele>
      </trkpt>
      <trkpt lat="52.035922994837165" lon="5.756157925352454">
        <ele>30.5</ele>
      </trkpt>
      <trkpt lat="52.035836996510625" lon="5.754668964073062">
        <ele>29.6</ele>
      </trkpt>
      <trkpt lat="52.036033971235156" lon="5.754538960754871">
        <ele>29.5</ele>
      </trkpt>
      <trkpt lat="52.03629892319441" lon="5.754700982943177">
        <ele>29.4</ele>
      </trkpt>
      <trkpt lat="52.03690594062209" lon="5.754624959081411">
        <ele>29.3</ele>
      </trkpt>
      <trkpt lat="52.037101993337274" lon="5.754776922985911">
        <ele>29.3</ele>
      </trkpt>
      <trkpt lat="52.03749996609986" lon="5.754534937441349">
        <ele>29.4</ele>
      </trkpt>
      <trkpt lat="52.03729293309152" lon="5.75294598005712">
        <ele>29.9</ele>
      </trkpt>
      <trkpt lat="52.037299973890185" lon="5.75019596144557">
        <ele>31.5</ele>
      </trkpt>
      <trkpt lat="52.03755394555628" lon="5.748796937987208">
        <ele>32.2</ele>
      </trkpt>
      <trkpt lat="52.037427965551615" lon="5.748660983517766">
        <ele>32.4</ele>
      </trkpt>
      <trkpt lat="52.03768897801638" lon="5.744484951719642">
        <ele>32.2</ele>
      </trkpt>
      <trkpt lat="52.03887795098126" lon="5.743418941274285">
        <ele>29.1</ele>
      </trkpt>
      <trkpt lat="52.03908598981798" lon="5.741960993036628">
        <ele>26.6</ele>
      </trkpt>
      <trkpt lat="52.038928996771574" lon="5.7376559637486935">
        <ele>23.9</ele>
      </trkpt>
      <trkpt lat="52.03872397542" lon="5.7365309447050095">
        <ele>24.5</ele>
      </trkpt>
      <trkpt lat="52.03820999711752" lon="5.735629973933101">
        <ele>25.1</ele>
      </trkpt>
    </trkseg>
  </trk>
</gpx>
